ProviderType,DFTA ID,ProgramName,SponsorName,ProgramAddress,ProgramCity,ProgramState,Postcode,Borough,ProgramPhone,DFTA Funded,MonHourOpen,MonHourClose,TueHourOpen,TueHourClose,WedHourOpen,WedHourClose,ThuHourOpen,ThuHourClose,FriHourOpen,FriHourClose,SatHourOpen,SatHourClose,SunHourOpen,SunHourClose,Latitude,Longitude,Community Board,Council District,Census Tract,BIN,BBL,NTA,Location 1
OLDER ADULT CENTER CONTRACTS,C9002,WAYSIDE OUT BROWNSVILLE SOCIAL CLUB (C90),WAYSIDE OUT-REACH DEVELOPMENT INC,528 Mother Gaston Blvd,BROOKLYN,NY,11212,BROOKLYN,347-938-8453,Y,09:00,05:00,09:00,05:00,09:00,05:00,09:00,05:00,09:00,05:00,00:00,00:00,00:00,00:00,40.665956,-73.905923,316,41,912,3325326,3035610001,Brownsville,POINT (-73.905923 40.665956)
NATURALLY OCCURING RETIREMENT COMMUNITY CONTRACTS,N6502,STANLEY M. ISAACS NEIGHBORHOOD CENTER-TAFT NORC (N65),STANLEY M ISAACS NEIGHBORHOOD CENTER INC,415 EAST   93 STREET,NEW YORK,NY,10128,MANHATTAN,212-360-7620,Y,,,,,,,,,,,,,,,40.780904,-73.945112,108,05,152,1082367,1015730001,Yorkville,POINT (-73.945112 40.780904)
OLDER ADULT CENTER CONTRACTS,C2701,COUNCIL OF PEOPLES ORGANIZATION: HALAL SENIOR CENTER (C27),COUNCIL OF PEOPLES ORGANIZATION INC.,1075-1077 Coney Island Avenue,BROOKLYN,NY,11230,BROOKLYN,718-434-3266,Y,09:00,05:00,09:00,05:00,09:00,05:00,09:00,05:00,09:00,05:00,00:00,00:00,00:00,00:00,40.631169,-73.966466,314,45,528,3178919,3066860080,Flatbush,POINT (-73.966466 40.631169)
OLDER ADULT CENTER CONTRACTS,C4401,INDIA HOME DESI SENIOR CENTER (C44),INDIA HOME INC,178-36 Wexford Terrace Queens NY 11432,JAMAICA,NY,11432,QUEENS,917-825-1559,Y,09:00,05:00,09:00,05:00,09:00,05:00,09:00,05:00,09:00,05:00,00:00,00:00,00:00,00:00,40.713508,-73.784561,408,24,466,4534092,4099377501,Jamaica Estates-Holliswood,POINT (-73.784561 40.713508)
HOME DELIVERED MEAL SERVICE CONTRACTS,3CQ01,HENRY STREET GOOD COMPANION SENIOR CENTER (3CQ),HENRY STREET SETTLEMENT,334 Madison Street,NEW YORK,NY,10002,MANHATTAN,212-766-9200,Y,,,,,,,,,,,,,,,40.713266,-73.983237,103,02,202,1077526,1002600001,Lower East Side,POINT (-73.983237 40.713266)
HOMECARE SERVICES CONTRACTS,4HR01,PEOPLE CARE INC (4HR),PEOPLE CARE INCORPORATED,1649 61St Street,BROOKLYN,NY,11204,BROOKLYN,212-631-7384,Y,,,,,,,,,,,,,,,40.623549,-73.991333,312,44,242,3132079,3055170065,Borough Park,POINT (-73.991333 40.623549)
HOMECARE SERVICES CONTRACTS,5HR01,RICHMOND HOME NEED SERVICESINC. (5HR),RICHMOND HOME NEED SERVICES INC,3155 AMBOY ROAD,STATEN ISLAND,NY,10306,STATEN ISLAND,718-313-1401,Y,,,,,,,,,,,,,,,40.564389,-74.131879,503,51,14606,5107641,5044720001,Great Kills,POINT (-74.131879 40.564389)
OLDER ADULT CENTER CONTRACTS,2UY01,BORO PARK Y (2UY),YOUNG MENS AND YOUNG WOMENS HEBREW ASSOCIATION OF BORO PARK,4914 14 AVENUE,BROOKLYN,NY,11219,BROOKLYN,718-438-5921,Y,,,,,,,,,,,,,,,40.633562,-73.990071,312,44,236,,,Borough Park,POINT (-73.990071 40.633562)
HOME DELIVERED MEAL SERVICE CONTRACTS,4PU01,PROJECT LEAD (4PU),PROJECT LEAD INC.,123-19 Hillside Avenue,JAMAICA,NY,11418,QUEENS,718-495-6210,Y,,,,,,,,,,,,,,,40.70236,-73.82771,409,29,140,4193571,4092690025,Kew Gardens,POINT (-73.82771 40.70236)
ELDER ABUSE SERVICES CONTRACTS,1E302,ELDER JUSTICE PROGRAM - BRONX SOUTH (1E3),THE NEIGHBORHOOD SELF-HELP BY OLDER PERSONS PROJECT INC,975 Kelly Street Suite 401,BRONX,NY,10459,BRONX,718-542-0006,Y,,,,,,,,,,,,,,,40.822052,-73.895879,202,17,87,2114693,2027037501,Longwood,POINT (-73.895879 40.822052)
OLDER ADULT CENTER CONTRACTS,2DB01,HOMECREST COMMUNITY SERVICES INC. (2DB),HOMECREST COMMUNITY SERVICES INC,1413 Avenue T,BROOKLYN,NY,11229,BROOKLYN,718-376-4036,Y,,,,,,,,,,,,,,,40.60102,-73.957543,315,48,556,3196793,3072930043,Homecrest,POINT (-73.957543 40.60102)
ELDER ABUSE SERVICES CONTRACTS,1E601,CARTER BURDEN ELDER ABUSE PREVENTION (1E6),CARTER BURDEN NETWORK INC.,312 East 109th Street,NEW YORK,NY,10029,MANHATTAN,212-879-7400,Y,,,,,,,,,,,,,,,40.792306,-73.94048,111,08,170,1074278,1016800045,East Harlem South,POINT (-73.94048 40.792306)
HOME DELIVERED MEAL SERVICE CONTRACTS,55701,MEALS ON WHEELS OF S.I (557),MEALS ON WHEELS OF STATEN ISLAND INC,304 Port Richmond Avenue,STATEN ISLAND,NY,10302,STATEN ISLAND,718-727-4435,Y,,,,,,,,,,,,,,,40.634061,-74.13606,501,49,213,5025678,5010890036,Port Richmond,POINT (-74.13606 40.634061)
HOMECARE SERVICES CONTRACTS,3HR01,NEW YORK FOUNDATION FOR SENIOR CITIZENS HOME ATTENDANT SERVICES INC. (3HR),NEW YORK FOUNDATION FOR SENIOR CITIZENS HOME ATTENDANT SERVI,11 PARK PLACE SUITE 1416,NEW YORK,NY,10007,MANHATTAN,212-962-7559,Y,,,,,,,,,,,,,,,40.712828,-74.008296,101,01,21,1001399,1001240004,SoHo-TriBeCa-Civic Center-Little Italy,POINT (-74.008296 40.712828)
HOMECARE SERVICES CONTRACTS,1HR01,PERSONAL TOUCH HOME CARE OF N.Y. INC (1HR),PERSONAL-TOUCH HOME CARE OF N.Y. INC.,36-36 33rd Street,LONG ISLAND CITY,NY,11106,QUEENS,718-468-2500,Y,,,,,,,,,,,,,,,40.755141,-73.928728,401,26,55,4007923,4006010001,Queensbridge-Ravenswood-Long Island City,POINT (-73.928728 40.755141)
OLDER ADULT CENTER CONTRACTS,C8301,JASA HES OLDER ADULT CENTER (C83),THE JEWISH ASSOCIATION FOR SERVICES FOR THE AGED,2705 Schley Avenue,BRONX,NY,10465,BRONX,718-251-3700,Y,08:00,04:00,08:00,04:00,08:00,04:00,08:00,04:00,08:00,04:00,00:00,00:00,00:00,00:00,40.821662,-73.827061,210,13,144,2080423,2055680050,Schuylerville-Throgs Neck-Edgewater Park,POINT (-73.827061 40.821662)
CAREGIVER SERVICES CONTRACTS,2K201,BROOKLYN CAREGIVER RESPITE PROGRAM (2K2),THE JEWISH ASSOCIATION FOR SERVICES FOR THE AGED,161 CORBIN PLACE,BROOKLYN,NY,11235,BROOKLYN,718-934-4180,Y,09:00,05:00,09:00,05:00,09:00,05:00,09:00,05:00,09:00,05:00,00:00,00:00,00:00,00:00,40.578026,-73.954127,315,48,61004,3245719,3087190073,Brighton Beach,POINT (-73.954127 40.578026)
HOME DELIVERED MEAL SERVICE CONTRACTS,6XQ01,METROPOLITAN NEW YORK COORDINATING COUNCIL ON JEWISH POVERTY (6XQ),METROPOLITAN NY COORDINATING COUNCIL ON JEWISH POVERTY D/B/A,77 Water Street,NEW YORK,NY,10005,MANHATTAN,212-453-9500,Y,,,,,,,,,,,,,,,40.704275,-74.008681,101,01,7,1000863,1000330001,Battery Park City-Lower Manhattan,POINT (-74.008681 40.704275)
HOMECARE SERVICES CONTRACTS,2HR01,NEW PARTNERS (2HR),NEW PARTNERS INC.,220 EAST   42 STREET,NEW YORK,NY,10017,MANHATTAN,212-609-7235,Y,,,,,,,,,,,,,,,40.750256,-73.973256,106,04,88,1037546,1013157501,Turtle Bay-East Midtown,POINT (-73.973256 40.750256)
OLDER ADULT CENTER CONTRACTS,C9901,JACKIE ROBINSON OLDER ADULT CENTER (C99),CHARLES A WALBURG MULTI SERVICE ORGANIZATION INC,1301 AMSTERDAM AVENUE,NEW YORK,NY,10027,MANHATTAN,212-222-2552,Y,,,,,,,,,,,,,,,40.811994,-73.957264,109,07,20901,1084095,1019640001,Morningside Heights,POINT (-73.957264 40.811994)
ELDER ABUSE SERVICES CONTRACTS,1E501,METROPOLITAN NEW YORK COORDINATING COUNCIL ON JEWISH POVERTY (1E5),METROPOLITAN NY COORDINATING COUNCIL ON JEWISH POVERTY D/B/A,77 Water Street,NEW YORK,NY,10005,MANHATTAN,212-453-9500,Y,,,,,,,,,,,,,,,40.704275,-74.008681,101,01,7,1000863,1000330001,Battery Park City-Lower Manhattan,POINT (-74.008681 40.704275)
HOME DELIVERED MEAL SERVICE CONTRACTS,CM501,CITYMEALS ON WHEELS (CM5),CITYMEALS-ON-WHEELS,355 Lexington Ave Fl 3,NEW YORK,NY,10017,MANHATTAN,212-687-1234,Y,,,,,,,,,,,,,,,40.750245,-73.976909,106,04,80,1036147,1012950023,Murray Hill-Kips Bay,POINT (-73.976909 40.750245)
ELDER ABUSE SERVICES CONTRACTS,1E301,ELDER JUSTICE PROGRAM - BRONX NORTH (1E3),THE NEIGHBORHOOD SELF-HELP BY OLDER PERSONS PROJECT INC,975 Kelly Street Suite 401,BRONX,NY,10459,BRONX,718-542-0006,Y,,,,,,,,,,,,,,,40.822052,-73.895879,202,17,87,2114693,2027037501,Longwood,POINT (-73.895879 40.822052)
CASE MANAGEMENT SERVICES CONTRACTS,3MA01,LENOX HILL NEIGHBORHOOD HOUSE (3MA),LENOX HILL NEIGHBORHOOD HOUSE INC,331 EAST   70 STREET,NEW YORK,NY,10021,MANHATTAN,212-744-5022,Y,,,,,,,,,,,,,,,40.766925,-73.95795,108,05,126,1044838,1014450014,Lenox Hill-Roosevelt Island,POINT (-73.95795 40.766925)
OLDER ADULT CENTER CONTRACTS,C8312,JASA LUNA PARK ANNEX (C83),THE JEWISH ASSOCIATION FOR SERVICES FOR THE AGED,2880 West 12th Street,BROOKLYN,NY,11224,BROOKLYN,718-388-6865,Y,08:00,04:00,08:00,04:00,08:00,04:00,08:00,04:00,08:00,04:00,00:00,00:00,00:00,00:00,40.577347,-73.979625,313,47,350,3196559,3072660060,West Brighton,POINT (-73.979625 40.577347)
OLDER ADULT CENTER CONTRACTS,C4101,HENRY STREET OLDER ADULT SENIOR CENTER (C41),HENRY STREET SETTLEMENT,334 Madison Street,NEW YORK,NY,10002,MANHATTAN,212-766-9200,Y,,,,,,,,,,,,,,,40.713266,-73.983237,103,02,202,1077526,1002600001,Lower East Side,POINT (-73.983237 40.713266)
NEW YORK CONNECTS CONTRACTS,5C401,CASC (5C4),COMMUNITY AGENCY FOR SENIOR CITIZENS INC,120 Stuyvesant Place Suite 409,STATEN ISLAND,NY,10301,STATEN ISLAND,718-981-6226,Y,,,,,,,,,,,,,,,40.643264,-74.077159,501,49,3,5000084,5000080060,West New Brighton-New Brighton-St. George,POINT (-74.077159 40.643264)
CASE MANAGEMENT SERVICES CONTRACTS,2MH01,CCNS BENSON RIDGE SENIOR SERVICES (2MH),CATHOLIC CHARITIES NEIGHBORHOOD SERVICES INC,6823 Fifth Avenue 3rd Floor,BROOKLYN,NY,11220,BROOKLYN,718-722-6000,Y,,,,,,,,,,,,,,,40.633953,-74.020799,310,43,130,3145313,3058650001,Bay Ridge,POINT (-74.020799 40.633953)
CITY MEALS ADMINISTRATIVE SERVICES CONTRACTS,CM601,CITYMEALS ON WHEELS (CM6),CITYMEALS-ON-WHEELS,355 Lexington Ave Fl 3,NEW YORK,NY,10017,MANHATTAN,212-687-1234,Y,,,,,,,,,,,,,,,40.750245,-73.976909,106,04,80,1036147,1012950023,Murray Hill-Kips Bay,POINT (-73.976909 40.750245)
CASE MANAGEMENT SERVICES CONTRACTS,3M801,NEW YORK FOUNDATION FOR SENIOR CITIZENS INC. (3M8),NEW YORK FOUNDATION FOR SENIOR CITIZENS INC,11 Park Place,NEW YORK,NY,10007,MANHATTAN,212-962-7653,Y,,,,,,,,,,,,,,,40.712828,-74.008296,101,01,21,1001399,1001240004,SoHo-TriBeCa-Civic Center-Little Italy,POINT (-74.008296 40.712828)
HOME DELIVERED MEAL SERVICE CONTRACTS,42R01,QUEENS COMM HOUSE HOME DELIVERED MEALS - QUEENS 5 (42R),QUEENS COMMUNITY HOUSE INC.,110-01 62nd Drive,FLUSHING,NY,11375,QUEENS,718-592-5757,Y,08:00,04:00,08:00,04:00,08:00,04:00,08:00,04:00,08:00,04:00,00:00,00:00,00:00,00:00,40.73591,-73.850212,406,29,745,4432108,4021590015,Forest Hills,POINT (-73.850212 40.73591)
NEW YORK CONNECTS CONTRACTS,1C401,NEIGHBORHOOD S.H.O.P.P. INC. (1C4),THE NEIGHBORHOOD SELF-HELP BY OLDER PERSONS PROJECT INC,975 Kelly Street Suite #301,BRONX,NY,10459,BRONX,718-542-0006,Y,,,,,,,,,,,,,,,40.822052,-73.895879,202,17,87,2114693,2027037501,Longwood,POINT (-73.895879 40.822052)
CASE MANAGEMENT SERVICES CONTRACTS,2ME01,HEIGHTS AND HILLS INC (2ME),HEIGHTS AND HILLS INC.,81 WILLOUGHBY STREET,BROOKLYN,NY,11201,BROOKLYN,718-596-8789,Y,,,,,,,,,,,,,,,40.692184,-73.985753,302,33,11,3000350,3001480046,DUMBO-Vinegar Hill-Downtown Brooklyn-Boerum Hill,POINT (-73.985753 40.692184)
NATURALLY OCCURING RETIREMENT COMMUNITY CONTRACTS,N6501,STANLEY M. ISAACS NEIGHBORHOOD CENTER INC. (N65),STANLEY M ISAACS NEIGHBORHOOD CENTER INC,415 EAST   93 STREET,NEW YORK,NY,10128,MANHATTAN,212-360-7620,Y,,,,,,,,,,,,,,,40.780904,-73.945112,108,05,152,1082367,1015730001,Yorkville,POINT (-73.945112 40.780904)
CASE MANAGEMENT SERVICES CONTRACTS,2MF01,SPECIAL SERVICES FOR SENIOR CITIZENS (2MF),RECREATION ROOMS AND SETTLEMENT INC,1304 EAST   57 STREET,BROOKLYN,NY,11234,BROOKLYN,718-257-1600,Y,,,,,,,,,,,,,,,40.621348,-73.920355,318,46,690,3345504,3078810033,Flatlands,POINT (-73.920355 40.621348)
CASE MANAGEMENT SERVICES CONTRACTS,2MJ01,JASA CASE MANAGEMENT BK-6 (2MJ),THE JEWISH ASSOCIATION FOR SERVICES FOR THE AGED,3161 Brighton 6th STR,BROOKLYN,NY,11235,BROOKLYN,212-273-5200,Y,,,,,,,,,,,,,,,40.575657,-73.961105,313,48,36002,3245130,3086930012,Brighton Beach,POINT (-73.961105 40.575657)
GERIATRIC MENTAL HEALTH SERVICES CONTRACTS,2G801,OHEL CHILDREN'S HOME AND FAMILY SERVICES INC. (2G8),OHEL CHILDREN'S HOME AND FAMILY SERVICES INC,1268 EAST   14 STREET,BROOKLYN,NY,11230,BROOKLYN,718-686-3222,Y,,,,,,,,,,,,,,,40.618643,-73.961112,314,44,768,3180645,3067330035,Midwood,POINT (-73.961112 40.618643)
CASE MANAGEMENT SERVICES CONTRACTS,1MA01,RAIN MULTI SERVICES (1MA),REGIONAL AID FOR INTERIM NEEDS INC,3377 White Plains Road,BRONX,NY,10467,BRONX,718-892-5520,Y,,,,,,,,,,,,,,,40.874872,-73.86706,212,12,374,2087299,2046240037,Williamsbridge-Olinville,POINT (-73.86706 40.874872)
GERIATRIC MENTAL HEALTH SERVICES CONTRACTS,6G801,GREENWICH HOUSE (6G8),GREENWICH HOUSE INC.,122 WEST   27 STREET,NEW YORK,NY,10001,MANHATTAN,212-991-0003,Y,,,,,,,,,,,,,,,40.745782,-73.991847,105,03,95,1015051,1008020056,Midtown-Midtown South,POINT (-73.991847 40.745782)
GERIATRIC MENTAL HEALTH SERVICES CONTRACTS,4G801,SAM FIELD (4G8),SAMUEL FIELD YM & YWHA INC,58-20 LITTLE NECK PARKWAY,FLUSHING,NY,11362,QUEENS,718-225-6750,Y,,,,,,,,,,,,,,,40.761577,-73.723122,411,23,152902,4173029,4083520051,Douglas Manor-Douglaston-Little Neck,POINT (-73.723122 40.761577)
GERIATRIC MENTAL HEALTH SERVICES CONTRACTS,3G101,SERVICE PROGRAM FOR OLDER PEOPLE INC. (3G1),SERVICE PROGRAM FOR OLDER PEOPLE INC,302 WEST   91 STREET,NEW YORK,NY,10024,MANHATTAN,212-787-7120,Y,,,,,,,,,,,,,,,40.792171,-73.975796,107,06,179,1034085,1012510022,Upper West Side,POINT (-73.975796 40.792171)
CASE MANAGEMENT SERVICES CONTRACTS,5M401,CASC (5M4),COMMUNITY AGENCY FOR SENIOR CITIZENS INC,120 Stuyvesant Place Suite 409,STATEN ISLAND,NY,10301,STATEN ISLAND,718-981-6226,Y,,,,,,,,,,,,,,,40.643264,-74.077159,501,49,3,5000084,5000080060,West New Brighton-New Brighton-St. George,POINT (-74.077159 40.643264)
CASE MANAGEMENT SERVICES CONTRACTS,1M901,CASE MANAGEMENT PROGRAM (1M9),THE NEIGHBORHOOD SELF-HELP BY OLDER PERSONS PROJECT INC,910 East 172 Street 2nd Fl.,BRONX,NY,10460,BRONX,718-542-0006,Y,,,,,,,,,,,,,,,40.834198,-73.890157,203,17,155,2010507,2029770103,Crotona Park East,POINT (-73.890157 40.834198)
CASE MANAGEMENT SERVICES CONTRACTS,2MG01,JASA CASE MANAGEMENT BK-4 (2MG),THE JEWISH ASSOCIATION FOR SERVICES FOR THE AGED,2211 CHURCH AVENUE,BROOKLYN,NY,11226,BROOKLYN,212-273-5200,Y,,,,,,,,,,,,,,,40.650424,-73.958175,314,40,79602,3116881,3050890071,Prospect Lefferts Gardens-Wingate,POINT (-73.958175 40.650424)
GERIATRIC MENTAL HEALTH SERVICES CONTRACTS,5G301,WEILL CORNELL MEDICINE (5G3),WEILL MEDICAL COLLEGE OF CORNELL UNIVERSITY,21 BLOOMINGDALE RD,WHITE PLAINS,NY,10605,,646-962-8290,Y,,,,,,,,,,,,,,,,,,,,,,,
CASE MANAGEMENT SERVICES CONTRACTS,4MH01,JASA CASE MANAGEMENT (4MH),THE JEWISH ASSOCIATION FOR SERVICES FOR THE AGED,131 BEACH   19 STREET,FAR ROCKAWAY,NY,11691,QUEENS,212-273-5200,Y,,,,,,,,,,,,,,,40.593761,-73.753207,414,31,99802,4301622,4158100055,Far Rockaway-Bayswater,POINT (-73.753207 40.593761)
CASE MANAGEMENT SERVICES CONTRACTS,3MB01,ISABELLA GERIATRIC CENTER (3MB),ISABELLA GERIATRIC CENTER INC,515 AUDUBON AVENUE,NEW YORK,NY,10040,MANHATTAN,212-342-9307,Y,,,,,,,,,,,,,,,40.854783,-73.927909,112,10,277,1063861,1021600001,Washington Heights North,POINT (-73.927909 40.854783)
CASE MANAGEMENT SERVICES CONTRACTS,4MG01,SNAP EASTERN QUEENS OAC (ISC) (4MG),SERVICES NOW FOR ADULT PERSONS INC,80-45 Winchester Blvd.,JAMAICA,NY,11427,QUEENS,718-454-2100,Y,,,,,,,,,,,,,,,40.737685,-73.734021,413,23,1567,4537294,4078800400,Bellerose,POINT (-73.734021 40.737685)
CASE MANAGEMENT SERVICES CONTRACTS,4MB01,SUNNYSIDE COMMUNITY SERVICES (4MB),SUNNYSIDE COMMUNITY SERVICES INC,43-31 39th St,LONG ISLAND CITY,NY,11104,QUEENS,718-784-6173,Y,,,,,,,,,,,,,,,40.74519,-73.925909,402,26,179,4436677,4001910005,Hunters Point-Sunnyside-West Maspeth,POINT (-73.925909 40.74519)
CASE MANAGEMENT SERVICES CONTRACTS,4MD01,QCH CASE MANAGEMENT (4MD),QUEENS COMMUNITY HOUSE INC.,107-20 71 Road,FLUSHING,NY,11375,QUEENS,718-592-5757,Y,,,,,,,,,,,,,,,40.720067,-73.843469,406,29,737,4533735,4032577501,Forest Hills,POINT (-73.843469 40.720067)
OLDER ADULT CENTER CONTRACTS,C5502,POLISH AND SLAVIC CENTER INC (C55),POLISH & SLAVIC CENTER INC,176 Java Street,BROOKLYN,NY,11222,BROOKLYN,718-383-5290,Y,,,,,,,,,,,,,,,40.731692,-73.953577,301,33,575,3064615,3025510014,Greenpoint,POINT (-73.953577 40.731692)
NEW YORK CONNECTS CONTRACTS,6C401,PSS NY CONNECTS (6C4),PRESBYTERIAN SENIOR SERVICES,1655 Flatbush Avenue,BROOKLYN,NY,11210,BROOKLYN,212-874-6633,Y,,,,,,,,,,,,,,,40.630096,-73.944757,318,45,776,3206459,3075790010,Flatlands,POINT (-73.944757 40.630096)
CASE MANAGEMENT SERVICES CONTRACTS,2MK01,JASA CASE MANAGEMENT BK-7 (2MK),THE JEWISH ASSOCIATION FOR SERVICES FOR THE AGED,161 Corbin Place,BROOKLYN,NY,11235,BROOKLYN,212-273-5200,Y,,,,,,,,,,,,,,,40.578026,-73.954127,315,48,61004,3245719,3087190073,Brighton Beach,POINT (-73.954127 40.578026)
CASE MANAGEMENT SERVICES CONTRACTS,4MF01,SOUTHWEST QUEENS SENIOR CENTER (4MF),CATHOLIC CHARITIES NEIGHBORHOOD SERVICES INC,183-16 Jamaica Avenue,JAMAICA,NY,11423,QUEENS,718-722-6000,Y,,,,,,,,,,,,,,,40.708932,-73.776983,412,27,444,4438800,4103520058,Jamaica,POINT (-73.776983 40.708932)
GERIATRIC MENTAL HEALTH SERVICES CONTRACTS,1G701,JASA GERIATRIC MENTAL HEALTH (1G7),THE JEWISH ASSOCIATION FOR SERVICES FOR THE AGED,1490 SOUTHERN BLVD FRNT,BRONX,NY,10460,BRONX,212-273-5200,Y,,,,,,,,,,,,,,,40.833248,-73.890198,203,17,157,2010571,2029810014,Crotona Park East,POINT (-73.890198 40.833248)
LEGAL SERVICES CONTRACTS,20I01,LEGAL SERVICES NYC (20I),BROOKLYN LEGAL SERVICES INC,40 Worth Street Suite 606,NEW YORK,NY,10013,MANHATTAN,917-661-4500,Y,09:00,04:30,09:00,04:30,09:00,04:30,09:00,04:30,09:00,04:30,00:00,00:00,00:00,00:00,40.717363,-74.006897,101,01,33,1001622,1001480015,SoHo-TriBeCa-Civic Center-Little Italy,POINT (-74.006897 40.717363)
OLDER ADULT CENTER CONTRACTS,C9004,WAYSIDE OUT LANGSTON HUGHES SOCIAL CLUB (C90),WAYSIDE OUT-REACH DEVELOPMENT INC,301 Sutter Avenue,BROOKLYN,NY,11212,BROOKLYN,917-962-8277,Y,09:00,05:00,09:00,05:00,09:00,05:00,09:00,05:00,09:00,05:00,00:00,00:00,00:00,00:00,40.667312,-73.909072,316,41,906,3348344,3035260021,Brownsville,POINT (-73.909072 40.667312)
NATURALLY OCCURING RETIREMENT COMMUNITY CONTRACTS,N6101,SAMUEL FIELD Y CLEARVIEW GARDENS NORC (N61),SAMUEL FIELD YM & YWHA INC,163-59 17TH AVENUE,FLUSHING,NY,11357,QUEENS,718-352-4157,Y,09:00,05:00,09:00,05:00,09:00,05:00,09:00,05:00,09:00,05:00,00:00,00:00,00:00,00:00,40.782976,-73.798982,407,19,1017,4444920,4057300001,Ft. Totten-Bay Terrace-Clearview,POINT (-73.798982 40.782976)
OLDER ADULT CENTER CONTRACTS,C4704,JCCGCI KINGS HIGHWAY OLDER ADULT CENTER (C47),JEWISH COMMUNITY COUNCIL OF GREATER CONEY ISLAND INC,1879 East 3rd Street,BROOKLYN,NY,11223,BROOKLYN,917-596-0761,Y,09:00,05:00,09:00,05:00,09:00,05:00,09:00,05:00,09:00,05:00,00:00,00:00,00:00,00:00,40.604098,-73.969944,315,47,41402,3178594,3066810225,Homecrest,POINT (-73.969944 40.604098)
OLDER ADULT CENTER CONTRACTS,C0201,ALLEN AME THEODORA JACKSON CENTER (C02),ALLEN AME CHURCH dba ALLEN COMMUNITY SENIOR CITIZENS CENTER,92-47 165th St Jamaica NY 11433,JAMAICA,NY,11433,QUEENS,929-357-9552,Y,09:00,05:00,09:00,05:00,09:00,05:00,09:00,05:00,09:00,05:00,00:00,00:00,00:00,00:00,40.704457,-73.794108,412,27,444,4216225,4101550029,Jamaica,POINT (-73.794108 40.704457)
NATURALLY OCCURING RETIREMENT COMMUNITY CONTRACTS,N5901,FOREST HILLS COMMUNITY HOUSE NORC (N59),QUEENS COMMUNITY HOUSE INC.,108-03 62ND DRIVE,FLUSHING,NY,11375,QUEENS,718-760-5231,Y,09:00,05:00,09:00,05:00,09:00,05:00,09:00,05:00,09:00,05:00,00:00,00:00,00:00,00:00,40.735716,-73.850833,406,29,745,4432109,4021590002,Forest Hills,POINT (-73.850833 40.735716)
NATURALLY OCCURING RETIREMENT COMMUNITY CONTRACTS,N6202,SELFHELP BIG SIX NORC (N62),SELFHELP COMMUNITY SERVICES INC,61-10 QUEENS BLVD.,FLUSHING,NY,11377,QUEENS,718-565-6569,Y,09:00,05:00,09:00,05:00,09:00,05:00,09:00,05:00,09:00,05:00,00:00,00:00,00:00,00:00,40.741347,-73.903226,402,26,245,4437383,4023140100,Woodside,POINT (-73.903226 40.741347)
NATURALLY OCCURING RETIREMENT COMMUNITY CONTRACTS,N6204,SELFHELP FRESH MEADOWS NORC (N62),SELFHELP COMMUNITY SERVICES INC,67-00 192ND STREET,FLUSHING,NY,11365,QUEENS,718-559-4330,Y,09:00,05:00,09:00,05:00,09:00,05:00,09:00,05:00,09:00,05:00,00:00,00:00,00:00,00:00,40.737813,-73.781534,408,23,1347,4444040,4071170003,Fresh Meadows-Utopia,POINT (-73.781534 40.737813)
NATURALLY OCCURING RETIREMENT COMMUNITY CONTRACTS,N6203,SELFHELP NORTHRIDGE 11-BRULENE NORC (N62),SELFHELP COMMUNITY SERVICES INC,33-45 90TH STREET,FLUSHING,NY,11372,QUEENS,718-396-5425,Y,09:00,05:00,09:00,05:00,09:00,05:00,09:00,05:00,09:00,05:00,00:00,00:00,00:00,00:00,40.75489,-73.877655,403,25,277,4431400,4014380001,Jackson Heights,POINT (-73.877655 40.75489)
HOME DELIVERED MEAL SERVICE CONTRACTS,42N01,CCNS HOME DELIVERED MEALS - QUEENS 1 (42N),CATHOLIC CHARITIES NEIGHBORHOOD SERVICES INC,91-34 182nd Place - 2nd floor,JAMAICA,NY,11423,QUEENS,718-806-1080,Y,08:00,04:00,08:00,04:00,08:00,04:00,08:00,04:00,08:00,04:00,00:00,00:00,00:00,00:00,40.763727,-73.87957,403,22,329,4032388,4013630011,Jackson Heights,POINT (-73.87957 40.763727)
HOME DELIVERED MEAL SERVICE CONTRACTS,54201,MOW SI HOME DELIVERED MEALS - STATEN ISLAND 1 (542),MEALS ON WHEELS OF STATEN ISLAND INC,304 Port Richmond Ave.,STATEN ISLAND,NY,10302,STATEN ISLAND,718-727-4435,Y,09:00,05:00,09:00,05:00,09:00,05:00,09:00,05:00,09:00,05:00,00:00,00:00,00:00,00:00,40.634061,-74.13606,501,49,213,5025678,5010890036,Port Richmond,POINT (-74.13606 40.634061)
OLDER ADULT CENTER CONTRACTS,C7204,RAICES BLAND SOCIAL CLUB (C72),SPANISH SPEAKING ELDERLY COUNCIL RAICES INC.,40-15 College Point Blvd,FLUSHING,NY,11354,QUEENS,718-694-0895,Y,09:00,05:00,09:00,05:00,09:00,05:00,09:00,05:00,09:00,05:00,00:00,00:00,00:00,00:00,40.757803,-73.83414,407,20,871,4443443,4050370008,Flushing,POINT (-73.83414 40.757803)
NATURALLY OCCURING RETIREMENT COMMUNITY CONTRACTS,N6802,JASA BUSHWICK HYLAN NORC (N68),THE JEWISH ASSOCIATION FOR SERVICES FOR THE AGED,50 Humboldt Street,BROOKLYN,NY,11206,BROOKLYN,718-408-7532,Y,09:00,05:00,09:00,05:00,09:00,05:00,09:00,05:00,09:00,05:00,00:00,00:00,00:00,00:00,40.703179,-73.940761,301,34,489,3338434,3031290001,Bushwick South,POINT (-73.940761 40.703179)
NATURALLY OCCURING RETIREMENT COMMUNITY CONTRACTS,N6201,SELFHELP BOULEVARD GARDENS NORC (N62),SELFHELP COMMUNITY SERVICES INC,51-42 30th AVENUE,FLUSHING,NY,11377,QUEENS,646-648-3202,Y,09:00,05:00,09:00,05:00,09:00,05:00,09:00,05:00,09:00,05:00,00:00,00:00,00:00,00:00,40.759516,-73.904993,401,22,295,4431254,4011110001,Woodside,POINT (-73.904993 40.759516)
OLDER ADULT CENTER CONTRACTS,C1202,BCA DYKER HEIGHTS OLDER ADULT CENTER (C12),BROOKLYN CHINESE-AMERICAN ASSOCIATION INC,TBD -- 6521 8th AVE OR 911 66th St Broo,BROOKLYN,NY,11219,BROOKLYN,718-622-3333,Y,09:00,05:00,09:00,05:00,09:00,05:00,09:00,05:00,09:00,05:00,00:00,00:00,00:00,00:00,,,,,,,,,
HOME DELIVERED MEAL SERVICE CONTRACTS,42G01,JASA HOME DELIVERED MEALS - QUEENS 7 (42G),THE JEWISH ASSOCIATION FOR SERVICES FOR THE AGED,131 Beach 19th Street,FAR ROCKAWAY,NY,11691,QUEENS,718-769-7455,Y,09:00,05:00,09:00,05:00,09:00,05:00,09:00,05:00,09:00,05:00,00:00,00:00,00:00,00:00,40.593761,-73.753207,414,31,998,4301622,4158100055,Far Rockaway-Bayswater,POINT (-73.753207 40.593761)
NATURALLY OCCURING RETIREMENT COMMUNITY CONTRACTS,N5101,CENTER LIGHT PARKCHESTER ENHANCED NORC (N51),CENTERLIGHT HEALTH SYSTEM INC.,1525 Unionport Road,BRONX,NY,10462,BRONX,718-409-1619,Y,09:00,05:00,09:00,05:00,09:00,05:00,09:00,05:00,09:00,05:00,00:00,00:00,00:00,00:00,40.836585,-73.856898,209,18,212,2096653,2039387501,Parkchester,POINT (-73.856898 40.836585)
NATURALLY OCCURING RETIREMENT COMMUNITY CONTRACTS,N6901,NEIGHBORHOOD SHOPP NORC -LAFAYETTE ESTATES (N69),THE NEIGHBORHOOD SELF-HELP BY OLDER PERSONS PROJECT INC,953 SOUTHERN BLVD,BRONX,NY,10459,BRONX,718-542-0006,Y,09:00,05:00,09:00,05:00,09:00,05:00,09:00,05:00,09:00,05:00,00:00,00:00,00:00,00:00,40.82084,-73.872649,209,17,28,2092725,2036270030,Soundview-Castle Hill-Clason Point-Harding Park,POINT (-73.872649 40.82084)
OLDER ADULT CENTER CONTRACTS,C2101,CPC BROOKLYN SENIOR CENTER (C21),CHINESE AMERICAN PLANNING COUNCIL INC,4101 8th Ave,BROOKLYN,NY,11232,BROOKLYN,917-922-8382,Y,09:00,05:00,09:00,05:00,09:00,05:00,09:00,05:00,09:00,05:00,00:00,00:00,00:00,00:00,40.64607,-73.998544,312,38,92,3018218,3009230009,Sunset Park East,POINT (-73.998544 40.64607)
OLDER ADULT CENTER CONTRACTS,C7205,TIMES PLAZA CENTER OAC (C72),SPANISH SPEAKING ELDERLY COUNCIL RAICES INC.,460 Atlantic Avenue,BROOKLYN,NY,11217,BROOKLYN,718-694-0895,Y,09:00,05:00,09:00,05:00,09:00,05:00,09:00,05:00,09:00,05:00,00:00,00:00,00:00,00:00,40.686296,-73.983223,302,33,41,3000937,3001840025,DUMBO-Vinegar Hill-Downtown Brooklyn-Boerum Hill,POINT (-73.983223 40.686296)
HOME DELIVERED MEAL SERVICE CONTRACTS,4TV01,INDIA HOME (4TV),INDIA HOME INC,178-36 Wexford Terrace,JAMAICA,NY,11432,QUEENS,917-288-7600,Y,,,,,,,,,,,,,,,40.713508,-73.784561,408,24,466,4534092,4099377501,Jamaica Estates-Holliswood,POINT (-73.784561 40.713508)
NATURALLY OCCURING RETIREMENT COMMUNITY CONTRACTS,N6301,SPRING CREEK NORC (N63),SPRING CREEK SENIOR PARTNERS INC,160 SCHROEDERS AVENUE,BROOKLYN,NY,11239,BROOKLYN,718-348-7620,Y,09:00,05:00,09:00,05:00,09:00,05:00,09:00,05:00,09:00,05:00,00:00,00:00,00:00,00:00,40.648735,-73.879612,305,42,1058,3343606,3044520200,Starrett City,POINT (-73.879612 40.648735)
NATURALLY OCCURING RETIREMENT COMMUNITY CONTRACTS,N5401,HANAC QUEENSVIEW NORC (N54),HANAC INC.,33-34 Crescent Street,LONG ISLAND CITY,NY,11106,QUEENS,718-433-9045,Y,09:00,05:00,09:00,05:00,09:00,05:00,09:00,05:00,09:00,05:00,00:00,00:00,00:00,00:00,40.762105,-73.929717,401,22,45,4430862,4005570003,Astoria,POINT (-73.929717 40.762105)
OLDER ADULT CENTER CONTRACTS,C9302,YOUNG AT HEART SENIOR CENTER AT THE FLATBUSH YMCA (C93),YMCA OF GREATER NEW YORK,1401 Flatbush Avenue,BROOKLYN,NY,11210,BROOKLYN,212-630-9645,Y,09:00,05:00,09:00,05:00,09:00,05:00,09:00,05:00,09:00,05:00,00:00,00:00,00:00,00:00,40.636511,-73.951539,314,45,788,3120877,3052280008,Flatbush,POINT (-73.951539 40.636511)
NATURALLY OCCURING RETIREMENT COMMUNITY CONTRACTS,N6801,JASA CO OP CITY NORC (N68),THE JEWISH ASSOCIATION FOR SERVICES FOR THE AGED,2049 Bartow Avenue,BRONX,NY,10475,BRONX,718-320-2066,Y,09:00,05:00,09:00,05:00,09:00,05:00,09:00,05:00,09:00,05:00,00:00,00:00,00:00,00:00,40.86942,-73.829027,210,12,46201,2097466,2051410100,Co-op City,POINT (-73.829027 40.86942)
OLDER ADULT CENTER CONTRACTS,C7401,PROSPECT HILL NSC (C74),ST JOHN ST MATTHEW EMANUEL LUTHERAN CHURCH,283 Prospect Avenue,BROOKLYN,NY,11215,BROOKLYN,718-726--964,Y,09:00,05:00,09:00,05:00,09:00,05:00,09:00,05:00,09:00,05:00,00:00,00:00,00:00,00:00,40.663323,-73.989165,307,39,141,3337801,3010530073,Park Slope-Gowanus,POINT (-73.989165 40.663323)
OLDER ADULT CENTER CONTRACTS,C9006,WAYSIDE OUT TOMPKINS LOUIS ARMSTRONG CENTER (C90),WAYSIDE OUT-REACH DEVELOPMENT INC,360 Nostrand Avenue,BROOKLYN,NY,11216,BROOKLYN,718-638-3001,Y,09:00,05:00,09:00,05:00,09:00,05:00,09:00,05:00,09:00,05:00,00:00,00:00,00:00,00:00,40.687303,-73.950965,303,36,243,3350437,3018020051,Bedford,POINT (-73.950965 40.687303)
NATURALLY OCCURING RETIREMENT COMMUNITY CONTRACTS,N6805,JASA TRUMPS UNITED NORC (N68),THE JEWISH ASSOCIATION FOR SERVICES FOR THE AGED,458 NEPTUNE AVENUE,BROOKLYN,NY,11224,BROOKLYN,718-372-8815,Y,09:00,05:00,09:00,05:00,09:00,05:00,09:00,05:00,09:00,05:00,00:00,00:00,00:00,00:00,40.579782,-73.970866,313,48,356,3196580,3072740001,West Brighton,POINT (-73.970866 40.579782)
HOME DELIVERED MEAL SERVICE CONTRACTS,28E01,RISEBORO HOME DELIVERED MEALS - BROOKLYN 1 (28E),RISEBORO COMMUNITY PARTNERSHIP INC,80 Seigel St.,BROOKLYN,NY,11206,BROOKLYN,718-416-4599,Y,09:00,05:00,09:00,05:00,09:00,05:00,09:00,05:00,09:00,05:00,00:00,00:00,00:00,00:00,40.704366,-73.943775,301,34,491,3071447,3030960030,East Williamsburg,POINT (-73.943775 40.704366)
HOME DELIVERED MEAL SERVICE CONTRACTS,42S01,CORONA CONG HOME DELIVERED MEALS - QUEENS 6 (42S),CORONA CONGREGATIONAL CHURCH,102-19 34th Avenue,FLUSHING,NY,11368,QUEENS,718-899-0553,Y,09:00,05:00,09:00,05:00,09:00,05:00,09:00,05:00,09:00,05:00,00:00,00:00,00:00,00:00,40.755725,-73.865988,403,21,379,4043070,4017360006,North Corona,POINT (-73.865988 40.755725)
NATURALLY OCCURING RETIREMENT COMMUNITY CONTRACTS,N5601,ISABELLA GERIATRIC FT GEORGE VISTAS NORC (N56),ISABELLA GERIATRIC CENTER INC,17 FT. GEORGE HILL,NEW YORK,NY,10040,MANHATTAN,212-304-1064,Y,09:00,05:00,09:00,05:00,09:00,05:00,09:00,05:00,09:00,05:00,00:00,00:00,00:00,00:00,40.8577,-73.927505,112,10,283,1064067,1021700131,Washington Heights North,POINT (-73.927505 40.8577)
OLDER ADULT CENTER CONTRACTS,C0804,BERGEN BASIN MIDWOOD OLDER ADULT CENTER (C08),BERGEN BASIN COMMUNITY DEVELOPMENT CORPORATION DBA MILLENNIU,2164 Ralph Avenue,BROOKLYN,NY,11234,BROOKLYN,718-253-5557,Y,09:00,05:00,09:00,05:00,09:00,05:00,09:00,05:00,09:00,05:00,00:00,00:00,00:00,00:00,40.625065,-73.917858,318,46,692,3218178,3078390001,Flatlands,POINT (-73.917858 40.625065)
NATURALLY OCCURING RETIREMENT COMMUNITY CONTRACTS,N6803,JASA CONEY ISLAND ACTIVE AGING NORC (N68),THE JEWISH ASSOCIATION FOR SERVICES FOR THE AGED,2950 WEST 35TH STREET,BROOKLYN,NY,11224,BROOKLYN,718-943-7812,Y,09:00,05:00,09:00,05:00,09:00,05:00,09:00,05:00,09:00,05:00,00:00,00:00,00:00,00:00,40.573838,-74.000493,313,47,342,3189511,3070460022,Seagate-Coney Island,POINT (-74.000493 40.573838)
NATURALLY OCCURING RETIREMENT COMMUNITY CONTRACTS,N6102,SAMUEL FIELD Y DEEPDALE GARDENS NORC (N61),SAMUEL FIELD YM & YWHA INC,57-17 Marathon Parkway,FLUSHING,NY,11362,QUEENS,718-225-3929,Y,09:00,05:00,09:00,05:00,09:00,05:00,09:00,05:00,09:00,05:00,00:00,00:00,00:00,00:00,40.75942,-73.731285,411,23,152902,4459800,4083370001,Douglas Manor-Douglaston-Little Neck,POINT (-73.731285 40.75942)
NATURALLY OCCURING RETIREMENT COMMUNITY CONTRACTS,N6804,JASA WARBASSE CARES NORC (N68),THE JEWISH ASSOCIATION FOR SERVICES FOR THE AGED,2844 OCEAN PARKWAY,BROOKLYN,NY,11235,BROOKLYN,718-996-5200,Y,09:00,05:00,09:00,05:00,09:00,05:00,09:00,05:00,09:00,05:00,00:00,00:00,00:00,00:00,40.580542,-73.968428,313,47,356,3320735,3072530001,West Brighton,POINT (-73.968428 40.580542)
OLDER ADULT CENTER CONTRACTS,C9801,CROWN HEIGHTS PRESERVATION COMMITTEE CORP (C98),CROWN HEIGHTS PRESERVATION CORP,483 Albany Avenue,BROOKLYN,NY,11203,BROOKLYN,718-774-9213,Y,,,,,,,,,,,,,,,40.663388,-73.939975,309,41,331,3038418,3014267501,Crown Heights South,POINT (-73.939975 40.663388)
OLDER ADULT CENTER CONTRACTS,C4402,JAMAICA MUSLIM CENTER (C44),INDIA HOME INC,85-37 JMC Way,JAMAICA,NY,11432,QUEENS,917-825-1559,Y,09:00,05:00,09:00,05:00,09:00,05:00,09:00,05:00,09:00,05:00,00:00,00:00,00:00,00:00,40.713247,-73.796339,408,24,454,4210720,4098510017,Briarwood-Jamaica Hills,POINT (-73.796339 40.713247)
NATURALLY OCCURING RETIREMENT COMMUNITY CONTRACTS,N7401,AMALGAMATED PK RESEVOIR NORC (N74),YM YWHA OF THE BRONX dba RIVERDALE YM YWHA,98 VAN CORTLANDT PARK SOUTH,BRONX,NY,10463,BRONX,718-548-4990,Y,09:00,05:00,09:00,05:00,09:00,05:00,09:00,05:00,09:00,05:00,00:00,00:00,00:00,00:00,40.905009,-73.907133,208,11,323,2086312,2059520374,North Riverdale-Fieldston-Riverdale,POINT (-73.907133 40.905009)
OLDER ADULT CENTER CONTRACTS,C5604,QCH QUEENS CENTER FOR GAY SENIORS (QCGS) OAC (C56),QUEENS COMMUNITY HOUSE INC.,37-06 77th Street,FLUSHING,NY,11372,QUEENS,718-533-6459,Y,09:00,05:00,09:00,05:00,09:00,05:00,09:00,05:00,09:00,05:00,00:00,00:00,00:00,00:00,40.748907,-73.88902,403,25,287,4029864,4012870010,Jackson Heights,POINT (-73.88902 40.748907)
NATURALLY OCCURING RETIREMENT COMMUNITY CONTRACTS,N6001,ROCHDALE VILLAGE NORC (N60),ROCHDALE VILLAGE SOCIAL SERVICES INC,169-65 137TH AVENUE,JAMAICA,NY,11434,QUEENS,718-286-1541,Y,09:00,05:00,09:00,05:00,09:00,05:00,09:00,05:00,09:00,05:00,00:00,00:00,00:00,00:00,40.672622,-73.770641,412,28,33402,4436348,4124950002,Springfield Gardens North,POINT (-73.770641 40.672622)
NATURALLY OCCURING RETIREMENT COMMUNITY CONTRACTS,N7301,VISION URBANA NORC (N73),VISION URBANA INC.,75 DELANCEY STREET,NEW YORK,NY,10002,MANHATTAN,646-626-9748,Y,09:00,05:00,09:00,05:00,09:00,05:00,09:00,05:00,09:00,05:00,00:00,00:00,00:00,00:00,40.717466,-73.985004,103,01,1402,1089451,1003477501,Lower East Side,POINT (-73.985004 40.717466)
OLDER ADULT CENTER CONTRACTS,C1102,BRONXWORKS E. ROBERTS MOORE OAC (C11),BRONXWORKS INC,515 Jackson Avenue,BRONX,NY,10455,BRONX,718-665-5559,Y,08:00,04:00,08:00,04:00,08:00,04:00,08:00,04:00,08:00,04:00,00:00,00:00,00:00,00:00,40.812353,-73.909401,201,08,35,2091284,2025570083,Mott Haven-Port Morris,POINT (-73.909401 40.812353)
OLDER ADULT CENTER CONTRACTS,W1503,INDEPENDENCE PLAZA (W15),GREENWICH HOUSE INC.,310 Greenwich Street,NEW YORK,NY,10013,MANHATTAN,212-267-0499,Y,09:00,05:00,09:00,05:00,09:00,05:00,09:00,05:00,09:00,05:00,00:00,00:00,00:00,00:00,40.717604,-74.010667,101,01,39,1083243,1001420025,SoHo-TriBeCa-Civic Center-Little Italy,POINT (-74.010667 40.717604)
OLDER ADULT CENTER CONTRACTS,C5301,OCEAN BAY CDC OLDER ADULT CENTER (C53),OCEAN BAY COMMUNITY DEVELOPMENT CORPORATION,57-17 Shore Front Parkway,FAR ROCKAWAY,NY,11693,QUEENS,718-945-8640,Y,08:00,04:00,08:00,04:00,08:00,04:00,08:00,04:00,08:00,04:00,00:00,00:00,00:00,00:00,40.588954,-73.78843,414,31,97202,4536732,4159260001,Hammels-Arverne-Edgemere,POINT (-73.78843 40.588954)
OLDER ADULT CENTER CONTRACTS,C6904,EDIE WINDSOR SAGE CENTER (C69),SERVICES AND ADVOCACY FOR GAYLESBIANBISEXUAL AND TRANSGEND,305 7th Avenue,NEW YORK,NY,10001,MANHATTAN,646-576-8669,Y,11:00,08:00,11:00,08:00,11:00,08:00,11:00,08:00,11:00,08:00,00:00,00:00,00:00,00:00,40.746817,-73.993655,105,03,95,1015060,1008037502,Midtown-Midtown South,POINT (-73.993655 40.746817)
OLDER ADULT CENTER CONTRACTS,W2404,WAGNER SATELLITE (W24),UNION SETTLEMENT ASSOCIATION,435 East 120th Street,NEW YORK,NY,10035,MANHATTAN,212-987-2980,Y,09:00,05:00,09:00,05:00,09:00,05:00,09:00,05:00,09:00,05:00,00:00,00:00,00:00,00:00,40.798041,-73.932186,111,08,192,1081287,1018080001,East Harlem North,POINT (-73.932186 40.798041)
OLDER ADULT CENTER CONTRACTS,C1104,BRONXWORKS HEIGHTS SC (C11),BRONXWORKS INC,200 West Tremont Avenue Bronx NY 10453,BRONX,NY,10453,BRONX,718-299-0300,Y,08:00,04:00,08:00,04:00,08:00,04:00,08:00,04:00,08:00,04:00,00:00,00:00,00:00,00:00,40.851984,-73.916804,205,14,20502,2008966,2028770522,University Heights-Morris Heights,POINT (-73.916804 40.851984)
OLDER ADULT CENTER CONTRACTS,W1907,PSS KING TOWERS (W19),PRESBYTERIAN SENIOR SERVICES,50 LENOX AVENUE,NEW YORK,NY,10026,MANHATTAN,917-734-4452,Y,08:00,04:00,08:00,04:00,08:00,04:00,08:00,04:00,08:00,04:00,00:00,00:00,00:00,00:00,40.799593,-73.951421,110,09,186,1083312,1015960001,Central Harlem South,POINT (-73.951421 40.799593)
OLDER ADULT CENTER CONTRACTS,W1505,WESTBETH (W15),GREENWICH HOUSE INC.,155 Bank Street,NEW YORK,NY,10014,MANHATTAN,212-255-5191,Y,00:00,00:00,09:00,06:00,09:00,06:00,09:00,06:00,09:00,05:00,09:00,01:00,00:00,00:00,40.736095,-74.009205,102,03,79,1012047,1006390001,West Village,POINT (-74.009205 40.736095)
NATURALLY OCCURING RETIREMENT COMMUNITY CONTRACTS,N6601,EDUCATIONAL ALLIANCE CO OP VILLAGE NORC (N66),THE EDUCATIONAL ALLIANCE INC,465 Grand Street,NEW YORK,NY,10002,MANHATTAN,646-395-4270,Y,09:00,05:00,09:00,05:00,09:00,05:00,09:00,05:00,09:00,05:00,00:00,00:00,00:00,00:00,40.715133,-73.984031,103,01,1401,1004056,1003150070,Lower East Side,POINT (-73.984031 40.715133)
OLDER ADULT CENTER CONTRACTS,C1101,BRONXWORKS CAROLYN MCLAUGHLIN COMMUNITY CENTER -CONCOURSE OAC (C11),BRONXWORKS INC,1130 Grand Concourse,BRONX,NY,10455,BRONX,718-508-3040,Y,09:00,05:00,09:00,05:00,09:00,05:00,09:00,05:00,09:00,05:00,00:00,00:00,00:00,00:00,40.832331,-73.91959,204,16,18102,2002833,2024620042,East Concourse-Concourse Village,POINT (-73.91959 40.832331)
OLDER ADULT CENTER CONTRACTS,W2203,JASA EINSTEIN (W22),THE JEWISH ASSOCIATION FOR SERVICES FOR THE AGED,135 EINSTEIN LOOP,BRONX,NY,10475,BRONX,718-320-2066,Y,08:00,04:00,08:00,04:00,08:00,04:00,08:00,04:00,08:00,04:00,00:00,00:00,00:00,00:00,40.864255,-73.82203,210,12,302,2095160,2051350210,Co-op City,POINT (-73.82203 40.864255)
NATURALLY OCCURING RETIREMENT COMMUNITY CONTRACTS,N5201,LINCOLN SQUARE NORC (N52),GODDARD-RIVERSIDE COMMUNITY CENTER,250 W. 66TH STREET,NEW YORK,NY,10023,MANHATTAN,212-724-6720,Y,09:00,05:00,09:00,05:00,09:00,05:00,09:00,05:00,09:00,05:00,00:00,00:00,00:00,00:00,40.77501,-73.98689,107,06,151,1030340,1011560020,Lincoln Square,POINT (-73.98689 40.77501)
OLDER ADULT CENTER CONTRACTS,W1605,JAMES MONROE (W16),INSTITUTE FOR THE PUERTO RICAN HISPANIC ELDERLY INC,1780 Story Avenue,BRONX,NY,10473,BRONX,718-893-3484,Y,08:00,04:00,08:00,04:00,08:00,04:00,08:00,04:00,08:00,04:00,00:00,00:00,00:00,00:00,40.823265,-73.865779,209,18,42,2092748,2036370001,Soundview-Castle Hill-Clason Point-Harding Park,POINT (-73.865779 40.823265)
NATURALLY OCCURING RETIREMENT COMMUNITY CONTRACTS,N5301,HAMILTON MADISON ALFRED SMITH HOUSES NORC (N53),HAMILTON MADISON HOUSE INC,50 Madison Street,NEW YORK,NY,10038,MANHATTAN,212-788-5580,Y,09:00,05:00,09:00,05:00,09:00,05:00,09:00,05:00,09:00,05:00,00:00,00:00,00:00,00:00,40.711958,-73.997825,103,01,25,1077420,1001110100,Chinatown,POINT (-73.997825 40.711958)
OLDER ADULT CENTER CONTRACTS,C4301,HOPE OF ISRAEL SENIOR CITIZENS CENTER (C43),HOPE OF ISRAEL SENIOR CITIZENS CENTER INC,1068 Gerard Avenue,BRONX,NY,10452,BRONX,718-665-8400,Y,09:00,05:00,09:00,05:00,09:00,05:00,09:00,05:00,09:00,05:00,00:00,00:00,00:00,00:00,40.832289,-73.922123,204,16,195,2002944,2024780007,West Concourse,POINT (-73.922123 40.832289)
OLDER ADULT CENTER CONTRACTS,W2402,WASHINGTON LEXINGTON SATELLITE (W24),UNION SETTLEMENT ASSOCIATION,1775 THIRD AVENUE,NEW YORK,NY,10029,MANHATTAN,212-828-6115,Y,09:00,05:00,09:00,05:00,09:00,05:00,09:00,05:00,09:00,05:00,00:00,00:00,00:00,00:00,40.786574,-73.948303,111,08,15602,1079203,1016470001,East Harlem South,POINT (-73.948303 40.786574)
HOME DELIVERED MEAL SERVICE CONTRACTS,11S01,EAST SIDE HOUSE HOME DELIVERED MEALS - BRONX 1 (11S),EAST SIDE HOUSE INC,805 E. 139TH STREET,BRONX,NY,10454,BRONX,718-665-5250,Y,09:00,05:00,09:00,05:00,09:00,05:00,09:00,05:00,09:00,05:00,00:00,00:00,00:00,00:00,40.804413,-73.909661,201,17,19,2004017,2025910037,Mott Haven-Port Morris,POINT (-73.909661 40.804413)
OLDER ADULT CENTER CONTRACTS,C5803,RAIN BOSTON SECOR OAC (C58),REGIONAL AID FOR INTERIM NEEDS INC,3540 Bivona Street,BRONX,NY,10475,BRONX,718-671-8550,Y,08:00,04:00,08:00,04:00,08:00,04:00,08:00,04:00,08:00,04:00,00:00,00:00,00:00,00:00,40.883026,-73.833227,212,12,46202,2093879,2052630070,Co-op City,POINT (-73.833227 40.883026)
OLDER ADULT CENTER CONTRACTS,C8701,UNIVERSITY SETTLEMENT OAC (C87),UNIVERSITY SETTLEMENT SOCIETY OF NEW YORK,189 Allen Street,NEW YORK,NY,10002,MANHATTAN,212-453-4564,Y,08:00,04:00,08:00,04:00,08:00,04:00,08:00,04:00,08:00,04:00,00:00,00:00,00:00,00:00,40.722133,-73.988964,103,01,3601,1005537,1004170001,Chinatown,POINT (-73.988964 40.722133)
OLDER ADULT CENTER CONTRACTS,W1905,PSS MANHATTANVILLE (W19),PRESBYTERIAN SENIOR SERVICES,530 West 133rd Street,NEW YORK,NY,10027,MANHATTAN,212-862-5562,Y,08:00,04:00,08:00,04:00,08:00,04:00,08:00,04:00,08:00,04:00,00:00,00:00,00:00,00:00,40.818127,-73.954478,109,07,219,1084130,1019840001,Manhattanville,POINT (-73.954478 40.818127)
OLDER ADULT CENTER CONTRACTS,C1501,CANAAN SENIOR SERVICE CENTER (C15),CANAAN BAPTIST CHURCH OF CHRIST,1428 5th Avenue,NEW YORK,NY,10035,MANHATTAN,212-876-2638,Y,09:00,05:00,09:00,05:00,09:00,05:00,09:00,05:00,09:00,05:00,00:00,00:00,00:00,00:00,40.80115,-73.946121,110,09,190,1051430,1016000021,Central Harlem South,POINT (-73.946121 40.80115)
NATURALLY OCCURING RETIREMENT COMMUNITY CONTRACTS,N5801,PENN SOUTH NORC (N58),PENN SOUTH SOCIAL SERVICES INC,290 9TH AVENUE,NEW YORK,NY,10001,MANHATTAN,212-243-3670,Y,09:00,05:00,09:00,05:00,09:00,05:00,09:00,05:00,09:00,05:00,00:00,00:00,00:00,00:00,40.748925,-73.999545,104,03,97,1082794,1007510001,Hudson Yards-Chelsea-Flatiron-Union Square,POINT (-73.999545 40.748925)
OLDER ADULT CENTER CONTRACTS,C6902,SAGE CENTER HARLEM (C69),SERVICES AND ADVOCACY FOR GAYLESBIANBISEXUAL AND TRANSGEND,220 West 143rd Street,NEW YORK,NY,10030,MANHATTAN,929-458-0170,Y,09:00,05:00,09:00,05:00,09:00,05:00,09:00,05:00,09:00,05:00,00:00,00:00,00:00,00:00,40.8208,-73.94113,110,09,232,1086084,1020280016,Central Harlem North-Polo Grounds,POINT (-73.94113 40.8208)
HOME DELIVERED MEAL SERVICE CONTRACTS,33C01,ENCORE HOME DELIVERED MEALS - MANHATTAN 2 (33C),ENCORE COMMUNITY SERVICES,239 West 49th Street,NEW YORK,NY,10019,MANHATTAN,212-581-3490,Y,09:00,05:00,09:00,05:00,09:00,05:00,09:00,05:00,09:00,05:00,00:00,00:00,00:00,00:00,40.761143,-73.985312,105,03,125,1024789,1010210009,Midtown-Midtown South,POINT (-73.985312 40.761143)
CAREGIVER SERVICES CONTRACTS,6K101,HMH CAREGIVER SERVICES (6K1),HAMILTON MADISON HOUSE INC,100 Gold Street Lower Level,NEW YORK,NY,10038,MANHATTAN,212-788-5580,Y,07:00,03:00,07:00,03:00,07:00,03:00,07:00,03:00,07:00,03:00,00:00,00:00,00:00,00:00,40.710353,-74.004007,101,01,1501,1001289,1000940025,Battery Park City-Lower Manhattan,POINT (-74.004007 40.710353)
NATURALLY OCCURING RETIREMENT COMMUNITY CONTRACTS,N5303,CONFUCIOUS PLAZA NORC (N53),HAMILTON MADISON HOUSE INC,185 PARK ROW,NEW YORK,NY,10038,MANHATTAN,212-349-3724,Y,09:00,05:00,09:00,05:00,09:00,05:00,09:00,05:00,09:00,05:00,00:00,00:00,00:00,00:00,40.713141,-74.000115,103,01,27,1077407,1001170001,Chinatown,POINT (-74.000115 40.713141)
ELDER ABUSE SERVICES CONTRACTS,3E201,ELDER ABUSE PREVENTION & INTERVENTION (3E2),CARTER BURDEN NETWORK INC.,312 East 109th Street,NEW YORK,NY,10029,MANHATTAN,212-879-7400,Y,09:00,05:00,09:00,05:00,09:00,05:00,09:00,05:00,09:00,05:00,00:00,00:00,00:00,00:00,40.792306,-73.94048,111,08,170,1074278,1016800045,East Harlem South,POINT (-73.94048 40.792306)
HOMECARE SERVICES CONTRACTS,3HD01,NY FOUNDATION FOR SENIOR CITIZENS HOME ATTENDANT SERVICES (3HD),NEW YORK FOUNDATION FOR SENIOR CITIZENS HOME ATTENDANT SERVI,11 PARK PLACE,NEW YORK,NY,10007,MANHATTAN,212-962-7559,Y,09:00,05:00,09:00,05:00,09:00,05:00,09:00,05:00,09:00,05:00,00:00,00:00,00:00,00:00,40.712828,-74.008296,101,01,21,1001399,1001240004,SoHo-TriBeCa-Civic Center-Little Italy,POINT (-74.008296 40.712828)
HOME DELIVERED MEAL SERVICE CONTRACTS,24E01,JASA HOME DELIVERED MEALS - BROOKLYN 6 (24E),THE JEWISH ASSOCIATION FOR SERVICES FOR THE AGED,1201 Pennsylvania Avenue  #1A,BROOKLYN,NY,11239,BROOKLYN,718-769-7455,Y,09:00,05:00,09:00,05:00,09:00,05:00,09:00,05:00,09:00,05:00,00:00,00:00,00:00,00:00,40.753475,-73.990594,105,03,109,1014454,1007870011,Midtown-Midtown South,POINT (-73.990594 40.753475)
CAREGIVER SERVICES CONTRACTS,3K301,LENOX HILL NEIGHBORHOOD HOUSE (3K3),LENOX HILL NEIGHBORHOOD HOUSE INC,331 EAST  70 STREET,NEW YORK,NY,10021,MANHATTAN,212-744-5022,Y,09:00,05:00,09:00,05:00,09:00,05:00,09:00,05:00,09:00,05:00,00:00,00:00,00:00,00:00,40.766925,-73.95795,108,05,126,1044838,1014450014,Lenox Hill-Roosevelt Island,POINT (-73.95795 40.766925)
CAREGIVER SERVICES CONTRACTS,3K401,HMH CAREGIVER SERVICES MANHATTAN ONE (3K4),HAMILTON MADISON HOUSE INC,50 Madison Street,NEW YORK,NY,10038,MANHATTAN,212-788-5580,Y,00:00,00:00,00:00,00:00,00:00,00:00,00:00,00:00,00:00,00:00,00:00,00:00,00:00,00:00,40.711958,-73.997825,103,01,25,1077420,1001110100,Chinatown,POINT (-73.997825 40.711958)
OLDER ADULT CENTER CONTRACTS,C8502,UJCES LUNCH CLUB OAC (C85),UNITED JEWISH COUNCIL OF THE EAST SIDE INC,15 Willett Street,NEW YORK,NY,10002,MANHATTAN,212-673-9328,Y,08:00,04:00,08:00,04:00,08:00,04:00,08:00,04:00,08:00,04:00,00:00,00:00,00:00,00:00,40.71566,-73.982977,103,01,12,1088884,1003360005,Lower East Side,POINT (-73.982977 40.71566)
NATURALLY OCCURING RETIREMENT COMMUNITY CONTRACTS,N5701,MORNINGSIDE MRHS NORC (N57),MRHS,100 LASALLE STREET,NEW YORK,NY,10027,MANHATTAN,212-666-4000,Y,09:00,05:00,09:00,05:00,09:00,05:00,09:00,05:00,09:00,05:00,00:00,00:00,00:00,00:00,40.813512,-73.959058,109,07,211,1084114,1019780001,Morningside Heights,POINT (-73.959058 40.813512)
OLDER ADULT CENTER CONTRACTS,W2405,CORSI OAC (W24),UNION SETTLEMENT ASSOCIATION,307 E 116th Street,NEW YORK,NY,10029,MANHATTAN,212-828-6756,Y,08:00,04:00,08:00,04:00,08:00,04:00,08:00,04:00,08:00,04:00,00:00,00:00,00:00,00:00,40.796935,-73.93759,111,08,188,1079357,1016880045,East Harlem North,POINT (-73.93759 40.796935)
HOMECARE SERVICES CONTRACTS,4H701,PEOPLE CARE INC (4H7),PEOPLE CARE INCORPORATED,116 WEST  32 STREET,NEW YORK,NY,10001,MANHATTAN,212-600-9424,Y,09:00,05:30,09:00,05:30,09:00,05:30,09:00,05:30,09:00,05:30,00:00,00:00,00:00,00:00,40.74882,-73.989472,105,03,101,1015181,1008070028,Midtown-Midtown South,POINT (-73.989472 40.74882)
OLDER ADULT CENTER CONTRACTS,C7801,STEIN OLDER ADULT CENTER (C78),STEIN SENIOR CENTER INC,204 East 23rd Street,NEW YORK,NY,10010,MANHATTAN,646-395-8083,Y,08:00,04:00,08:00,04:00,08:00,04:00,08:00,04:00,08:00,04:00,00:00,00:00,00:00,00:00,40.738655,-73.982755,106,02,64,1019664,1009030056,Gramercy,POINT (-73.982755 40.738655)
NATURALLY OCCURING RETIREMENT COMMUNITY CONTRACTS,N7001,UNION SETTLEMENT FRANKLIN PLAZA NORC (N70),UNION SETTLEMENT ASSOCIATION,2090 SECOND AVENUE,NEW YORK,NY,10029,MANHATTAN,646-676-1801,Y,09:00,05:00,09:00,05:00,09:00,05:00,09:00,05:00,09:00,05:00,00:00,00:00,00:00,00:00,40.791585,-73.941726,111,08,170,1081081,1016780001,East Harlem South,POINT (-73.941726 40.791585)
OLDER ADULT CENTER CONTRACTS,C8309,JASA THROGGS NECK OLDER ADULT CENTER (C83),THE JEWISH ASSOCIATION FOR SERVICES FOR THE AGED,2705 Schley Avenue,BRONX,NY,10465,BRONX,718-823-1771,Y,07:00,03:00,07:00,03:00,07:00,03:00,07:00,03:00,07:00,03:00,00:00,00:00,00:00,00:00,40.821662,-73.827061,210,13,144,2080423,2055680050,Schuylerville-Throgs Neck-Edgewater Park,POINT (-73.827061 40.821662)
HOME DELIVERED MEAL SERVICE CONTRACTS,33B01,HENRY STREET HOME DELIVERED MEALS - MANHATTAN 1 (33B),HENRY STREET SETTLEMENT,265 Henry Street,NEW YORK,NY,10002,MANHATTAN,212-473-1474,Y,09:00,05:00,09:00,05:00,09:00,05:00,09:00,05:00,09:00,05:00,00:00,00:00,00:00,00:00,40.713857,-73.984532,103,01,202,1079627,1002880078,Lower East Side,POINT (-73.984532 40.713857)
OLDER ADULT CENTER CONTRACTS,W2202,JASA DREISER (W22),THE JEWISH ASSOCIATION FOR SERVICES FOR THE AGED,975 Waring Avenue,BRONX,NY,10467,BRONX,718-320-1345,Y,08:00,04:00,08:00,04:00,08:00,04:00,08:00,04:00,08:00,04:00,00:00,00:00,00:00,00:00,40.861211,-73.859709,211,13,324,2093415,2044440001,Bronxdale,POINT (-73.859709 40.861211)
OLDER ADULT CENTER CONTRACTS,W1906,PSS HARLEM (W19),PRESBYTERIAN SENIOR SERVICES,127 West 127th Street,NEW YORK,NY,10027,MANHATTAN,212-222-3132,Y,08:00,04:00,08:00,04:00,08:00,04:00,08:00,04:00,08:00,04:00,00:00,00:00,00:00,00:00,40.809488,-73.945496,110,09,224,1057904,1019120012,Central Harlem North-Polo Grounds,POINT (-73.945496 40.809488)
HOME DELIVERED MEAL SERVICE CONTRACTS,33D01,STANLEY ISAACS HOME DELIVERED MEALS - MANHATTAN 3 (33D),STANLEY M ISAACS NEIGHBORHOOD CENTER INC,415 East 93rd Street,NEW YORK,NY,10128,MANHATTAN,212-360-7620,Y,09:00,05:00,09:00,05:00,09:00,05:00,09:00,05:00,09:00,05:00,00:00,00:00,00:00,00:00,40.780904,-73.945112,108,05,152,1082367,1015730001,Yorkville,POINT (-73.945112 40.780904)
OLDER ADULT CENTER CONTRACTS,C3601,GODDARD RIVERSIDE LSNC OAC @ WEST 65TH ST (C36),GODDARD-RIVERSIDE COMMUNITY CENTER,250 West 65th Street,NEW YORK,NY,10023,MANHATTAN,212-874-0860,Y,08:00,04:00,08:00,04:00,08:00,04:00,08:00,04:00,08:00,04:00,00:00,00:00,00:00,00:00,40.77501,-73.98689,107,06,151,1030340,1011560020,Lincoln Square,POINT (-73.98689 40.77501)
HOME DELIVERED MEAL SERVICE CONTRACTS,11Y01,RAIN HOME DELIVERED MEALS - BRONX 2 (11Y),REGIONAL AID FOR INTERIM NEEDS INC,3450 Boston Road,BRONX,NY,10469,BRONX,718-829-2131,Y,09:00,05:00,09:00,05:00,09:00,05:00,09:00,05:00,09:00,05:00,00:00,00:00,00:00,00:00,40.876304,-73.848594,212,12,364,2060739,2047370105,Eastchester-Edenwald-Baychester,POINT (-73.848594 40.876304)
NATURALLY OCCURING RETIREMENT COMMUNITY CONTRACTS,N5501,HENRY STREET VLADECK CARES NORC (N55),HENRY STREET SETTLEMENT,351 Madison Street,NEW YORK,NY,10002,MANHATTAN,212-477-0455,Y,09:00,05:00,09:00,05:00,09:00,05:00,09:00,05:00,09:00,05:00,00:00,00:00,00:00,00:00,40.71334,-73.982772,103,02,202,1083404,1002670024,Lower East Side,POINT (-73.982772 40.71334)
HOME DELIVERED MEAL SERVICE CONTRACTS,33E01,CHARLES WALBURG HOME DELIVERED MEALS - MANHATTAN 4 (33E),CHARLES A WALBURG MULTI SERVICE ORGANIZATION INC,163 West 125th Street 13th Floor,NEW YORK,NY,10027,MANHATTAN,212-222-2552,Y,09:00,05:00,09:00,05:00,09:00,05:00,09:00,05:00,09:00,05:00,00:00,00:00,00:00,00:00,40.808644,-73.947524,110,09,222,1081602,1019100001,Central Harlem South,POINT (-73.947524 40.808644)
OLDER ADULT CENTER CONTRACTS,W1501,CENTER ON THE SQ (W15),GREENWICH HOUSE INC.,20 Washington Square North,NEW YORK,NY,10011,MANHATTAN,212-777-3555,Y,09:00,05:00,09:00,05:00,09:00,05:00,09:00,05:00,09:00,05:00,00:00,00:00,00:00,00:00,40.731781,-73.997705,102,01,63,1008851,1005510008,West Village,POINT (-73.997705 40.731781)
NATURALLY OCCURING RETIREMENT COMMUNITY CONTRACTS,N5302,HAMILTON MADISON KNICKERBOCKER NORC (N53),HAMILTON MADISON HOUSE INC,36 MONROE STREET G1,NEW YORK,NY,10002,MANHATTAN,212-349-0616,Y,09:00,05:00,09:00,05:00,09:00,05:00,09:00,05:00,09:00,05:00,00:00,00:00,00:00,00:00,40.711538,-73.99477,103,01,8,1077591,1002530001,Chinatown,POINT (-73.99477 40.711538)
ELDER ABUSE SERVICES CONTRACTS,62001,ELDER ABUSE MULTIDISCIPLINARY TEAMS SERV (620),WEILL MEDICAL COLLEGE OF CORNELL UNIVERSITY,100 Church Street,NEW YORK,NY,10007,MANHATTAN,646-845-8202,Y,09:00,05:00,09:00,05:00,09:00,05:00,09:00,05:00,09:00,05:00,00:00,00:00,00:00,00:00,40.712968,-74.00949,101,01,21,1001409,1001250020,SoHo-TriBeCa-Civic Center-Little Italy,POINT (-74.00949 40.712968)
NATURALLY OCCURING RETIREMENT COMMUNITY CONTRACTS,N6701,HUDSON GUILD ELLIOTT-CHELSEA NORC (N67),HUDSON GUILD,441 W. 26TH STREET,NEW YORK,NY,10001,MANHATTAN,212-760-9800,Y,09:00,05:00,09:00,05:00,09:00,05:00,09:00,05:00,09:00,05:00,00:00,00:00,00:00,00:00,40.749196,-74.001815,104,03,97,1012827,1007240010,Hudson Yards-Chelsea-Flatiron-Union Square,POINT (-74.001815 40.749196)
CAREGIVER SERVICES CONTRACTS,6K501,VISIONS/SERVICES FOR THE BLIND & VISUALLY IMPAIRED (6K5),VISIONS/SERVICES FOR THE BLIND AND VISUALLY IMPAIRED,500 Greenwich Street,NEW YORK,NY,10013,MANHATTAN,212-625-1616,Y,09:00,05:00,09:00,05:00,09:00,05:00,09:00,05:00,09:00,05:00,00:00,00:00,00:00,00:00,40.725564,-74.009178,102,03,53,1076084,1005957501,SoHo-TriBeCa-Civic Center-Little Italy,POINT (-74.009178 40.725564)
OLDER ADULT CENTER CONTRACTS,C1902,CENTRAL HARLEM ST NICK (C19),CENTRAL HARLEM SENIOR CITIZENS CENTERS INC.,210 W. 131st Street New York NY 10027,NEW YORK,NY,10037,MANHATTAN,646-678-4451,Y,09:00,05:00,09:00,05:00,09:00,05:00,09:00,05:00,09:00,05:00,00:00,00:00,00:00,00:00,40.812977,-73.94614,110,09,224,1081515,1019330050,Central Harlem North-Polo Grounds,POINT (-73.94614 40.812977)
OLDER ADULT CENTER CONTRACTS,C3303,FIND AID HAMILTON OAC (C33),FIND AID FOR THE AGED,141 W. 73rd Street & 111 W. 71st Street,NEW YORK,NY,10023,MANHATTAN,212-787-7710,Y,09:00,05:00,09:00,05:00,09:00,05:00,09:00,05:00,09:00,05:00,00:00,00:00,09:00,05:00,40.778624,-73.979527,107,06,157,1030011,1011450012,Lincoln Square,POINT (-73.979527 40.778624)
NATURALLY OCCURING RETIREMENT COMMUNITY CONTRACTS,N7101,MASARYK TOWER NORC (N71),UNITED JEWISH COUNCIL OF THE EAST SIDE INC,75 Columbia Street,NEW YORK,NY,10002,MANHATTAN,212-301-8995,Y,09:00,05:00,09:00,05:00,09:00,05:00,09:00,05:00,09:00,05:00,00:00,00:00,00:00,00:00,40.717567,-73.979986,103,02,2201,1082666,1003330001,Lower East Side,POINT (-73.979986 40.717567)
OLDER ADULT CENTER CONTRACTS,C3001,CASABE SENIOR HOUSES AKA EAST HARLEM NSC (C30),EAST HARLEM COUNCIL FOR HUMAN SERVICES INC,150 East 121st Street,NEW YORK,NY,10035,MANHATTAN,212-722-2205,Y,09:00,05:00,09:00,05:00,09:00,05:00,09:00,05:00,09:00,05:00,00:00,00:00,00:00,00:00,40.801704,-73.939037,111,08,196,1054378,1017690021,East Harlem North,POINT (-73.939037 40.801704)
OLDER ADULT CENTER CONTRACTS,C5809,RAIN NEREID OAC (C58),REGIONAL AID FOR INTERIM NEEDS INC,720 Nereid Avenue,BRONX,NY,10466,BRONX,718-994-0132,Y,08:00,04:00,08:00,04:00,08:00,04:00,08:00,04:00,08:00,04:00,00:00,00:00,00:00,00:00,40.898158,-73.853568,212,11,434,2069882,2050460033,Woodlawn-Wakefield,POINT (-73.853568 40.898158)
NATURALLY OCCURING RETIREMENT COMMUNITY CONTRACTS,N5202,GODDARD RIVERSIDE WEST SIDE NORC (N52),GODDARD-RIVERSIDE COMMUNITY CENTER,593 COLUMBUS AVENUE,NEW YORK,NY,10024,MANHATTAN,212-665-3853,Y,09:00,05:00,09:00,05:00,09:00,05:00,09:00,05:00,09:00,05:00,00:00,00:00,00:00,00:00,40.791173,-73.96874,107,06,177,1079516,1012070001,Upper West Side,POINT (-73.96874 40.791173)
OLDER ADULT CENTER CONTRACTS,W2403,JEFFERSON OAC (W24),UNION SETTLEMENT ASSOCIATION,2205 1st Avenue,NEW YORK,NY,10029,MANHATTAN,212-828-6104,Y,08:00,04:30,08:00,04:30,08:00,04:30,08:00,04:30,08:00,04:30,00:00,00:00,00:00,00:00,40.794319,-73.93665,111,08,180,1081091,1016840001,East Harlem North,POINT (-73.93665 40.794319)
OLDER ADULT CENTER CONTRACTS,C5804,RAIN EASTCHESTER LATIN SOUL CAF OAC (C58),REGIONAL AID FOR INTERIM NEEDS INC,1246 Burke Avenue,BRONX,NY,10469,BRONX,718-882-8513,Y,08:00,04:00,08:00,04:00,08:00,04:00,08:00,04:00,08:00,04:00,00:00,00:00,00:00,00:00,40.871144,-73.851046,211,12,348,2093500,2045810001,Allerton-Pelham Gardens,POINT (-73.851046 40.871144)
NATURALLY OCCURING RETIREMENT COMMUNITY CONTRACTS,N7201,VILLAGE VIEW NORC (N72),UNIVERSITY SETTLEMENT SOCIETY OF NEW YORK,189 ALLEN STREET,NEW YORK,NY,10002,MANHATTAN,212-453-0287,Y,09:00,05:00,09:00,05:00,09:00,05:00,09:00,05:00,09:00,05:00,00:00,00:00,00:00,00:00,40.724528,-73.985461,103,02,32,1077559,1004320001,East Village,POINT (-73.985461 40.724528)
CASE MANAGEMENT SERVICES CONTRACTS,3M901,SELFHELP PROJECT CASE MANAGEMENT MN-2 (3M9),SELFHELP COMMUNITY SERVICES INC,520 EIGHTH AVENUE,NEW YORK,NY,10018,MANHATTAN,212-787-8106,Y,08:00,04:00,08:00,04:00,08:00,04:00,08:00,04:00,08:00,04:00,00:00,00:00,00:00,00:00,40.753612,-73.992417,105,03,109,1083624,1007860001,Midtown-Midtown South,POINT (-73.992417 40.753612)
LEGAL SERVICES CONTRACTS,32V01,MOBILIZATION FOR JUSTICE (32V),MOBILIZATION FOR JUSTICE INC,100 William Street 6th Fl,NEW YORK,NY,10038,MANHATTAN,212-417-3700,Y,09:00,05:00,09:00,05:00,09:00,05:00,09:00,05:00,09:00,05:00,00:00,00:00,00:00,00:00,40.708497,-74.007477,101,01,1502,1001116,1000680036,Battery Park City-Lower Manhattan,POINT (-74.007477 40.708497)
OLDER ADULT CENTER CONTRACTS,C0501,ARC XVI A. PHILIP RANDOLPH OAC (C05),ARC XVI FORT WASHINGTON INC,108 West 146 Street,NEW YORK,NY,10039,MANHATTAN,212-281-1349,Y,09:00,05:00,09:00,05:00,09:00,05:00,09:00,05:00,09:00,05:00,00:00,00:00,00:00,00:00,40.821341,-73.936317,110,09,232,1060189,1020140036,Central Harlem North-Polo Grounds,POINT (-73.936317 40.821341)
OLDER ADULT CENTER CONTRACTS,W1502,OUR LADY OF POMPEII (W15),GREENWICH HOUSE INC.,25 Carmine Street,NEW YORK,NY,10014,MANHATTAN,212-989-3620,Y,09:00,05:00,09:00,05:00,09:00,05:00,09:00,05:00,09:00,05:00,00:00,00:00,00:00,00:00,40.730178,-74.002955,102,03,67,1009904,1005860020,West Village,POINT (-74.002955 40.730178)
OLDER ADULT CENTER CONTRACTS,C9403,YOUNG ISRAEL PROGRAMS QUEENS VALLEY II (C94),YOUNG ISRAEL PROGRAMS INC,141-55 77th Avenue,FLUSHING,NY,11367,QUEENS,718-263-6995,Y,08:00,04:00,08:00,04:00,08:00,04:00,08:00,04:00,08:00,04:00,00:00,00:00,00:00,00:00,40.721128,-73.819822,408,24,77903,4143547,4066280084,Kew Gardens Hills,POINT (-73.819822 40.721128)
OLDER ADULT CENTER CONTRACTS,3TB01,WOODSIDE-OLDER ADULT CENTER (QNS 01) (3TB),SAMARITAN DAYTOP VILLAGE INC,50-37 Newtown Road Building 19,FLUSHING,NY,11377,QUEENS,718-206-2000,Y,,,,,,,,,,,,,,,40.753724,-73.911047,401,26,163,4430993,4007360002,Astoria,POINT (-73.911047 40.753724)
OLDER ADULT CENTER CONTRACTS,C5601,QCH FOREST HILLS OAC (C56),QUEENS COMMUNITY HOUSE INC.,108-25 62nd Drive,FLUSHING,NY,11375,QUEENS,718-699-1010,Y,08:00,04:00,08:00,04:00,08:00,04:00,08:00,04:00,08:00,04:00,00:00,00:00,00:00,00:00,40.73591,-73.850212,406,29,745,4432108,4021590002,Forest Hills,POINT (-73.850212 40.73591)
OLDER ADULT CENTER CONTRACTS,C4705,JCCGCI MARIEN-HEIM OLDER ADULT CENTER (C47),JEWISH COMMUNITY COUNCIL OF GREATER CONEY ISLAND INC,870 Ocean Parkway,BROOKLYN,NY,11230,BROOKLYN,718-438-7771,Y,08:30,04:30,08:30,04:30,08:30,04:30,08:30,04:30,08:30,04:30,00:00,00:00,00:00,00:00,40.627218,-73.971057,312,44,46201,3170453,3065080006,Flatbush,POINT (-73.971057 40.627218)
OLDER ADULT CENTER CONTRACTS,C6101,RSS CENTER FOR AGELESS LIVING (C61),RIVERDALE SENIOR SERVICES INC,2600 Netherland Avenue,BRONX,NY,10463,BRONX,718-884-5900,Y,08:00,05:00,08:00,05:00,08:00,05:00,08:00,05:00,08:00,05:00,00:00,00:00,00:00,00:00,40.878744,-73.915679,208,11,29302,2083247,2057220475,Spuyten Duyvil-Kingsbridge,POINT (-73.915679 40.878744)
OLDER ADULT CENTER CONTRACTS,C2401,HAMILTON GRANGE NSC (C24),CONVENT AVENUE BAPTIST CHURCH,420 West 145th Street,NEW YORK,NY,10032,MANHATTAN,212-862-4181,Y,09:00,05:00,09:00,05:00,09:00,05:00,09:00,05:00,09:00,05:00,00:00,00:00,00:00,00:00,40.824436,-73.945733,109,07,227,1060948,1020500042,Hamilton Heights,POINT (-73.945733 40.824436)
OLDER ADULT CENTER CONTRACTS,C1107,BRONXWORKS SOUNDVIEW (C11),BRONXWORKS INC,391 Bronx River Avenue,BRONX,NY,10473,BRONX,917-633-5951,Y,08:00,04:00,08:00,04:00,08:00,04:00,08:00,04:00,08:00,04:00,00:00,00:00,00:00,00:00,40.814436,-73.866773,209,18,20,2127010,2035150040,Soundview-Castle Hill-Clason Point-Harding Park,POINT (-73.866773 40.814436)
OLDER ADULT CENTER CONTRACTS,C5602,QCH KEW GARDENS COMMUNITY CENTER OAC (C56),QUEENS COMMUNITY HOUSE INC.,80-02 Kew Gardens Road,JAMAICA,NY,11415,QUEENS,718-268-0895,Y,09:00,05:00,09:00,05:00,09:00,05:00,09:00,05:00,09:00,05:00,00:00,00:00,00:00,00:00,40.713686,-73.830505,409,29,773,4312089,4033480037,Kew Gardens,POINT (-73.830505 40.713686)
OLDER ADULT CENTER CONTRACTS,W2002,BREVOORT SENIOR CLUB (W20),RISEBORO COMMUNITY PARTNERSHIP INC,280 Ralph Avenue,BROOKLYN,NY,11233,BROOKLYN,347-318-3383,Y,09:00,05:00,09:00,05:00,09:00,05:00,09:00,05:00,09:00,05:00,00:00,00:00,00:00,00:00,40.679794,-73.922153,303,41,381,3325173,3016880001,Crown Heights North,POINT (-73.922153 40.679794)
OLDER ADULT CENTER CONTRACTS,W2005,PALMETTO GARDENS SENIOR CLUB (W20),RISEBORO COMMUNITY PARTNERSHIP INC,85 Palmetto Street,BROOKLYN,NY,11221,BROOKLYN,718-676-0876,Y,08:00,04:00,08:00,04:00,08:00,04:00,08:00,04:00,08:00,04:00,00:00,00:00,00:00,00:00,40.691599,-73.91884,304,34,399,3076429,3033400020,Bushwick South,POINT (-73.91884 40.691599)
OLDER ADULT CENTER CONTRACTS,CC201,JAMAICA OLDER ADULT CENTER (CC2),QUEENS COMMUNITY HOUSE INC.,89-60 164th Street,JAMAICA,NY,11432,QUEENS,718-592-5757,Y,,,,,,,,,,,,,,,40.707053,-73.796924,412,24,44601,4209585,4097930086,Jamaica,POINT (-73.796924 40.707053)
OLDER ADULT CENTER CONTRACTS,C8201,HUDSON GUILD (C82),HUDSON GUILD,119 West 19th Street,NEW YORK,NY,10011,MANHATTAN,212-924-6710,Y,09:00,05:00,09:00,05:00,09:00,05:00,09:00,05:00,09:00,05:00,00:00,00:00,00:00,00:00,40.740784,-73.995381,104,03,87,1014730,1007950028,Hudson Yards-Chelsea-Flatiron-Union Square,POINT (-73.995381 40.740784)
OLDER ADULT CENTER CONTRACTS,C9101,CENTER AT THE RED OAK (C91),WEST SIDE FEDERATION FOR SENIOR AND SUPPORTIVE HOUSING INC,135 West 106 Street,NEW YORK,NY,10025,MANHATTAN,917-544-1892,Y,08:30,04:00,08:30,04:00,08:30,04:00,08:30,04:00,08:30,04:00,00:00,00:00,00:00,00:00,40.799919,-73.964459,107,07,193,1055957,1018610010,Morningside Heights,POINT (-73.964459 40.799919)
OLDER ADULT CENTER CONTRACTS,C4902,KOREAN COMMUNITY SERVICES FLUSHING + SATELLITE MN9 (C49),KOREAN COMMUNITY SERVICES OF METROPOLITAN NEW YORK INC,42-15 166th Street Queens NY 11358 (Sa,FLUSHING,NY,11358,QUEENS,718-886-8203,Y,05:00,05:00,05:00,05:00,05:00,05:00,05:00,05:00,05:00,05:00,00:00,00:00,00:00,00:00,40.75939,-73.800335,407,19,1185,4439629,4053970006,East Flushing,POINT (-73.800335 40.75939)
OLDER ADULT CENTER CONTRACTS,C8102,EDUCATIONAL ALLIANCE WEINBERG OAC (C81),THE EDUCATIONAL ALLIANCE INC,197 East Broadway,NEW YORK,NY,10002,MANHATTAN,646-395-4270,Y,09:00,05:00,09:00,05:00,09:00,05:00,09:00,05:00,09:00,05:00,00:00,00:00,00:00,00:00,40.714219,-73.988219,103,01,6,1003704,1002850029,Lower East Side,POINT (-73.988219 40.714219)
OLDER ADULT CENTER CONTRACTS,C3512,REMSEN SARITA JEAN OAC (C35),FORT GREENE COUNCIL,3304 Clarendon Road,BROOKLYN,NY,11210,BROOKLYN,347-200-4081,Y,09:00,05:00,09:00,05:00,09:00,05:00,09:00,05:00,09:00,05:00,00:00,00:00,00:00,00:00,40.643428,-73.945697,317,45,830,3111409,3049500001,East Flatbush-Farragut,POINT (-73.945697 40.643428)
OLDER ADULT CENTER CONTRACTS,4BC01,SNAP EASTERN QUEENS OAC (ISC) (4BC),SERVICES NOW FOR ADULT PERSONS INC,80-45 Winchester Blvd.,JAMAICA,NY,11427,QUEENS,718-454-2100,Y,,,,,,,,,,,,,,,40.737685,-73.734021,413,23,1567,4537294,4078800400,Bellerose,POINT (-73.734021 40.737685)
OLDER ADULT CENTER CONTRACTS,C3301,FIND AID CLINTON OAC (C33),FIND AID FOR THE AGED,530 West 55th Street,NEW YORK,NY,10019,MANHATTAN,212-757-2026,Y,09:00,05:00,09:00,05:00,09:00,05:00,09:00,05:00,09:00,05:00,00:00,00:00,00:00,00:00,40.768258,-73.990588,104,06,135,1027059,1010830015,Clinton,POINT (-73.990588 40.768258)
OLDER ADULT CENTER CONTRACTS,C8306,JASA SCHEUER CONEY ISLAND OAC (C83),THE JEWISH ASSOCIATION FOR SERVICES FOR THE AGED,3601 Surf Ave Brooklyn NY 11224,BROOKLYN,NY,11224,BROOKLYN,718-373-3954,Y,08:00,04:00,08:00,04:00,08:00,04:00,08:00,04:00,08:00,04:00,00:00,00:00,00:00,00:00,40.573144,-74.001587,313,47,342,3321762,3070450031,Seagate-Coney Island,POINT (-74.001587 40.573144)
OLDER ADULT CENTER CONTRACTS,C7210,RAICES ASTORIA SOCIAL CLUB (C72),SPANISH SPEAKING ELDERLY COUNCIL RAICES INC.,4-05 Astoria Blvd,LONG ISLAND CITY,NY,11102,QUEENS,718-762-9642,Y,09:00,05:00,09:00,05:00,09:00,05:00,09:00,05:00,09:00,05:00,00:00,00:00,00:00,00:00,40.772947,-73.933467,401,22,87,4430787,4004900101,Old Astoria,POINT (-73.933467 40.772947)
OLDER ADULT CENTER CONTRACTS,W2103,SELFHELP CLEARVIEW (W21),SELFHELP COMMUNITY SERVICES INC,208-11 26th Avenue,FLUSHING,NY,11360,QUEENS,718-224-7888,Y,08:30,04:00,08:30,04:00,08:30,04:00,08:30,04:00,08:30,04:00,00:00,00:00,00:00,00:00,40.776381,-73.783798,407,19,99704,4130866,4058630250,Ft. Totten-Bay Terrace-Clearview,POINT (-73.783798 40.776381)
OLDER ADULT CENTER CONTRACTS,C4102,GOOD COMPANIONS (C41),HENRY STREET SETTLEMENT,334 Madison Street,NEW YORK,NY,10002,MANHATTAN,212-349-2770,Y,09:00,05:00,09:00,05:00,09:00,05:00,09:00,05:00,09:00,05:00,00:00,00:00,00:00,00:00,40.713266,-73.983237,103,02,202,1077526,1002600001,Lower East Side,POINT (-73.983237 40.713266)
OLDER ADULT CENTER CONTRACTS,C4702,JCCGCI HABER HOUSE OLDER ADULT CENTER (C47),JEWISH COMMUNITY COUNCIL OF GREATER CONEY ISLAND INC,3024 West 24th Street,BROOKLYN,NY,11224,BROOKLYN,718-372-5775,Y,08:00,04:00,08:00,04:00,08:00,04:00,08:00,04:00,07:30,02:30,00:00,00:00,00:00,00:00,40.573171,-73.990645,313,47,352,3322050,3070700001,Seagate-Coney Island,POINT (-73.990645 40.573171)
OLDER ADULT CENTER CONTRACTS,C5001,MBSCC CONCOURSE PLAZA WELLNESS CENTER FOR OLDER ADULTS (C50),MID BRONX SENIOR CITIZENS COUNCIL INC,900 Grand Concourse,BRONX,NY,10451,BRONX,718-588-8200,Y,09:00,07:00,09:00,07:00,09:00,07:00,09:00,07:00,09:00,07:00,00:00,00:00,00:00,00:00,40.827412,-73.922277,204,16,18301,2002802,2024600001,East Concourse-Concourse Village,POINT (-73.922277 40.827412)
OLDER ADULT CENTER CONTRACTS,C8402,LEON OAC (C84),THE NEIGHBORHOOD SELF-HELP BY OLDER PERSONS PROJECT INC,735 East 152nd Street,BRONX,NY,10455,BRONX,718-708-6897,Y,08:30,04:30,08:30,04:30,08:30,04:30,08:30,04:30,08:30,04:30,00:00,00:00,00:00,00:00,40.815994,-73.907843,201,17,79,2091979,2026540002,Melrose South-Mott Haven North,POINT (-73.907843 40.815994)
OLDER ADULT CENTER CONTRACTS,C5201,NORTHEAST BRONX (C52),NORTHEAST BRONX SENIOR CITIZENS INC,2968 Bruckner Blvd,BRONX,NY,10465,BRONX,718-892-6090,Y,08:00,04:00,08:00,04:00,08:00,04:00,08:00,04:00,08:00,04:00,00:00,00:00,00:00,00:00,40.833889,-73.826264,210,13,164,2097558,2054200002,Schuylerville-Throgs Neck-Edgewater Park,POINT (-73.826264 40.833889)
OLDER ADULT CENTER CONTRACTS,C1601,CARTER BURDEN LUNCHEON CLUB & SOCIAL SERVICE UNIT (C16),CARTER BURDEN NETWORK INC.,351 East 74th Street,NEW YORK,NY,10021,MANHATTAN,646-937-3520,Y,08:00,04:00,08:00,04:00,08:00,04:00,08:00,04:00,08:00,04:00,00:00,00:00,00:00,00:00,40.76962,-73.956197,108,05,134,1044930,1014490020,Lenox Hill-Roosevelt Island,POINT (-73.956197 40.76962)
HOME DELIVERED MEAL SERVICE CONTRACTS,4R301,P.S. I.S. 210 (4R3),New York African Chorus Ensemble Inc,501-503 W.152nd Street,NEW YORK,NY,10031,MANHATTAN,646-345-4658,Y,,,,,,,,,,,,,,,40.829815,-73.94475,109,07,237,1087824,1020840129,Hamilton Heights,POINT (-73.94475 40.829815)
HOME DELIVERED MEAL SERVICE CONTRACTS,4N101,NORC WITHOUT WALLS (NNORC) (4N1),SAMUEL FIELD YM & YWHA INC,58-20 LITTLE NECK PKWY,FLUSHING,NY,11362,QUEENS,718-225-6750,Y,,,,,,,,,,,,,,,40.761577,-73.723122,411,23,152902,4173029,4083520051,Douglas Manor-Douglaston-Little Neck,POINT (-73.723122 40.761577)
OLDER ADULT CENTER CONTRACTS,C1715,CCNS ST. LOUIS OAC (C17),CATHOLIC CHARITIES NEIGHBORHOOD SERVICES INC,230 Kingston Avenue,BROOKLYN,NY,11213,BROOKLYN,718-771-7945,Y,08:00,04:00,08:00,04:00,08:00,04:00,08:00,04:00,08:00,04:00,00:00,00:00,00:00,00:00,40.671821,-73.941982,308,35,339,3032045,3012500025,Crown Heights North,POINT (-73.941982 40.671821)
OLDER ADULT CENTER CONTRACTS,C3801,HMH CITY HALL OLDER ADULT CENTER (C38),HAMILTON MADISON HOUSE INC,100 Gold Street Lower Level,NEW YORK,NY,10038,MANHATTAN,212-788-5580,Y,08:30,04:30,08:30,04:30,08:30,04:30,08:30,04:30,08:30,04:30,00:00,00:00,00:00,00:00,40.710353,-74.004007,101,01,1501,1001289,1000940025,Battery Park City-Lower Manhattan,POINT (-74.004007 40.710353)
OLDER ADULT CENTER CONTRACTS,W1603,CARVER (W16),INSTITUTE FOR THE PUERTO RICAN HISPANIC ELDERLY INC,16,NEW YORK,NY,10029,MANHATTAN,212-289-2709,Y,08:00,04:00,08:00,04:00,08:00,04:00,08:00,04:00,08:00,04:00,00:00,00:00,00:00,00:00,40.79084,-73.950853,111,08,168,1082659,1016080023,East Harlem South,POINT (-73.950853 40.79084)
OLDER ADULT CENTER CONTRACTS,C7701,GREAT KILLS OAC (C77),STATEN ISLAND COMMUNITY SERVICES FRIENDSHIP CLUBS INC,11 Sampson Avenue,STATEN ISLAND,NY,10308,STATEN ISLAND,718-356-5050,Y,08:00,04:00,08:00,04:00,08:00,04:00,08:00,04:00,08:00,04:00,00:00,00:00,00:00,00:00,40.552603,-74.149795,503,51,14605,5062569,5046240500,Great Kills,POINT (-74.149795 40.552603)
OLDER ADULT CENTER CONTRACTS,C7202,WYCKOFF GARDENS NSC (C72),SPANISH SPEAKING ELDERLY COUNCIL RAICES INC.,280 Wyckoff Street,BROOKLYN,NY,11217,BROOKLYN,718-237-1802,Y,09:00,05:00,09:00,05:00,09:00,05:00,09:00,05:00,09:00,05:00,00:00,00:00,00:00,00:00,40.683365,-73.983941,306,33,127,3336056,3003940001,DUMBO-Vinegar Hill-Downtown Brooklyn-Boerum Hill,POINT (-73.983941 40.683365)
HOME DELIVERED MEAL SERVICE CONTRACTS,VND01,MEALS ON WHEELS OF S.I. (VND),MEALS ON WHEELS OF STATEN ISLAND INC,304 PORT RICHMOND AVENUE,STATEN ISLAND,NY,10302,STATEN ISLAND,718-727-4435,Y,,,,,,,,,,,,,,,40.634061,-74.13606,501,49,213,5025678,5010890036,Port Richmond,POINT (-74.13606 40.634061)
OLDER ADULT CENTER CONTRACTS,3CW01,NEW YORK FOUNDATION TRANSPORTATION (3CW),NEW YORK FOUNDATION FOR SENIOR CITIZENS INC,404 WEST   54 STREET,NEW YORK,NY,10019,MANHATTAN,212-962-7653,Y,,,,,,,,,,,,,,,40.766197,-73.987636,104,03,133,1026769,1010630035,Clinton,POINT (-73.987636 40.766197)
OLDER ADULT CENTER CONTRACTS,C7501,ST NICKS ALLIANCE COOPER PARK SOCIAL 2 (C75),ST. NICKS ALLIANCE CORP.,288 Frost Street,BROOKLYN,NY,11222,BROOKLYN,718-227-3652,Y,09:00,04:00,09:00,04:00,09:00,04:00,09:00,04:00,09:00,04:00,00:00,00:00,00:00,00:00,40.718837,-73.939856,301,34,449,3327829,3028670001,East Williamsburg,POINT (-73.939856 40.718837)
OLDER ADULT CENTER CONTRACTS,C1603,CBN LEONARD COVELLO (ISC) SENIOR PROGRAM (C16),CARTER BURDEN NETWORK INC.,312 East 109th Street,NEW YORK,NY,10029,MANHATTAN,212-423-9665,Y,08:00,04:00,08:00,04:00,08:00,04:00,08:00,04:00,08:00,04:00,00:00,00:00,00:00,00:00,40.792306,-73.94048,111,08,170,1074278,1016800045,East Harlem South,POINT (-73.94048 40.792306)
OLDER ADULT CENTER CONTRACTS,C1904,CENTRAL HARLEM SC CTR BEATRICE LEWIS (C19),CENTRAL HARLEM SENIOR CITIZENS CENTERS INC.,2322 Third Avenue,NEW YORK,NY,10035,MANHATTAN,212-289-9155,Y,09:00,05:00,09:00,05:00,09:00,05:00,09:00,05:00,09:00,05:00,00:00,00:00,00:00,00:00,40.804468,-73.935267,111,09,242,1054497,1017750033,East Harlem North,POINT (-73.935267 40.804468)
OLDER ADULT CENTER CONTRACTS,C1702,CCNS DELLAMONICA- SREINWAY OAC (C17),CATHOLIC CHARITIES NEIGHBORHOOD SERVICES INC,23-56 Broadway,LONG ISLAND CITY,NY,11106,QUEENS,718-626-1500,Y,09:00,05:00,09:00,05:00,09:00,05:00,09:00,05:00,09:00,05:00,00:00,00:00,00:00,00:00,40.764285,-73.930011,401,22,53,4006560,4005660050,Astoria,POINT (-73.930011 40.764285)
NEW YORK CONNECTS CONTRACTS,3C401,NEW YORK FOUNDATION FOR SENIOR CITIZENS INC. (3C4),NEW YORK FOUNDATION FOR SENIOR CITIZENS INC,11 Park Place,NEW YORK,NY,10007,MANHATTAN,212-962-7653,Y,,,,,,,,,,,,,,,40.712828,-74.008296,101,01,21,1001399,1001240004,SoHo-TriBeCa-Civic Center-Little Italy,POINT (-74.008296 40.712828)
ELDER ABUSE SERVICES CONTRACTS,1E401,JASA ELDER JUSTICE BROOKLYN NORTH (1E4),THE JEWISH ASSOCIATION FOR SERVICES FOR THE AGED,202 Graham Avenue,BROOKLYN,NY,11206,BROOKLYN,212-273-5200,Y,,,,,,,,,,,,,,,40.708879,-73.943443,301,34,493,3344974,3030260001,Bushwick South,POINT (-73.943443 40.708879)
OLDER ADULT CENTER CONTRACTS,C7704,NEW DORP BEACH OAC (C77),STATEN ISLAND COMMUNITY SERVICES FRIENDSHIP CLUBS INC,128 Cedar Grove Avenue,STATEN ISLAND,NY,10306,STATEN ISLAND,TBD,Y,09:00,05:00,09:00,05:00,09:00,05:00,09:00,05:00,09:00,05:00,00:00,00:00,00:00,00:00,40.561467,-74.100329,595,50,12804,5113475,5041050050,New Dorp-Midland Beach,POINT (-74.100329 40.561467)
ELDER ABUSE SERVICES CONTRACTS,1E402,JASA ELDER JUSTICE QUEENS SOUTH (1E4),THE JEWISH ASSOCIATION FOR SERVICES FOR THE AGED,131 BEACH   19 STREET,FAR ROCKAWAY,NY,11691,QUEENS,212-273-5200,Y,,,,,,,,,,,,,,,40.593761,-73.753207,414,31,99802,4301622,4158100055,Far Rockaway-Bayswater,POINT (-73.753207 40.593761)
OLDER ADULT CENTER CONTRACTS,C3513,TERESA MOORE OAC (C35),FORT GREENE COUNCIL,2702 Linden Blvd,BROOKLYN,NY,11208,BROOKLYN,347-663-7770,Y,09:00,05:00,09:00,05:00,09:00,05:00,09:00,05:00,09:00,05:00,00:00,00:00,00:00,00:00,40.669208,-73.864514,305,42,1214,3326995,3044880001,East New York,POINT (-73.864514 40.669208)
OLDER ADULT CENTER CONTRACTS,W2007,ROUNDTABLE SENIOR (W20),RISEBORO COMMUNITY PARTNERSHIP INC,1175 Gates Avenue,BROOKLYN,NY,11206,BROOKLYN,718-443-1903,Y,08:00,05:30,08:00,05:30,08:00,05:30,08:00,05:30,08:00,05:30,00:00,00:00,00:00,00:00,40.691707,-73.919907,304,34,399,3076253,3033310025,Bushwick South,POINT (-73.919907 40.691707)
OLDER ADULT CENTER CONTRACTS,C8001,SHORE HILL OLDER ADULT CENTER (C80),SUNSET PARK HEALTH COUNCIL INC d/b/a FAMILY HEALTH CENTERS A,9000 Shore Road,BROOKLYN,NY,11209,BROOKLYN,347-377-5474,Y,09:00,05:00,09:00,05:00,09:00,05:00,09:00,05:00,09:00,05:00,00:00,00:00,00:00,00:00,40.622093,-74.040244,310,43,5201,3322532,3060780010,Bay Ridge,POINT (-74.040244 40.622093)
OLDER ADULT CENTER CONTRACTS,C1106,BRONXWORKS MORRIS (ISC) (C11),BRONXWORKS INC,80 East 181st Street,BRONX,NY,10453,BRONX,718-933-5300,Y,08:00,04:00,08:00,04:00,08:00,04:00,08:00,04:00,08:00,04:00,00:00,00:00,00:00,00:00,40.855076,-73.904199,205,14,241,2013953,2031780032,Mount Hope,POINT (-73.904199 40.855076)
OLDER ADULT CENTER CONTRACTS,C1605,CBN ROOSEVELT ISLAND SENIOR CENTER (C16),CARTER BURDEN NETWORK INC.,546 Main Street,NEW YORK,NY,10044,MANHATTAN,212-980-1888,Y,09:00,05:00,09:00,05:00,09:00,05:00,09:00,05:00,09:00,05:00,00:00,00:00,00:00,00:00,40.761781,-73.949762,108,05,23801,1083202,1013730030,Lenox Hill-Roosevelt Island,POINT (-73.949762 40.761781)
OLDER ADULT CENTER CONTRACTS,W2010,SUMNER SENIOR CLUB (W20),RISEBORO COMMUNITY PARTNERSHIP INC,862 Park Avenue,BROOKLYN,NY,11206,BROOKLYN,718-455-8471,Y,09:00,05:00,09:00,05:00,09:00,05:00,09:00,05:00,09:00,05:00,00:00,00:00,00:00,00:00,40.698582,-73.940736,303,36,28502,3324728,3015800001,Stuyvesant Heights,POINT (-73.940736 40.698582)
OLDER ADULT CENTER CONTRACTS,W2001,BORINQUEN PLAZA (W20),RISEBORO COMMUNITY PARTNERSHIP INC,80 Seigel Street,BROOKLYN,NY,11206,BROOKLYN,718-782-6335,Y,08:00,04:00,08:00,04:00,08:00,04:00,08:00,04:00,08:00,04:00,00:00,00:00,00:00,00:00,40.704366,-73.943775,301,34,491,3071447,3030960030,East Williamsburg,POINT (-73.943775 40.704366)
OLDER ADULT CENTER CONTRACTS,4WZ01,MIDDLE VILLAGE ADULT CENTER (4WZ),RABBI ISRAEL MEYER HACOHEN RABBINICAL SEMINARY OF AMERICA,69-10 75th Street,FLUSHING,NY,11379,QUEENS,718-894-3441,Y,,,,,,,,,,,,,,,40.709285,-73.876664,405,30,619,4091868,4037860020,Middle Village,POINT (-73.876664 40.709285)
OLDER ADULT CENTER CONTRACTS,4AV01,ROCHDALE VILLAGE NORC (4AV),ROCHDALE VILLAGE SOCIAL SERVICES INC,169-65 137 AVENUE,JAMAICA,NY,11434,QUEENS,718-525-2800,Y,,,,,,,,,,,,,,,40.672622,-73.770641,412,28,33402,4436348,4124950002,Springfield Gardens North,POINT (-73.770641 40.672622)
HOME DELIVERED MEAL SERVICE CONTRACTS,6WJ01,PRESTON COURT FOOD DISTRIBUTION & VOLUNTEER CENTER (6WJ),METROPOLITAN NY COORDINATING COUNCIL ON JEWISH POVERTY D/B/A,5361 Preston Court,BROOKLYN,NY,11234,BROOKLYN,212-453-9500,Y,,,,,,,,,,,,,,,40.637943,-73.924857,318,45,94401,3222298,3079490204,Flatlands,POINT (-73.924857 40.637943)
NEW YORK CONNECTS CONTRACTS,4C401,SELFHELP NY CONNECTS (4C4),SELFHELP COMMUNITY SERVICES INC,45-35 Kissena Blvd.,FLUSHING,NY,11355,QUEENS,212-971-7600,Y,,,,,,,,,,,,,,,40.751617,-73.820173,407,20,1205,4117391,4052000151,East Flushing,POINT (-73.820173 40.751617)
OLDER ADULT CENTER CONTRACTS,C1707,CCNS HILLCREST OAC (C17),CATHOLIC CHARITIES NEIGHBORHOOD SERVICES INC,91-34 182nd Pl,JAMAICA,NY,11432,QUEENS,718-297-7171,Y,09:00,05:00,09:00,05:00,09:00,05:00,09:00,05:00,09:00,05:00,00:00,00:00,00:00,00:00,40.709634,-73.778431,412,27,470,4211802,4099000001,Jamaica,POINT (-73.778431 40.709634)
OLDER ADULT CENTER CONTRACTS,W1402,LIFELONG LEARNING CENTER @ ENCORE WEST (W14),ENCORE COMMUNITY SERVICES,755 10th Avenue,NEW YORK,NY,10019,MANHATTAN,212-991-3726,Y,08:00,04:30,08:00,04:30,08:00,04:30,08:00,04:30,08:00,04:30,00:00,00:00,00:00,00:00,40.765461,-73.991235,104,03,135,1087482,1010800030,Clinton,POINT (-73.991235 40.765461)
OLDER ADULT CENTER CONTRACTS,4B301,ROCHDALE VILLAGE SENIOR CENTER (4B3),ROCHDALE VILLAGE SOCIAL SERVICES INC,169-65 137th Ave,JAMAICA,NY,11434,QUEENS,718-525-2800,Y,,,,,,,,,,,,,,,40.672622,-73.770641,412,28,33402,4436348,4124950002,Springfield Gardens North,POINT (-73.770641 40.672622)
HOME DELIVERED MEAL SERVICE CONTRACTS,6PU01,FOOD PANTRY (6PU),PROJECT LEAD INC.,85-12 126th Street,JAMAICA,NY,11415,QUEENS,718-495-6210,Y,,,,,,,,,,,,,,,40.703976,-73.825379,409,29,140,4193638,4092710012,Kew Gardens,POINT (-73.825379 40.703976)
OLDER ADULT CENTER CONTRACTS,C0101,AGUDATH ISRAEL BROOKDALE SENIOR CENTER (C01),AGUDATH ISRAEL OF AMERICA COMMUNITY SERVICES INC,817 Avenue H,BROOKLYN,NY,11230,BROOKLYN,718-434-8670,Y,08:00,04:00,08:00,04:00,08:00,04:00,08:00,04:00,08:00,04:00,00:00,00:00,00:00,00:00,40.629268,-73.968686,314,40,460,3170160,3064960039,Flatbush,POINT (-73.968686 40.629268)
OLDER ADULT CENTER CONTRACTS,C8801,VISIONS CENTER ON AGING OAC (C88),VISIONS/SERVICES FOR THE BLIND AND VISUALLY IMPAIRED,135 West 23rd Street,NEW YORK,NY,10011,MANHATTAN,646-486-4444,Y,09:00,05:00,09:00,05:00,09:00,05:00,09:00,05:00,09:00,05:00,00:00,00:00,00:00,00:00,40.743386,-73.993916,104,03,91,1014949,1007990021,Hudson Yards-Chelsea-Flatiron-Union Square,POINT (-73.993916 40.743386)
OLDER ADULT CENTER CONTRACTS,C5605,QCH REGO PARK OAC (C56),QUEENS COMMUNITY HOUSE INC.,93-29 Queens Blvd,FLUSHING,NY,11374,QUEENS,718-896-8511,Y,08:00,04:00,08:00,04:00,08:00,04:00,08:00,04:00,08:00,04:00,00:00,00:00,00:00,00:00,40.73147,-73.866044,406,29,71702,4050408,4020770050,Rego Park,POINT (-73.866044 40.73147)
OLDER ADULT CENTER CONTRACTS,C4001,PARK SLOPE CTR FOR SUCCESSFUL AGING (C40),HEIGHTS AND HILLS INC.,463A  7th Street,BROOKLYN,NY,11215,BROOKLYN,718-832-3726,Y,08:00,04:00,08:00,04:00,08:00,04:00,08:00,04:00,08:00,04:00,00:00,00:00,00:00,00:00,40.668419,-73.981201,306,39,153,3021748,3009950051,Park Slope-Gowanus,POINT (-73.981201 40.668419)
OLDER ADULT CENTER CONTRACTS,C2201,CASC CASSIDY COLES NSC (C22),COMMUNITY AGENCY FOR SENIOR CITIZENS INC,120 Stuyvesant Pl,STATEN ISLAND,NY,10301,STATEN ISLAND,718-273-6808,Y,08:00,04:00,08:00,04:00,08:00,04:00,08:00,04:00,08:00,04:00,00:00,00:00,00:00,00:00,40.642992,-74.076954,501,49,3,5000084,5000080060,West New Brighton-New Brighton-St. George,POINT (-74.076954 40.642992)
OLDER ADULT CENTER CONTRACTS,C6903,SAGE CTR AT STONEWALL HOUSE (BROOKLYN) (C69),SERVICES AND ADVOCACY FOR GAYLESBIANBISEXUAL AND TRANSGEND,271 Myrtle Ave,BROOKLYN,NY,11201,BROOKLYN,646-518-9744,Y,09:00,05:00,09:00,05:00,09:00,05:00,09:00,05:00,09:00,05:00,00:00,00:00,00:00,00:00,40.693459,-73.978198,302,35,2901,,,Fort Greene,POINT (-73.978198 40.693459)
OLDER ADULT CENTER CONTRACTS,C8310,JASA VAN CORTLANDT OLDER ADULT CENTER (C83),THE JEWISH ASSOCIATION FOR SERVICES FOR THE AGED,3880 Sedgwick Avenue,BRONX,NY,10465,BRONX,718-549-4700,Y,09:00,05:00,09:00,05:00,09:00,05:00,09:00,05:00,09:00,05:00,00:00,00:00,00:00,00:00,40.882997,-73.894008,208,11,409,2086830,2032460076,Van Cortlandt Village,POINT (-73.894008 40.882997)
OLDER ADULT CENTER CONTRACTS,CC101,ELMCOR GOLDEN PHOENIX CLUB FOUR (CC1),ELMCOR YOUTH & ADULT ACTIVITIES INC,33-16 108th Street,FLUSHING,NY,11368,QUEENS,718-651-0096,Y,09:00,03:00,09:00,03:00,09:00,03:00,09:00,03:00,09:00,03:00,00:00,00:00,00:00,00:00,40.757429,-73.860938,403,21,381,4042761,4017220012,North Corona,POINT (-73.860938 40.757429)
OLDER ADULT CENTER CONTRACTS,C5401,PETER CARDELLA OLDER ADULT CENTER (C54),PETER CARDELLA SENIOR CITIZEN CENTER INC,68-52 Fresh Pond Road,FLUSHING,NY,11385,QUEENS,718-497-2908,Y,08:00,03:30,08:00,03:30,08:00,03:30,08:00,03:30,08:00,03:30,00:00,00:00,00:00,00:00,40.703894,-73.895681,405,30,583,4085200,4035350024,Ridgewood,POINT (-73.895681 40.703894)
OLDER ADULT CENTER CONTRACTS,C3602,GODDARD RIVERSIDE OAC AT WEST 88TH STREET (C36),GODDARD-RIVERSIDE COMMUNITY CENTER,593 Columbus Avenue,NEW YORK,NY,10024,MANHATTAN,212-873-6600,Y,09:00,05:00,09:00,05:00,09:00,05:00,09:00,05:00,09:00,05:00,00:00,00:00,00:00,00:00,40.788212,-73.970904,107,06,173,1079511,1012020001,Upper West Side,POINT (-73.970904 40.788212)
OLDER ADULT CENTER CONTRACTS,C8101,EDUCATIONAL ALLIANCE SIROVICH OLDER ADULT CENTER (C81),THE EDUCATIONAL ALLIANCE INC,331 East 12th Street,NEW YORK,NY,10003,MANHATTAN,646-395-4529,Y,08:00,05:00,08:00,05:00,08:00,05:00,08:00,05:00,08:00,05:00,09:00,03:00,00:00,00:00,40.730657,-73.985041,103,02,40,1006502,1004540052,East Village,POINT (-73.985041 40.730657)
OLDER ADULT CENTER CONTRACTS,C8304,JASA CLUB 76 OLDER ADULT CENTER (C83),THE JEWISH ASSOCIATION FOR SERVICES FOR THE AGED,120 West 76th Street,NEW YORK,NY,10023,MANHATTAN,212-712-0170,Y,09:00,05:00,09:00,05:00,09:00,05:00,09:00,05:00,09:00,05:00,00:00,00:00,00:00,00:00,40.780342,-73.977739,107,06,161,1030146,1011470042,Upper West Side,POINT (-73.977739 40.780342)
OLDER ADULT CENTER CONTRACTS,C3505,CHRISTOPHER BLENMAN OAC (C35),FORT GREENE COUNCIL,720 East New York Avenue,BROOKLYN,NY,11203,BROOKLYN,718-773-7400,Y,09:00,05:00,09:00,05:00,09:00,05:00,09:00,05:00,09:00,05:00,00:00,00:00,00:00,00:00,40.662289,-73.938916,309,41,87401,3106612,3047950016,Prospect Lefferts Gardens-Wingate,POINT (-73.938916 40.662289)
OLDER ADULT CENTER CONTRACTS,C2301,CONGREGATION YETEV LEV --WILLIAMSBURG SATMAR (C23),CONGREGATION YETEV LEV DSATMAR,125 Heyward Street,BROOKLYN,NY,11206,BROOKLYN,718-625-1608,Y,09:00,05:00,09:00,05:00,09:00,05:00,09:00,05:00,00:00,00:00,00:00,00:00,09:00,05:00,40.701627,-73.956235,301,33,533,3060997,3022250042,Williamsburg,POINT (-73.956235 40.701627)
OLDER ADULT CENTER CONTRACTS,C1713,CCNS NEW AGE OAC (C17),CATHOLIC CHARITIES NEIGHBORHOOD SERVICES INC,54 MacDonough Street,BROOKLYN,NY,11216,BROOKLYN,718-771-7945,Y,08:00,04:00,08:00,04:00,08:00,04:00,08:00,04:00,08:00,04:00,00:00,00:00,00:00,00:00,40.680929,-73.944383,303,36,269,3053461,3018540025,Bedford,POINT (-73.944383 40.680929)
OLDER ADULT CENTER CONTRACTS,C0803,BERGEN BASIN MARINE PARK OLDER ADULT CENTER (C08),BERGEN BASIN COMMUNITY DEVELOPMENT CORPORATION DBA MILLENNIU,3000 Fillmore Avenue,BROOKLYN,NY,11234,BROOKLYN,718-336-0275,Y,09:00,05:00,09:00,05:00,09:00,05:00,09:00,05:00,09:00,05:00,00:00,00:00,00:00,00:00,40.608592,-73.937467,318,46,666,3000000,3084960001,park-cemetery-etc-Brooklyn,POINT (-73.937467 40.608592)
OLDER ADULT CENTER CONTRACTS,C1105,BRONXWORKS TWIN PARKS WEST (C11),BRONXWORKS INC,355 EAST 183 STREET,BRONX,NY,10458,BRONX,,Y,08:00,04:00,08:00,04:00,08:00,04:00,08:00,04:00,08:00,04:00,00:00,00:00,00:00,00:00,40.856391,-73.895991,205,15,38302,2092394,2031430155,Fordham South,POINT (-73.895991 40.856391)
OLDER ADULT CENTER CONTRACTS,C8307,JASA SENIOR ALLIANCE OLDER ADULT CENTER (C83),THE JEWISH ASSOCIATION FOR SERVICES FOR THE AGED,161 Corbin Place,BROOKLYN,NY,11235,BROOKLYN,718-646-4100,Y,08:00,04:00,08:00,04:00,08:00,04:00,08:00,04:00,08:00,04:00,00:00,00:00,00:00,00:00,40.578026,-73.954127,315,48,61004,3245719,3087190073,Brighton Beach,POINT (-73.954127 40.578026)
OLDER ADULT CENTER CONTRACTS,C2102,CPC NAN SHAN NEIGHBORHOOD SENIOR CENTER (C21),CHINESE AMERICAN PLANNING COUNCIL INC,133-14 41st Avenue 1st Floor,FLUSHING,NY,11355,QUEENS,718-358-3030,Y,08:00,04:00,08:00,04:00,08:00,04:00,08:00,04:00,08:00,04:00,00:00,00:00,00:00,00:00,40.757805,-73.830321,407,20,849,4114228,4050410005,Flushing,POINT (-73.830321 40.757805)
OLDER ADULT CENTER CONTRACTS,C6802,SEPHARDIC MSSCC HOUSE OF JACOB SENIOR CENTER : SITE 02 (C68),SEPHARDIC MULTI SERVICES SENIOR CITIZEN CENTER INC,6222 23rd Avenue,BROOKLYN,NY,11204,BROOKLYN,718-259-0100,Y,08:00,04:00,08:00,04:00,08:00,04:00,08:00,04:00,08:00,04:00,00:00,00:00,00:00,00:00,40.61405,-73.977597,311,44,436,3172161,3065510045,Bensonhurst East,POINT (-73.977597 40.61405)
OLDER ADULT CENTER CONTRACTS,W2204,JASA BROOKDALE VILLAGE (W22),THE JEWISH ASSOCIATION FOR SERVICES FOR THE AGED,131 Beach 19 Street,FAR ROCKAWAY,NY,11691,QUEENS,718-471-3200,Y,08:30,04:30,08:30,04:30,08:30,04:30,08:30,04:30,08:30,04:30,00:00,00:00,00:00,00:00,40.593761,-73.753207,414,31,99802,4301622,4158100055,Far Rockaway-Bayswater,POINT (-73.753207 40.593761)
OLDER ADULT CENTER CONTRACTS,C5102,NYFSC LAGUARDIA OLDER ADULT CENTER (C51),NEW YORK FOUNDATION FOR SENIOR CITIZENS INC,280 Cherry Street,NEW YORK,NY,10002,MANHATTAN,212-732-3656,Y,08:30,04:30,08:30,04:30,08:30,04:30,08:30,04:30,08:30,04:30,00:00,00:00,00:00,00:00,40.711376,-73.988461,103,01,6,1003211,1002560014,Lower East Side,POINT (-73.988461 40.711376)
OLDER ADULT CENTER CONTRACTS,C0805,BERGEN BASIN MILL BASIN OLDER ADULT CENTER (C08),BERGEN BASIN COMMUNITY DEVELOPMENT CORPORATION DBA MILLENNIU,2075 East 68th Street,BROOKLYN,NY,11234,BROOKLYN,718-444-3850,Y,09:00,05:00,09:00,05:00,09:00,05:00,09:00,05:00,09:00,05:00,00:00,00:00,00:00,00:00,40.618864,-73.910226,318,46,69602,3237201,3084090001,Georgetown-Marine Park-Bergen Beach-Mill Basin,POINT (-73.910226 40.618864)
OLDER ADULT CENTER CONTRACTS,C3507,BISHOP PHILIUS & HELENE NICOLAS OAC (C35),FORT GREENE COUNCIL,1488 New York Avenue,BROOKLYN,NY,11210,BROOKLYN,718-638-2010,Y,08:00,04:00,08:00,04:00,08:00,04:00,08:00,04:00,08:00,04:00,00:00,00:00,00:00,00:00,40.636835,-73.945176,317,45,788,3336201,3049960001,Flatbush,POINT (-73.945176 40.636835)
OLDER ADULT CENTER CONTRACTS,W2101,SELFHELP AUSTIN ST (W21),SELFHELP COMMUNITY SERVICES INC,106-06 Queens Boulevard,FLUSHING,NY,11375,QUEENS,718-520-8197,Y,08:30,04:30,08:30,04:30,08:30,04:30,08:30,04:30,08:30,04:30,00:00,00:00,00:00,00:00,40.72212,-73.847335,406,29,711,4077479,4032370040,Forest Hills,POINT (-73.847335 40.72212)
OLDER ADULT CENTER CONTRACTS,C9007,WAYSIDE OUT VAN DYKE II SENIOR CENTER (C90),WAYSIDE OUT-REACH DEVELOPMENT INC,430 Dumont Avenue,BROOKLYN,NY,11212,BROOKLYN,718-385-1110,Y,09:00,05:00,09:00,05:00,09:00,05:00,09:00,05:00,09:00,05:00,00:00,00:00,00:00,00:00,40.664982,-73.903308,316,41,910,3328126,3037940001,Brownsville,POINT (-73.903308 40.664982)
HOME DELIVERED MEAL SERVICE CONTRACTS,2RN01,BRIDGING ACCESS TO CARE INC. (2RN),Bridging Access to Care Inc.,2261 Church Avenue,BROOKLYN,NY,11226,BROOKLYN,347-505-5100,Y,,,,,,,,,,,,,,,40.650448,-73.957663,314,40,79602,3116866,3050890031,Prospect Lefferts Gardens-Wingate,POINT (-73.957663 40.650448)
OLDER ADULT CENTER CONTRACTS,C3201,BENSONHURST SENIOR CENTER (C32),EDITH AND CARL MARKS JEWISH COMMUNITY HOUSE OF BENSONHURST,7802 Bay Parkway,BROOKLYN,NY,11214,BROOKLYN,718-331-6800,Y,08:00,04:00,08:00,04:00,08:00,04:00,08:00,04:00,08:00,04:00,00:00,00:00,00:00,00:00,40.606369,-73.989235,311,44,270,3162352,3062640030,Bensonhurst West,POINT (-73.989235 40.606369)
OLDER ADULT CENTER CONTRACTS,W1801,CENTER @ LENOX HILL (ISC) (W18),LENOX HILL NEIGHBORHOOD HOUSE INC,343 East 70th Street,NEW YORK,NY,10021,MANHATTAN,212-218-0315,Y,08:00,06:00,08:00,06:00,08:00,06:00,08:00,06:00,08:00,06:00,08:00,03:00,08:00,03:00,40.766686,-73.95739,108,05,126,1044841,1014450023,Lenox Hill-Roosevelt Island,POINT (-73.95739 40.766686)
OLDER ADULT CENTER CONTRACTS,C2003,MMCC-CDC OLDER ADULT CENTER MARBLE HILL (C20),CHILD DEVELOPMENT CENTER OF THE MOSHOLU-MONTEFIORE COMMMUNIT,5365 Broadway,BRONX,NY,10463,BRONX,718-562-8551,Y,08:30,04:30,08:30,04:30,08:30,04:30,08:30,04:30,08:30,04:30,00:00,00:00,00:00,00:00,40.876062,-73.907886,208,10,309,1082782,1022150623,Marble Hill-Inwood,POINT (-73.907886 40.876062)
OLDER ADULT CENTER CONTRACTS,4BG01,YOUNG ISRAEL OF FOREST HILLS SENIOR LEAGUE (4BG),YOUNG ISRAEL PROGRAMS INC,68-07 Burns street,FLUSHING,NY,11375,QUEENS,718-677-4315,Y,,,,,,,,,,,,,,,40.721357,-73.851655,406,29,711,4077448,4032340089,Forest Hills,POINT (-73.851655 40.721357)
OLDER ADULT CENTER CONTRACTS,C8303,JASA SUE GINSBURG (C83),THE JEWISH ASSOCIATION FOR SERVICES FOR THE AGED,975 Waring Avenue,BRONX,NY,10469,BRONX,718-881-1758,Y,08:00,04:00,08:00,04:00,08:00,04:00,08:00,04:00,08:00,04:00,00:00,00:00,00:00,00:00,40.861211,-73.859709,211,13,324,2093415,2044440001,Bronxdale,POINT (-73.859709 40.861211)
OLDER ADULT CENTER CONTRACTS,C7207,RAICES FARRAGUT OAC SATELLITE (C72),SPANISH SPEAKING ELDERLY COUNCIL RAICES INC.,228 York Street,BROOKLYN,NY,11201,BROOKLYN,718-422-1069,Y,09:00,05:00,09:00,05:00,09:00,05:00,09:00,05:00,09:00,05:00,00:00,00:00,00:00,00:00,40.701304,-73.981762,302,35,23,3325909,3000710001,DUMBO-Vinegar Hill-Downtown Brooklyn-Boerum Hill,POINT (-73.981762 40.701304)
OLDER ADULT CENTER CONTRACTS,C8311,JASA WILLIAMSBURG OLDER ADULT CENTER (C83),THE JEWISH ASSOCIATION FOR SERVICES FOR THE AGED,202 Graham Avenue,BROOKLYN,NY,11206,BROOKLYN,718-388-6865,Y,08:00,04:00,08:00,04:00,08:00,04:00,08:00,04:00,08:00,04:00,00:00,00:00,00:00,00:00,40.708879,-73.943443,301,34,493,3344974,3030260001,Bushwick South,POINT (-73.943443 40.708879)
OLDER ADULT CENTER CONTRACTS,C2104,CPC PROJECT OPEN DOOR NEIGHBORHOOD SENIOR CENTER (C21),CHINESE AMERICAN PLANNING COUNCIL INC,168 Grand Street,NEW YORK,NY,10013,MANHATTAN,212-431-9026,Y,09:00,05:00,09:00,05:00,09:00,05:00,09:00,05:00,09:00,05:00,00:00,00:00,00:00,00:00,40.71969,-73.998286,102,01,41,1075959,1004727501,SoHo-TriBeCa-Civic Center-Little Italy,POINT (-73.998286 40.71969)
OLDER ADULT CENTER CONTRACTS,C9404,YOUNG ISRAEL WAVECREST & BAYSWATER SENIOR LEAGUE (C94),YOUNG ISRAEL PROGRAMS INC,2716 Healy Avenue,FAR ROCKAWAY,NY,11691,QUEENS,718-327-0297,Y,08:00,04:00,08:00,04:00,08:00,04:00,08:00,04:00,08:00,04:00,00:00,00:00,00:00,00:00,40.604149,-73.765737,414,31,100802,4300494,4157220041,Far Rockaway-Bayswater,POINT (-73.765737 40.604149)
OLDER ADULT CENTER CONTRACTS,C2002,MMCC-CDC OLDER ADULT CENTER MAIN BUILDING (C20),CHILD DEVELOPMENT CENTER OF THE MOSHOLU-MONTEFIORE COMMMUNIT,3450 Dekalb Avenue,BRONX,NY,10467,BRONX,718-798-6601,Y,08:30,04:30,08:30,04:30,08:30,04:30,08:30,04:30,08:30,04:30,00:00,00:00,00:00,00:00,40.881486,-73.881226,207,11,421,2096396,2033270001,Norwood,POINT (-73.881226 40.881486)
OLDER ADULT CENTER CONTRACTS,2TT01,COPO (2TT),COUNCIL OF PEOPLES ORGANIZATION INC.,1079 Coney Island Avenue,BROOKLYN,NY,11230,BROOKLYN,718-434-3266,Y,,,,,,,,,,,,,,,40.631103,-73.966448,314,45,528,3178917,3066860078,Flatbush,POINT (-73.966448 40.631103)
OLDER ADULT CENTER CONTRACTS,C4201,HOMECREST BENSONHURST OAC & AVE T BROOKLYN (C42),HOMECREST COMMUNITY SERVICES INC,6915 15th Ave,BROOKLYN,NY,11228,BROOKLYN,718-621-7960,Y,8 :00,3 :00,8 :00,3 :00,8 :00,3 :00,8 :00,3 :00,8 :00,3 :00,00:00,00:00,00:00,00:00,40.612279,-74.000933,311,43,276,3162717,3062720007,Bensonhurst West,POINT (-74.000933 40.612279)
OLDER ADULT CENTER CONTRACTS,C2103,CPC NY CHINATOWN NEIGHBORHOOD SENIOR CENTER (C21),CHINESE AMERICAN PLANNING COUNCIL INC,55 Chrystie Street,NEW YORK,NY,10002,MANHATTAN,212-233-8930,Y,09:00,05:00,09:00,05:00,09:00,05:00,09:00,05:00,09:00,05:00,00:00,00:00,00:00,00:00,40.716358,-73.994726,103,01,16,1003915,1003030027,Chinatown,POINT (-73.994726 40.716358)
OLDER ADULT CENTER CONTRACTS,C9701,NEW BEGINNINGS (RIVERDALE Y) (C97),YM YWHA OF THE BRONX dba RIVERDALE YM YWHA,5625 Arlington Ave,BRONX,NY,10471,BRONX,718-548-8200,Y,08:00,05:00,08:00,05:00,08:00,05:00,08:00,05:00,08:00,05:00,00:00,00:00,00:00,00:00,40.905009,-73.907133,208,11,323,2086312,2059520374,North Riverdale-Fieldston-Riverdale,POINT (-73.907133 40.905009)
OLDER ADULT CENTER CONTRACTS,C9005,WAYSIDE OUT TOMPKINS PARK SENIOR CENTER (C90),WAYSIDE OUT-REACH DEVELOPMENT INC,550 Greene Avenue,BROOKLYN,NY,11216,BROOKLYN,718-638-3000,Y,09:00,05:00,09:00,05:00,09:00,05:00,09:00,05:00,09:00,05:00,00:00,00:00,00:00,00:00,40.688666,-73.948775,303,36,251,3050417,3017980040,Bedford,POINT (-73.948775 40.688666)
OLDER ADULT CENTER CONTRACTS,C9103,MILL BROOK OAC (C91),WEST SIDE FEDERATION FOR SENIOR AND SUPPORTIVE HOUSING INC,570 East 137th street,BRONX,NY,10454,BRONX,646-214-2450,Y,08:30,04:00,08:30,04:00,08:30,04:00,08:30,04:00,08:30,04:00,00:00,00:00,00:00,00:00,40.805994,-73.917671,201,08,2701,2000000,2025480001,Mott Haven-Port Morris,POINT (-73.917671 40.805994)
OLDER ADULT CENTER CONTRACTS,C9501,CENTER FOR ADULTS LIVING WELL @ THE Y (OAC) (C95),YM YWHA OF WASHINGTON HEIGHTS AND INWOOD INC,54 Nagle Avenue,NEW YORK,NY,10040,MANHATTAN,646-738-6084,Y,08:00,04:00,08:00,04:00,08:00,04:00,08:00,04:00,08:00,04:00,00:00,00:00,00:00,00:00,40.859993,-73.929129,112,10,285,1064146,1021720064,Washington Heights North,POINT (-73.929129 40.859993)
OLDER ADULT CENTER CONTRACTS,4UN01,ROBERT COUCHE OLDER ADULT CENTER (4UN),MERRILL PARK CIVIC ASSOCIATION OF SPRINGFIELD GARDENS INC,137-57 FARMERS BOULEVARD,JAMAICA,NY,11434,QUEENS,718-978-8352,Y,,,,,,,,,,,,,,,40.67251,-73.764138,412,31,330,4280089,4130200013,Springfield Gardens North,POINT (-73.764138 40.67251)
HOME DELIVERED MEAL SERVICE CONTRACTS,3AU01,WASHINGTON HEIGHTS INWOOD PRESERVATION & RESTORATION CORP. (3AU),WASHINGTON HEIGHTS INWOOD PRESERVATION AND RESTORATION CORPO,121 Bennett Ave. #11A,NEW YORK,NY,10033,MANHATTAN,212-568-5450,Y,,,,,,,,,,,,,,,40.853856,-73.934937,112,10,271,1064430,1021800150,Washington Heights North,POINT (-73.934937 40.853856)
OLDER ADULT CENTER CONTRACTS,C7703,MOUNT LORETTO OAC (C77),STATEN ISLAND COMMUNITY SERVICES FRIENDSHIP CLUBS INC,6581 Hylan Boulevard,STATEN ISLAND,NY,10309,STATEN ISLAND,718-984-8589,Y,08:00,04:00,08:00,04:00,08:00,04:00,08:00,04:00,08:00,04:00,00:00,00:00,00:00,00:00,40.508809,-74.222403,503,51,198,5123970,5076640001,Annadale-Huguenot-Prince's Bay-Eltingville,POINT (-74.222403 40.508809)
OLDER ADULT CENTER CONTRACTS,C9201,WILLIAM HODSON OLDER ADULT CENTER (C92),WILLIAM HODSON COMMUNITY CENTER INC,1320 Webster Avenue,BRONX,NY,10456,BRONX,718-538-1515,Y,08:00,04:00,08:00,04:00,08:00,04:00,08:00,04:00,08:00,04:00,00:00,00:00,00:00,00:00,40.834189,-73.90854,203,16,14701,2092074,2028940001,Claremont-Bathgate,POINT (-73.90854 40.834189)
OLDER ADULT CENTER CONTRACTS,C7209,ASTORIA NSC (C72),SPANISH SPEAKING ELDERLY COUNCIL RAICES INC.,21-21 30th Drive,LONG ISLAND CITY,NY,11102,QUEENS,718-726-9642,Y,09:00,05:00,09:00,05:00,09:00,05:00,09:00,05:00,09:00,05:00,00:00,00:00,00:00,00:00,40.768135,-73.928916,401,22,79,4006319,4005500007,Old Astoria,POINT (-73.928916 40.768135)
OLDER ADULT CENTER CONTRACTS,C3304,FIND AID WOODSTOCK OAC (C33),FIND AID FOR THE AGED,127 West 43rd Street,NEW YORK,NY,10036,MANHATTAN,212-575-0693,Y,09:00,05:00,09:00,05:00,09:00,05:00,09:00,05:00,09:00,05:00,00:00,00:00,00:00,00:00,40.755873,-73.984454,105,04,119,1022613,1009960014,Midtown-Midtown South,POINT (-73.984454 40.755873)
OLDER ADULT CENTER CONTRACTS,C3509,MARIA LAWTON OAC (C35),FORT GREENE COUNCIL,400 Hart Street,BROOKLYN,NY,11206,BROOKLYN,718-452-7474,Y,09:00,05:00,09:00,05:00,09:00,05:00,09:00,05:00,09:00,05:00,00:00,00:00,00:00,00:00,40.694725,-73.93519,303,36,287,3341752,3015950024,Stuyvesant Heights,POINT (-73.93519 40.694725)
OLDER ADULT CENTER CONTRACTS,4DV01,INDIA HOME (4DV),INDIA HOME INC,178-36 Wexford Terrace,JAMAICA,NY,11432,QUEENS,917-288-7600,Y,,,,,,,,,,,,,,,40.713508,-73.784561,408,24,466,4534092,4099377501,Jamaica Estates-Holliswood,POINT (-73.784561 40.713508)
OLDER ADULT CENTER CONTRACTS,C1710,CCNS NORTHSIDE OAC (C17),CATHOLIC CHARITIES NEIGHBORHOOD SERVICES INC,179 North 6th Street,BROOKLYN,NY,11211,BROOKLYN,718-387-2316,Y,08:00,04:00,08:00,04:00,08:00,04:00,08:00,04:00,08:00,04:00,00:00,00:00,00:00,00:00,40.716685,-73.957339,301,33,553,3062100,3023280025,North Side-South Side,POINT (-73.957339 40.716685)
OLDER ADULT CENTER CONTRACTS,C0601,ABSW OAC (C06),ASSOCIATION OF BLACK SOCIAL WORKERS INC,221 West 107th Street,NEW YORK,NY,10025,MANHATTAN,212-749-8400,Y,08:00,04:00,08:00,04:00,08:00,04:00,08:00,04:00,08:00,04:00,00:00,00:00,00:00,00:00,40.801503,-73.96612,107,07,195,1075379,1018790017,Morningside Heights,POINT (-73.96612 40.801503)
OLDER ADULT CENTER CONTRACTS,C3504,WILLOUGHBY OAC (C35),FORT GREENE COUNCIL,105 North Portland Avenue,BROOKLYN,NY,11205,BROOKLYN,718-875-1011,Y,09:00,05:00,09:00,05:00,09:00,05:00,09:00,05:00,09:00,05:00,00:00,00:00,00:00,00:00,40.694782,-73.976116,302,35,18501,3335258,3020410001,Fort Greene,POINT (-73.976116 40.694782)
OLDER ADULT CENTER CONTRACTS,W2011,RISEBORO HUNTERS POINT (W20),RISEBORO COMMUNITY PARTNERSHIP INC,52-3 Center Boulevard,LONG ISLAND CITY,NY,11101,QUEENS,718-821-0254,Y,09:00,05:00,09:00,05:00,09:00,05:00,09:00,05:00,09:00,05:00,00:00,00:00,00:00,00:00,40.742166,-73.960033,402,26,1,4000000,4000060060,Hunters Point-Sunnyside-West Maspeth,POINT (-73.960033 40.742166)
OLDER ADULT CENTER CONTRACTS,C3401,FOOD BANK FOR NEW YORK CITY OAC (C34),FOOD BANK FOR NEW YORK CITY,252 West 116th Street,NEW YORK,NY,10026,MANHATTAN,212-566-7855,Y,09:00,06:00,09:00,06:00,09:00,06:00,09:00,06:00,09:00,06:00,00:00,00:00,00:00,00:00,40.80386,-73.954062,110,09,218,1055248,1018310060,Central Harlem South,POINT (-73.954062 40.80386)
OLDER ADULT CENTER CONTRACTS,C1714,CCNS NARROWS OAC (C17),CATHOLIC CHARITIES NEIGHBORHOOD SERVICES INC,930 53rd Street,BROOKLYN,NY,11219,BROOKLYN,718-232-2311,Y,08:00,04:00,08:00,04:00,08:00,04:00,08:00,04:00,08:00,04:00,00:00,00:00,00:00,00:00,40.637498,-74.002266,312,38,116,3343065,3056660012,Borough Park,POINT (-74.002266 40.637498)
ELDER ABUSE SERVICES CONTRACTS,1E901,CASC (1E9),COMMUNITY AGENCY FOR SENIOR CITIZENS INC,120 Stuyvesant Place Suite 409,STATEN ISLAND,NY,10301,STATEN ISLAND,718-981-6226,Y,,,,,,,,,,,,,,,40.643264,-74.077159,501,49,3,5000084,5000080060,West New Brighton-New Brighton-St. George,POINT (-74.077159 40.643264)
OLDER ADULT CENTER CONTRACTS,C6502,SAMUEL FIELD Y BAY TERRACE OLDER ADULT CENTER (C65),SAMUEL FIELD YM & YWHA INC,21200 23rd Avenue,FLUSHING,NY,11360,QUEENS,718-225-4253,Y,08:00,04:00,08:00,04:00,08:00,04:00,08:00,04:00,08:00,04:00,00:00,00:00,00:00,00:00,40.781448,-73.778109,407,19,99704,4132408,4059000050,Ft. Totten-Bay Terrace-Clearview,POINT (-73.778109 40.781448)
OLDER ADULT CENTER CONTRACTS,C3503,SETH LOW SOCIAL CLUBS CD16 (C35),FORT GREENE COUNCIL,137 Belmont Avenue,BROOKLYN,NY,11212,BROOKLYN,718-485-4991,Y,09:00,05:00,09:00,05:00,09:00,05:00,09:00,05:00,09:00,05:00,00:00,00:00,00:00,00:00,40.669205,-73.905172,316,41,908,3327015,3037270001,Brownsville,POINT (-73.905172 40.669205)
OLDER ADULT CENTER CONTRACTS,C3511,HUGH GILROY OAC (C35),FORT GREENE COUNCIL,447 Kingsborough 4th Walk,BROOKLYN,NY,11233,BROOKLYN,718-756-8400,Y,09:00,05:00,09:00,05:00,09:00,05:00,09:00,05:00,09:00,05:00,00:00,00:00,00:00,00:00,40.675242,-73.924931,308,41,307,3035751,3013440175,Crown Heights North,POINT (-73.924931 40.675242)
OLDER ADULT CENTER CONTRACTS,C8308,JASA STARRETT CITY OLDER ADULT CENTER (C83),THE JEWISH ASSOCIATION FOR SERVICES FOR THE AGED,1540 Van Siclen Avenue,BROOKLYN,NY,11239,BROOKLYN,718-642-1010,Y,08:00,04:00,08:00,04:00,08:00,04:00,08:00,04:00,08:00,04:00,00:00,00:00,00:00,00:00,40.648214,-73.877613,305,42,105801,3343608,3044520200,Starrett City,POINT (-73.877613 40.648214)
OLDER ADULT CENTER CONTRACTS,C1301,COUNCIL CTR FOR SENIOR CITIZENS (C13),BROOKLYN SECTION NATIONAL COUNCIL OF JEWISH WOMEN INC.,1001 Quentin road,BROOKLYN,NY,11223,BROOKLYN,718-627-7680,Y,09:00,05:00,09:00,05:00,09:00,05:00,09:00,05:00,09:00,05:00,00:00,00:00,00:00,00:00,40.607755,-73.962822,315,44,420,3176314,3066420045,Homecrest,POINT (-73.962822 40.607755)
OLDER ADULT CENTER CONTRACTS,C1604,LEHMAN VILLAGE SENIOR PROGRAM (SOCIAL CLUB) (C16),CARTER BURDEN NETWORK INC.,1641 Madison Avenue,NEW YORK,NY,10029,MANHATTAN,646-370-5642,Y,08:00,04:00,08:00,04:00,08:00,04:00,08:00,04:00,08:00,04:00,00:00,00:00,00:00,00:00,40.79584,-73.947866,111,08,17401,1078867,1016150023,East Harlem South,POINT (-73.947866 40.79584)
OLDER ADULT CENTER CONTRACTS,2DA01,BAY RIDGE NORC (2DA),BAY RIDGE CENTER INC d/b/a BAY RIDGE CENTER,7609 THIRD AVENUE,BROOKLYN,NY,11209,BROOKLYN,718-333-5782,Y,,,,,,,,,,,,,,,40.6306,-74.028133,310,43,64,3149187,3059500007,Bay Ridge,POINT (-74.028133 40.6306)
TRANSPORTATION SERVICES CONTRACTS,10601,MID BRONX TRANSPORTATION (106),MID BRONX SENIOR CITIZENS COUNCIL INC,900 GRAND CONCOURSE,BRONX,NY,10451,BRONX,718-992-2057,Y,08:00,04:00,08:00,04:00,08:00,04:00,08:00,04:00,08:00,04:00,00:00,00:00,00:00,00:00,40.827401,-73.92228,204,16,18301,2002802,2024600001,East Concourse-Concourse Village,POINT (-73.92228 40.827401)
OLDER ADULT CENTER CONTRACTS,C4701,JCCGCI CONEY ISLAND SEASIDE OLDER ADULT CENTER (ISC) (C47),JEWISH COMMUNITY COUNCIL OF GREATER CONEY ISLAND INC,3001 West 37th Street,BROOKLYN,NY,11224,BROOKLYN,718-449-6363,Y,08:00,04:00,08:00,04:00,08:00,04:00,08:00,04:00,08:00,04:00,00:00,00:00,00:00,00:00,40.573177,-74.002509,313,47,340,3189617,3070650001,Seagate-Coney Island,POINT (-74.002509 40.573177)
OLDER ADULT CENTER CONTRACTS,C9402,YOUNG ISRAEL PROGRAMS MIDWOOD (C94),YOUNG ISRAEL PROGRAMS INC,1694 Ocean Avenue,BROOKLYN,NY,11230,BROOKLYN,718-253-7800,Y,08:00,04:00,08:00,04:00,08:00,04:00,08:00,04:00,08:00,04:00,00:00,00:00,00:00,00:00,40.620447,-73.955405,314,48,538,3180733,3067390044,Midwood,POINT (-73.955405 40.620447)
OLDER ADULT CENTER CONTRACTS,C1719,CCNS ST. CHARLES JUBILEE OAC (C17),CATHOLIC CHARITIES NEIGHBORHOOD SERVICES INC,55 Pierrepont Street,BROOKLYN,NY,11201,BROOKLYN,718-855-0326,Y,09:00,05:00,09:00,05:00,09:00,05:00,09:00,05:00,09:00,05:00,00:00,00:00,00:00,00:00,40.695783,-73.995117,302,33,501,3001825,3002367502,Brooklyn Heights-Cobble Hill,POINT (-73.995117 40.695783)
OLDER ADULT CENTER CONTRACTS,C3514,HAZEL BROOKS OAC (C35),FORT GREENE COUNCIL,961 Ocean Ave,BROOKLYN,NY,11226,BROOKLYN,347-435-3287,Y,09:00,05:00,09:00,05:00,09:00,05:00,09:00,05:00,09:00,05:00,00:00,00:00,00:00,00:00,40.638891,-73.958877,314,40,51601,3120264,3052060062,Flatbush,POINT (-73.958877 40.638891)
OLDER ADULT CENTER CONTRACTS,C3101,EAST SIDE HOUSE BORINQUEN COURT MITCHEL OAC (C31),EAST SIDE HOUSE INC,295 East 138 Street,BRONX,NY,10454,BRONX,718-665-2168,Y,08:30,04:30,08:30,04:30,08:30,04:30,08:30,04:30,08:30,04:30,00:00,00:00,00:00,00:00,40.810606,-73.926353,201,08,39,,,Mott Haven-Port Morris,POINT (-73.926353 40.810606)
OLDER ADULT CENTER CONTRACTS,C4202,HOMECREST (C42),HOMECREST COMMUNITY SERVICES INC,1413 Avenue T,BROOKLYN,NY,11229,BROOKLYN,718-376-4036,Y,:30,03:30,8 :30,03:30,8 :30,03:30,8 :30,03:30,8 :30,03:30,:,:,:,:,40.60102,-73.957543,315,48,556,3196793,3072930043,Homecrest,POINT (-73.957543 40.60102)
OLDER ADULT CENTER CONTRACTS,C0807,BERGEN BASIN VANDALIA OLDER ADULT CENTER (C08),BERGEN BASIN COMMUNITY DEVELOPMENT CORPORATION DBA MILLENNIU,47 Vandalia Avenue,BROOKLYN,NY,11239,BROOKLYN,718-272-3949,Y,09:00,05:00,09:00,05:00,09:00,05:00,09:00,05:00,09:00,05:00,00:00,00:00,00:00,00:00,40.649799,-73.88676,305,42,105804,3348859,3044310100,Starrett City,POINT (-73.88676 40.649799)
OLDER ADULT CENTER CONTRACTS,C5801,RAIN BOSTON EAST OAC (C58),REGIONAL AID FOR INTERIM NEEDS INC,3450 Boston Road,BRONX,NY,10469,BRONX,718-654-9200,Y,08:00,06:00,08:00,06:00,08:00,06:00,08:00,06:00,08:00,06:00,00:00,00:00,00:00,00:00,40.876304,-73.848594,212,12,364,2060739,2047370105,Eastchester-Edenwald-Baychester,POINT (-73.848594 40.876304)
OLDER ADULT CENTER CONTRACTS,C1201,BCA BENSONHURST OLDER ADULT CENTER (C12),BROOKLYN CHINESE-AMERICAN ASSOCIATION INC,TBD -- 6701 Bay Parkway,BROOKLYN,NY,11204,BROOKLYN,718-331-3088,Y,08:30,04:30,08:30,04:30,08:30,04:30,08:30,04:30,08:30,04:30,00:00,00:00,00:00,00:00,40.612602,-73.982733,311,44,430,3173207,3065760010,Bensonhurst East,POINT (-73.982733 40.612602)
NATURALLY OCCURING RETIREMENT COMMUNITY CONTRACTS,N5001,PELHAM PARKWAY HOUSES NORC (N50),BRONX HOUSE INC,2435 WILLIAMSBRIDGE RD,BRONX,NY,10469,BRONX,718-652-6363,Y,09:00,05:00,09:00,05:00,09:00,05:00,09:00,05:00,09:00,05:00,00:00,00:00,00:00,00:00,40.862084,-73.857697,211,13,324,,,Bronxdale,POINT (-73.857697 40.862084)
OLDER ADULT CENTER CONTRACTS,C4601,QUEENSBRIDGE CENTER (C46),JACOB A RIIS NEIGHBORHOOD SETTLEMENT,10-25 41st Avenue,LONG ISLAND CITY,NY,11101,QUEENS,718-784-7447,Y,08:00,04:00,08:00,04:00,08:00,04:00,08:00,04:00,08:00,04:00,00:00,00:00,00:00,00:00,40.755488,-73.945328,401,26,25,4433386,4004700100,Queensbridge-Ravenswood-Long Island City,POINT (-73.945328 40.755488)
OLDER ADULT CENTER CONTRACTS,C1708,CCNS RIVERWAY OAC (ISC) (C17),CATHOLIC CHARITIES NEIGHBORHOOD SERVICES INC,230 Riverdale Avenue,BROOKLYN,NY,11212,BROOKLYN,718-942-5345,Y,08:30,04:30,08:30,04:30,08:30,04:30,08:30,04:30,08:30,04:30,00:00,00:00,00:00,00:00,40.661083,-73.908024,316,42,916,3413856,3036030025,Brownsville,POINT (-73.908024 40.661083)
OLDER ADULT CENTER CONTRACTS,W1606,ARTURO SCHOMBURG (W16),INSTITUTE FOR THE PUERTO RICAN HISPANIC ELDERLY INC,1315 Franklin Avenue,BRONX,NY,10456,BRONX,718-842-6880,Y,08:00,04:00,08:00,04:00,08:00,04:00,08:00,04:00,08:00,04:00,00:00,00:00,00:00,00:00,40.832062,-73.901641,203,16,149,2009713,2029310086,Morrisania-Melrose,POINT (-73.901641 40.832062)
OLDER ADULT CENTER CONTRACTS,C5501,POLISH & SLAVIC CTR KRAKUS OAC (+ SOCIAL SVS) (C55),POLISH & SLAVIC CENTER INC,176 Java Street,BROOKLYN,NY,11222,BROOKLYN,718-383-5290,Y,09:00,04:00,09:00,04:00,09:00,04:00,09:00,04:00,09:00,04:00,00:00,00:00,00:00,00:00,40.731692,-73.953577,301,33,575,3064615,3025510014,Greenpoint,POINT (-73.953577 40.731692)
OLDER ADULT CENTER CONTRACTS,C7201,RED HOOK NSC (C72),SPANISH SPEAKING ELDERLY COUNCIL RAICES INC.,120 West 9th Street,BROOKLYN,NY,11231,BROOKLYN,718-269-0519,Y,09:00,05:00,09:00,05:00,09:00,05:00,09:00,05:00,09:00,05:00,00:00,00:00,00:00,00:00,40.675925,-74.001961,306,38,85,3339412,3005380001,Carroll Gardens-Columbia Street-Red Hook,POINT (-74.001961 40.675925)
OLDER ADULT CENTER CONTRACTS,W1302,GOLDEN PHOENIX 2 (ELMCOR LEFRAK NSC) (W13),ELMCOR YOUTH & ADULT ACTIVITIES INC,95-18 Northern Blvd,FLUSHING,NY,11368,QUEENS,718-651-0096,Y,09:00,04:00,09:00,04:00,09:00,04:00,09:00,04:00,09:00,04:00,00:00,00:00,00:00,00:00,40.756866,-73.872861,403,21,375,4042344,4017100010,North Corona,POINT (-73.872861 40.756866)
OLDER ADULT CENTER CONTRACTS,3ZV01,ARC XVI A.PHILIP RANDOLPH SENIOR CENTER (3ZV),ARC XVI FORT WASHINGTON INC,108 WEST  146 STREET,NEW YORK,NY,10039,MANHATTAN,212-281-1349,Y,,,,,,,,,,,,,,,40.821341,-73.936317,110,09,232,1060189,1020140036,Central Harlem North-Polo Grounds,POINT (-73.936317 40.821341)
OLDER ADULT CENTER CONTRACTS,C0802,BERGEN BASIN INDEPENDENCE OLDER ADULT CENTER (C08),BERGEN BASIN COMMUNITY DEVELOPMENT CORPORATION DBA MILLENNIU,114 Taylor Street,BROOKLYN,NY,11249,BROOKLYN,718-388-9242,Y,09:00,05:00,09:00,05:00,09:00,05:00,09:00,05:00,09:00,05:00,00:00,00:00,00:00,00:00,40.705508,-73.963702,301,33,545,3059905,3021760001,Williamsburg,POINT (-73.963702 40.705508)
OLDER ADULT CENTER CONTRACTS,C1901,CENTRAL HARLEM KENNEDY (C19),CENTRAL HARLEM SENIOR CITIZENS CENTERS INC.,34 W 134th Street,NEW YORK,NY,10037,MANHATTAN,212-926-4871,Y,09:00,05:00,09:00,05:00,09:00,05:00,09:00,05:00,09:00,05:00,00:00,00:00,00:00,00:00,40.812702,-73.939645,110,09,212,1083984,1017300016,Central Harlem North-Polo Grounds,POINT (-73.939645 40.812702)
OLDER ADULT CENTER CONTRACTS,45D01,ELMCOR GOLDEN PHOENIX CLUB THREE (45D),ELMCOR YOUTH & ADULT ACTIVITIES INC,96-05 Horace Harding ExpressWay,FLUSHING,NY,11368,QUEENS,718-651-0096,Y,09:00,05:00,09:00,05:00,09:00,05:00,09:00,05:00,09:00,05:00,00:00,00:00,00:00,00:00,40.734383,-73.864309,404,21,455,4047337,4019180114,Corona,POINT (-73.864309 40.734383)
OLDER ADULT CENTER CONTRACTS,C8002,SUNSET PARK OAC (C80),SUNSET PARK HEALTH COUNCIL INC d/b/a FAMILY HEALTH CENTERS A,4520 4th Avenue,BROOKLYN,NY,11220,BROOKLYN,718-210-1050,Y,09:00,05:00,09:00,05:00,09:00,05:00,09:00,05:00,09:00,05:00,00:00,00:00,00:00,00:00,40.649111,-74.009845,307,38,80,3324373,3007460039,Sunset Park West,POINT (-74.009845 40.649111)
OLDER ADULT CENTER CONTRACTS,C0701,SISTER ANNUNCIATA BETHELL OAC (C07),BEDFORD PARK MULTI-SERVICE CENTER FOR SENIOR CITIZENS INC,243 East 204th Street,BRONX,NY,10458,BRONX,718-365-3725,Y,08:30,04:30,08:30,04:30,08:30,04:30,08:30,04:30,08:30,04:30,00:00,00:00,00:00,00:00,40.874205,-73.884457,207,11,413,2017363,2033110146,Bedford Park-Fordham North,POINT (-73.884457 40.874205)
OLDER ADULT CENTER CONTRACTS,C5808,RAIN MT. CARMEL OAC (C58),REGIONAL AID FOR INTERIM NEEDS INC,2405 Southern Boulevard,BRONX,NY,10462,BRONX,718-733-8852,Y,08:00,04:00,08:00,04:00,08:00,04:00,08:00,04:00,08:00,04:00,00:00,00:00,00:00,00:00,40.853773,-73.881558,206,15,393,2013061,2031150005,Belmont,POINT (-73.881558 40.853773)
OLDER ADULT CENTER CONTRACTS,C9601,BORO PARK Y OAC (C96),YOUNG MENS AND YOUNG WOMENS HEBREW ASSOCIATION OF BORO PARK,4912 14th Ave,BROOKLYN,NY,11219,BROOKLYN,718-435-3804,Y,08:00,04:00,08:00,04:00,08:00,04:00,08:00,04:00,08:00,04:00,00:00,00:00,00:00,00:00,40.63357,-73.99006,312,44,236,3328617,3056420042,Borough Park,POINT (-73.99006 40.63357)
OLDER ADULT CENTER CONTRACTS,W1301,GOLDEN PHOENIX 1 (ELMCOR NSC) (W13),ELMCOR YOUTH & ADULT ACTIVITIES INC,98-19 Astoria Blvd,FLUSHING,NY,11369,QUEENS,718-651-0096,Y,09:00,05:00,09:00,05:00,09:00,05:00,09:00,05:00,09:00,05:00,00:00,00:00,00:00,00:00,40.762296,-73.871089,403,21,367,4032768,4013720045,East Elmhurst,POINT (-73.871089 40.762296)
OLDER ADULT CENTER CONTRACTS,C1717,CCNS THE LODGE OAC (C17),CATHOLIC CHARITIES NEIGHBORHOOD SERVICES INC,7711 18th Avenue,BROOKLYN,NY,11214,BROOKLYN,718-621-1081,Y,07:00,03:00,07:00,03:00,07:00,03:00,07:00,03:00,07:00,03:00,00:00,00:00,00:00,00:00,40.612087,-73.997288,311,47,274,3161485,3062490006,Bensonhurst West,POINT (-73.997288 40.612087)
OLDER ADULT CENTER CONTRACTS,C9301,YMCA - GLEBE OLDER ADULT COMMUNITY HUB (C93),YMCA OF GREATER NEW YORK,2125 Glebe Avenue,BRONX,NY,10462,BRONX,212-912-2490,Y,08:00,04:00,08:00,04:00,08:00,04:00,08:00,04:00,08:00,04:00,00:00,00:00,00:00,00:00,40.8351,-73.850368,210,18,20601,2041406,2039630043,Westchester-Unionport,POINT (-73.850368 40.8351)
OLDER ADULT CENTER CONTRACTS,C5101,NYFSC DYCKMAN OLDER ADULT CENTER (C51),NEW YORK FOUNDATION FOR SENIOR CITIZENS INC,3754 10th Avenue,NEW YORK,NY,10034,MANHATTAN,212-569-7790,Y,08:30,04:30,08:30,04:30,08:30,04:30,08:30,04:30,08:30,04:30,00:00,00:00,00:00,00:00,40.860844,-73.921587,112,10,299,1080032,1022160001,Marble Hill-Inwood,POINT (-73.921587 40.860844)
OLDER ADULT CENTER CONTRACTS,C8501,UJCES LILLIAN WALD OAC CENTER (C85),UNITED JEWISH COUNCIL OF THE EAST SIDE INC,12 Ave D,NEW YORK,NY,10009,MANHATTAN,212-260-2731,Y,09:00,05:00,09:00,05:00,09:00,05:00,09:00,05:00,09:00,05:00,00:00,00:00,00:00,00:00,40.720462,-73.978369,103,02,20,1078045,1003560001,Lower East Side,POINT (-73.978369 40.720462)
OLDER ADULT CENTER CONTRACTS,W2009,STUYVESANT GARDENS SENIOR CLUB (W20),RISEBORO COMMUNITY PARTNERSHIP INC,150 Malcolm X Boulevard,BROOKLYN,NY,11221,BROOKLYN,347-318-3313,Y,09:00,05:00,09:00,05:00,09:00,05:00,09:00,05:00,09:00,05:00,00:00,00:00,00:00,00:00,40.688335,-73.930144,303,36,293,3044658,3016360024,Stuyvesant Heights,POINT (-73.930144 40.688335)
OLDER ADULT CENTER CONTRACTS,5EC01,EGER HEALTH CARE AND REHABILITATION CENTER (5EC),EGER HEALTH CARE AND REHABILITATION CENTER,140 Meisner Avenue,STATEN ISLAND,NY,10306,STATEN ISLAND,718-989-3002,Y,,,,,,,,,,,,,,,40.579571,-74.13169,502,50,279,5037085,5022500002,Todt Hill-Emerson Hill-Heartland Village-Lighthouse Hill,POINT (-74.13169 40.579571)
OLDER ADULT CENTER CONTRACTS,C2603,M M BETHUNE (C26),COTHOA LUNCHEON CLUB INC,1970 Amsterdam Avenue New York NY 1003,NEW YORK,NY,10032,MANHATTAN,646-918-7710,Y,09:00,05:00,09:00,05:00,09:00,05:00,09:00,05:00,09:00,05:00,00:00,00:00,00:00,00:00,40.83328,-73.94174,112,07,241,1076742,1021160033,Washington Heights South,POINT (-73.94174 40.83328)
ELDER ABUSE SERVICES CONTRACTS,64701,WEILL CORNELL MEDICINE (647),WEILL MEDICAL COLLEGE OF CORNELL UNIVERSITY,21 BLOOMINGDALE RD,WHITE PLAINS,NY,10605,,914-997-4333,Y,09:00,05:00,09:00,05:00,09:00,05:00,09:00,05:00,09:00,05:00,00:00,00:00,00:00,00:00,,,,,,,,,
OLDER ADULT CENTER CONTRACTS,C0901,BRC SENIOR CENTER (C09),BOWERY RESIDENTS COMMITTEE INC,30 Delancy Street,NEW YORK,NY,10002,MANHATTAN,212-533-2020,Y,08:00,03:30,08:00,03:30,08:00,03:30,08:00,03:30,08:00,03:30,00:00,00:00,00:00,00:00,40.719792,-73.992269,103,01,18,1079081,1004200001,Chinatown,POINT (-73.992269 40.719792)
OLDER ADULT CENTER CONTRACTS,34F01,UNION SETTLEMENT (34F),UNION SETTLEMENT ASSOCIATION,237 EAST  104 STREET,NEW YORK,NY,10029,MANHATTAN,212-828-6000,Y,,,,,,,,,,,,,,,40.789687,-73.944267,111,08,170,1080671,1016540011,East Harlem South,POINT (-73.944267 40.789687)
OLDER ADULT CENTER CONTRACTS,C6601,SBH OLDER ADULT CENTER - SENIOR PAVILION (C66),SBH COMMUNITY SERVICE NETWORKINC.,1963 McDonald Avenue,BROOKLYN,NY,11223,BROOKLYN,718-787-1100,Y,08:30,04:30,08:30,04:30,08:30,04:30,08:30,04:30,09:00,01:00,00:00,00:00,00:00,00:00,40.604832,-73.972263,315,44,422,3397113,3066580062,Homecrest,POINT (-73.972263 40.604832)
OLDER ADULT CENTER CONTRACTS,C9401,YOUNG ISRAEL PROGRAMS FOREST HILLS (C94),YOUNG ISRAEL PROGRAMS INC,68-07 Burns Street,FLUSHING,NY,11375,QUEENS,718-520-2305,Y,08:00,04:00,08:00,04:00,08:00,04:00,08:00,04:00,08:00,04:00,00:00,00:00,00:00,00:00,40.721357,-73.851655,406,29,711,4077448,4032340089,Forest Hills,POINT (-73.851655 40.721357)
OLDER ADULT CENTER CONTRACTS,C0102,AGUDATH ISRAEL MORIAH OLDER ADULT LUNCHEON CLUB (C01),AGUDATH ISRAEL OF AMERICA COMMUNITY SERVICES INC,90 Bennett Ave,NEW YORK,NY,10033,MANHATTAN,212-923-5715,Y,08:00,04:00,08:00,04:00,08:00,04:00,08:00,04:00,08:00,04:00,00:00,00:00,00:00,00:00,40.853017,-73.935383,112,10,271,1064436,1021800172,Washington Heights North,POINT (-73.935383 40.853017)
OLDER ADULT CENTER CONTRACTS,C7203,CORONA OAC (C72),SPANISH SPEAKING ELDERLY COUNCIL RAICES INC.,107-24 Corona Avenue,FLUSHING,NY,11368,QUEENS,718-321-0463,Y,09:00,05:00,09:00,05:00,09:00,05:00,09:00,05:00,09:00,05:00,00:00,00:00,00:00,00:00,40.743551,-73.855705,404,21,439,4431694,4019420053,Corona,POINT (-73.855705 40.743551)
OLDER ADULT CENTER CONTRACTS,C1706,CCNS THE BAY OAC (C17),CATHOLIC CHARITIES NEIGHBORHOOD SERVICES INC,3643 Nostrand Avenue,BROOKLYN,NY,11229,BROOKLYN,718-648-2053,Y,08:00,04:00,08:00,04:00,08:00,04:00,08:00,04:00,08:00,04:00,00:00,00:00,00:00,00:00,40.594966,-73.940825,315,46,572,3344554,3074051001,Sheepshead Bay-Gerritsen Beach-Manhattan Beach,POINT (-73.940825 40.594966)
OLDER ADULT CENTER CONTRACTS,3YE01,ARC XVI FT.WASHINGTON OLDER ADULT (3YE),ARC XVI FORT WASHINGTON INC,516 WEST  181 STREET,NEW YORK,NY,10033,MANHATTAN,212-281-1349,Y,,,,,,,,,,,,,,,40.848436,-73.93165,112,10,269,1063614,1021520067,Washington Heights North,POINT (-73.93165 40.848436)
OLDER ADULT CENTER CONTRACTS,C8401,THOMAS GUESS OAC (C84),THE NEIGHBORHOOD SELF-HELP BY OLDER PERSONS PROJECT INC,2070 Clinton Avenue,BRONX,NY,10457,BRONX,718-584-2357,Y,08:00,04:00,08:00,04:00,08:00,04:00,08:00,04:00,08:00,04:00,00:00,00:00,00:00,00:00,40.847236,-73.888101,206,15,371,2012652,2030940014,East Tremont,POINT (-73.888101 40.847236)
OLDER ADULT CENTER CONTRACTS,C0806,BERGEN BASIN PENN WORTMAN OLDER ADULT CENTER (C08),BERGEN BASIN COMMUNITY DEVELOPMENT CORPORATION DBA MILLENNIU,895 Pennsylvania Avenue,BROOKLYN,NY,11207,BROOKLYN,347-318-3770,Y,09:00,05:00,09:00,05:00,09:00,05:00,09:00,05:00,09:00,05:00,00:00,00:00,00:00,00:00,40.655966,-73.888652,305,42,1104,3324011,3043690001,East New York,POINT (-73.888652 40.655966)
OLDER ADULT CENTER CONTRACTS,C0103,AGUDATH ISRAEL OF AMERICA BORO PARK SENIOR CITIZENS CENTER (C01),AGUDATH ISRAEL OF AMERICA COMMUNITY SERVICES INC,1258 45th Street,BROOKLYN,NY,11219,BROOKLYN,718-854-7430,Y,08:00,04:00,08:00,04:00,08:00,04:00,08:00,04:00,08:00,04:00,00:00,00:00,00:00,00:00,40.637838,-73.990754,312,44,222,3136699,3056160027,Borough Park,POINT (-73.990754 40.637838)
OLDER ADULT CENTER CONTRACTS,C3103,PATTERSON OLDER ADULT CENTERS (C31),EAST SIDE HOUSE INC,308 E 145 Street,BRONX,NY,10451,BRONX,718-993-5146,Y,08:30,04:30,08:30,04:30,08:30,04:30,08:30,04:30,08:30,04:30,00:00,00:00,00:00,00:00,40.815197,-73.922179,201,08,51,2091115,2023240001,Mott Haven-Port Morris,POINT (-73.922179 40.815197)
ELDER ABUSE SERVICES CONTRACTS,1E701,SUNNYSIDE COMMUNITY SEVRICES (1E7),SUNNYSIDE COMMUNITY SERVICES INC,43-31 39th Street,LONG ISLAND CITY,NY,11104,QUEENS,718-784-6173,Y,,,,,,,,,,,,,,,40.74519,-73.925909,402,26,179,4436677,4001910005,Hunters Point-Sunnyside-West Maspeth,POINT (-73.925909 40.74519)
OLDER ADULT CENTER CONTRACTS,VN601,BROOKS SENIOR CENTER (VN6),BROOKS SENIOR CENTER,143-22 109th AVENUE,JAMAICA,NY,11435,QUEENS,718-291-3935,Y,,,,,,,,,,,,,,,40.688564,-73.803554,412,28,196,4257866,4119330001,South Jamaica,POINT (-73.803554 40.688564)
NEW YORK CONNECTS CONTRACTS,2C401,JASA NY CONNECTS (2C4),THE JEWISH ASSOCIATION FOR SERVICES FOR THE AGED,1901 Coney Island Avenue,BROOKLYN,NY,11230,BROOKLYN,212-273-5200,Y,,,,,,,,,,,,,,,40.611054,-73.962568,314,48,542,3181688,3067580067,Midwood,POINT (-73.962568 40.611054)
OLDER ADULT CENTER CONTRACTS,C6201,RIVERSTONE SENIOR LIFE SERVICES OAC (C62),RIVERSTONE SENIOR LIFE SERVICES INC.,99 Fort Washington Avenue,NEW YORK,NY,10032,MANHATTAN,212-927-5600,Y,08:30,04:30,08:30,04:30,08:30,04:30,08:30,04:30,08:30,04:30,00:00,00:00,00:00,00:00,40.83851,-73.943738,112,07,247,1063346,1021360235,Washington Heights South,POINT (-73.943738 40.83851)
OLDER ADULT CENTER CONTRACTS,W2401,GAYLORD WHITE OAC (W24),UNION SETTLEMENT ASSOCIATION,435 East 120th Street,NEW YORK,NY,10035,MANHATTAN,212-828-6055,Y,09:00,05:00,09:00,05:00,09:00,05:00,09:00,05:00,09:00,05:00,00:00,00:00,00:00,00:00,40.798041,-73.932186,111,08,192,1081287,1018080001,East Harlem North,POINT (-73.932186 40.798041)
OLDER ADULT CENTER CONTRACTS,W1701,BERNIKOW OAC (W17),JEWISH COMMUNITY CENTER OF STATEN ISLAND INC,1466 Manor Road,STATEN ISLAND,NY,10314,STATEN ISLAND,718-475-5284,Y,09:00,05:00,09:00,05:00,09:00,05:00,09:00,05:00,09:00,05:00,00:00,00:00,00:00,00:00,40.594454,-74.125677,502,50,181,5141743,5009550100,Todt Hill-Emerson Hill-Heartland Village-Lighthouse Hill,POINT (-74.125677 40.594454)
OLDER ADULT CENTER CONTRACTS,W1802,SENIOR CENTER @ ST PETER'S CHURCH (W18),LENOX HILL NEIGHBORHOOD HOUSE INC,619 Lexington Avenue,NEW YORK,NY,10022,MANHATTAN,212-308-1959,Y,08:00,06:00,09:00,04:00,09:00,04:00,09:00,04:00,09:00,04:00,00:00,00:00,00:00,00:00,40.758698,-73.970744,106,04,100,1036474,1013087501,Turtle Bay-East Midtown,POINT (-73.970744 40.758698)
OLDER ADULT CENTER CONTRACTS,W1601,BETANCES (W16),INSTITUTE FOR THE PUERTO RICAN HISPANIC ELDERLY INC,401 St Anns Avenue,BRONX,NY,10454,BRONX,718-292-4922,Y,08:00,04:00,08:00,04:00,08:00,04:00,08:00,04:00,08:00,04:00,00:00,00:00,00:00,00:00,40.81085,-73.914941,201,08,41,2090993,2022690100,Mott Haven-Port Morris,POINT (-73.914941 40.81085)
OLDER ADULT CENTER CONTRACTS,C3302,FIND AID COFFEEHOUSE CENTER (C33),FIND AID FOR THE AGED,331 West 42nd Street,NEW YORK,NY,10036,MANHATTAN,646-545-4621,Y,09:00,05:00,09:00,05:00,09:00,05:00,09:00,05:00,09:00,05:00,00:00,00:00,00:00,00:00,40.757677,-73.990821,104,03,121,1083731,1010330049,Clinton,POINT (-73.990821 40.757677)
OLDER ADULT CENTER CONTRACTS,C1712,CCNS BEST LIFE OAC (C17),CATHOLIC CHARITIES NEIGHBORHOOD SERVICES INC,118-35 Farmers Boulevard,JAMAICA,NY,11412,QUEENS,718-722-6095,Y,09:00,05:00,09:00,05:00,09:00,05:00,09:00,05:00,09:00,05:00,00:00,00:00,00:00,00:00,40.689392,-73.762087,412,27,394,4000000,4126030063,St. Albans,POINT (-73.762087 40.689392)
NATURALLY OCCURING RETIREMENT COMMUNITY CONTRACTS,N6401,LINDSAY PARK NORC (N64),ST. NICKS ALLIANCE CORP.,31 Leonard Street,BROOKLYN,NY,11206,BROOKLYN,718-874-0102,Y,09:00,04:00,09:00,04:00,09:00,04:00,09:00,04:00,09:00,04:00,00:00,00:00,00:00,00:00,40.70428,-73.946062,301,34,491,3327972,3030770001,East Williamsburg,POINT (-73.946062 40.70428)
OLDER ADULT CENTER CONTRACTS,W1702,AVIS SOUTH SHORE OAC (W17),JEWISH COMMUNITY CENTER OF STATEN ISLAND INC,1297 Arthur Kill Rd,STATEN ISLAND,NY,10312,STATEN ISLAND,718-475-5283,Y,08:00,04:00,08:00,04:00,08:00,04:00,08:00,04:00,08:00,04:00,00:00,00:00,00:00,00:00,40.565262,-74.183882,503,51,228,5077603,5059000105,New Springville-Bloomfield-Travis,POINT (-74.183882 40.565262)
OLDER ADULT CENTER CONTRACTS,C5103,NYFSC MOTT STREET OLDER ADULT CENTER (C51),NEW YORK FOUNDATION FOR SENIOR CITIZENS INC,180 Mott Street,NEW YORK,NY,10012,MANHATTAN,212-966-5460,Y,09:00,05:00,09:00,05:00,09:00,05:00,09:00,05:00,09:00,05:00,00:00,00:00,00:00,00:00,40.7205,-73.995895,102,01,41,1007156,1004790001,SoHo-TriBeCa-Civic Center-Little Italy,POINT (-73.995895 40.7205)
OLDER ADULT CENTER CONTRACTS,C6901,SAGE BRONX CENTER AT CROTONA PRIDE HOUSE (C69),SERVICES AND ADVOCACY FOR GAYLESBIANBISEXUAL AND TRANSGEND,1784 Prospect Avenue,BRONX,NY,10457,BRONX,929-458-2150,Y,08:00,04:00,08:00,04:00,08:00,04:00,08:00,04:00,08:00,04:00,00:00,00:00,00:00,00:00,40.841212,-73.891989,206,17,367,2000000,2029520021,East Tremont,POINT (-73.891989 40.841212)
OLDER ADULT CENTER CONTRACTS,C3701,GRAND ST SETTLEMENT GRAND COALITION OF OLDER ADULTS OAC (C37),GRAND STREET SETTLEMENT INC,175  Delancey street,NEW YORK,NY,10002,MANHATTAN,646-201-4251,Y,09:00,05:00,09:00,05:00,09:00,05:00,09:00,05:00,09:00,05:00,00:00,00:00,00:00,00:00,40.717466,-73.985004,103,01,1402,1000000,1003477501,Lower East Side,POINT (-73.985004 40.717466)
OLDER ADULT CENTER CONTRACTS,W2201,JASA BARTOW (COOP CITY NSC) (W22),THE JEWISH ASSOCIATION FOR SERVICES FOR THE AGED,2049 Bartow Avenue,BRONX,NY,10475,BRONX,718-320-2066,Y,10:00,06:00,10:00,06:00,10:00,06:00,10:00,06:00,10:00,06:00,00:00,00:00,00:00,00:00,40.869472,-73.828582,210,12,46201,2097466,2051410100,Co-op City,POINT (-73.828582 40.869472)
OLDER ADULT CENTER CONTRACTS,C5810,RAIN PARKCHESTER OAC (C58),REGIONAL AID FOR INTERIM NEEDS INC,1380 Metropolitan Avenue,BRONX,NY,10462,BRONX,718-597-9220,Y,08:00,04:00,08:00,04:00,08:00,04:00,08:00,04:00,08:00,04:00,00:00,00:00,00:00,00:00,40.835141,-73.861061,209,18,212,2096674,2039387501,Parkchester,POINT (-73.861061 40.835141)
ELDER ABUSE SERVICES CONTRACTS,5E101,CASC (5E1),COMMUNITY AGENCY FOR SENIOR CITIZENS INC,120 Stuyvesant Place Suite 409,STATEN ISLAND,NY,10301,STATEN ISLAND,718-981-6226,Y,09:00,05:00,09:00,05:00,09:00,05:00,09:00,05:00,09:00,05:00,00:00,00:00,00:00,00:00,40.643264,-74.077159,501,49,3,5000084,5000080060,West New Brighton-New Brighton-St. George,POINT (-74.077159 40.643264)
OLDER ADULT CENTER CONTRACTS,C6301,ROCHDALE VILLAGE SC (C63),ROCHDALE VILLAGE SOCIAL SERVICES INC,169-65 137th Avenue,JAMAICA,NY,11434,QUEENS,718-525-2800,Y,09:00,05:00,09:00,05:00,09:00,05:00,09:00,05:00,09:00,05:00,00:00,00:00,00:00,00:00,40.672622,-73.770641,412,28,33402,4436348,4124950002,Springfield Gardens North,POINT (-73.770641 40.672622)
OLDER ADULT CENTER CONTRACTS,C3902,HANAC HARMONY JVL INNOVATIVE OLDER ADULT CENTER (C39),HANAC INC.,27-40 Hoyt Avenue South,LONG ISLAND CITY,NY,11102,QUEENS,718-396-5002,Y,08:30,04:30,08:30,04:30,08:30,04:30,08:30,04:30,08:30,04:30,09:30,01:00,00:00,00:00,40.771857,-73.9198,401,22,69,4537921,4008390001,Old Astoria,POINT (-73.9198 40.771857)
OLDER ADULT CENTER CONTRACTS,C1718,CCNS GLENWOOD OAC (C17),CATHOLIC CHARITIES NEIGHBORHOOD SERVICES INC,5701 Avenue H,BROOKLYN,NY,11234,BROOKLYN,718-241-7711,Y,08:00,04:00,08:00,04:00,08:00,04:00,08:00,04:00,08:00,04:00,00:00,00:00,00:00,00:00,40.633288,-73.921555,318,45,94402,3331006,3079780001,Flatlands,POINT (-73.921555 40.633288)
OLDER ADULT CENTER CONTRACTS,W1101,EILEEN DUGAN SENIOR CENTER (W11),AMERICAN ITALIAN COALITION OF ORGANIZATIONS INC AMICO,378 Court Street,BROOKLYN,NY,11231,BROOKLYN,718-596-1956,Y,08:00,04:00,08:00,04:00,08:00,04:00,08:00,04:00,08:00,04:00,00:00,00:00,00:00,00:00,40.681371,-73.996391,306,39,65,3004823,3003510031,Carroll Gardens-Columbia Street-Red Hook,POINT (-73.996391 40.681371)
OLDER ADULT CENTER CONTRACTS,C5603,QCH POMONOK OAC (C56),QUEENS COMMUNITY HOUSE INC.,67-09 Kissena Blvd,FLUSHING,NY,11367,QUEENS,718-591-3377,Y,08:00,04:00,08:00,04:00,08:00,04:00,08:00,04:00,08:00,04:00,00:00,00:00,00:00,00:00,40.735033,-73.814726,408,24,122702,4455430,4067920030,Pomonok-Flushing Heights-Hillcrest,POINT (-73.814726 40.735033)
OLDER ADULT CENTER CONTRACTS,W1201,BAY RIDGE CTR FOR LIFE LONG LEARNING (W12),BAY RIDGE CENTER INC d/b/a BAY RIDGE CENTER,15 Bay Ridge Avenue,BROOKLYN,NY,11209,BROOKLYN,718-748-0650,Y,08:00,04:00,08:00,04:00,08:00,04:00,08:00,04:00,08:00,04:00,00:00,00:00,00:00,00:00,40.638645,-74.035376,310,43,34,3144947,3058590060,Bay Ridge,POINT (-74.035376 40.638645)
OLDER ADULT CENTER CONTRACTS,C7901,SUNNYSIDE COMMUNITY SERVICES OAC PROPOSAL # 1 (C79),SUNNYSIDE COMMUNITY SERVICES INC,43-39 39th Street,LONG ISLAND CITY,NY,11104,QUEENS,718-784-6173,Y,08:30,04:30,08:30,04:30,08:30,04:30,08:30,04:30,08:30,04:30,00:00,00:00,00:00,00:00,40.745099,-73.925927,402,26,179,4436676,4001910005,Hunters Point-Sunnyside-West Maspeth,POINT (-73.925927 40.745099)
OLDER ADULT CENTER CONTRACTS,W2301,SHOPP CASA BORICUA (OAC) (W23),THE NEIGHBORHOOD SELF-HELP BY OLDER PERSONS PROJECT INC,910 East 172 Street 1 Floor,BRONX,NY,10460,BRONX,718-542-0222,Y,09:00,05:00,09:00,05:00,09:00,05:00,09:00,05:00,09:00,05:00,00:00,00:00,00:00,00:00,40.834198,-73.890157,203,17,155,2010507,2029770103,Crotona Park East,POINT (-73.890157 40.834198)
OLDER ADULT CENTER CONTRACTS,C0204,ALLEN AME COMMUNITY SENIOR CITIZENS CENTERS - LINDEN BLVD (C02),ALLEN AME CHURCH dba ALLEN COMMUNITY SENIOR CITIZENS CENTER,166-01 Linden Blvd,JAMAICA,NY,11434,QUEENS,718-658-0980,Y,08:00,04:00,08:00,04:00,08:00,04:00,08:00,04:00,08:00,04:00,00:00,00:00,00:00,00:00,40.690054,-73.783147,412,27,266,4435290,4123220001,South Jamaica,POINT (-73.783147 40.690054)
OLDER ADULT CENTER CONTRACTS,C7702,AR (ARROCHAR) (C77),STATEN ISLAND COMMUNITY SERVICES FRIENDSHIP CLUBS INC,44 Bionia Avenue,STATEN ISLAND,NY,10305,STATEN ISLAND,718-698-7979,Y,08:00,04:00,08:00,04:00,08:00,04:00,08:00,04:00,08:00,04:00,00:00,00:00,00:00,00:00,40.596713,-74.075377,502,50,64,5133958,5032700025,Grasmere-Arrochar-Ft. Wadsworth,POINT (-74.075377 40.596713)
LEGAL SERVICES CONTRACTS,40A01,JASA LEGAL SERVICES (40A),THE JEWISH ASSOCIATION FOR SERVICES FOR THE AGED,97-99 QUEENS BOULEVARD,FLUSHING,NY,11374,QUEENS,718-286-1500,Y,09:00,05:00,09:00,05:00,09:00,05:00,09:00,05:00,09:00,05:00,00:00,00:00,00:00,00:00,40.728595,-73.858133,406,29,717,,,Rego Park,POINT (-73.858133 40.728595)
CAREGIVER SERVICES CONTRACTS,1K101,PSS CIRCLE OF CARE (1K1),PRESBYTERIAN SENIOR SERVICES,325 EAST 156 STREET,BRONX,NY,10451,BRONX,212-222-3132,Y,08:00,04:00,08:00,04:00,08:00,04:00,08:00,04:00,08:00,04:00,00:00,00:00,00:00,00:00,40.821439,-73.917995,201,17,69,2091224,2024160001,Melrose South-Mott Haven North,POINT (-73.917995 40.821439)
OLDER ADULT CENTER CONTRACTS,W2205,JASA ROY REUTHER (W22),THE JEWISH ASSOCIATION FOR SERVICES FOR THE AGED,711 Seagirt Avenue,FAR ROCKAWAY,NY,11691,QUEENS,718-471-3110,Y,08:00,04:00,08:00,04:00,08:00,04:00,08:00,04:00,08:00,04:00,00:00,00:00,00:00,00:00,40.595996,-73.742187,414,31,101002,4298968,4156100001,Far Rockaway-Bayswater,POINT (-73.742187 40.595996)
ELDER ABUSE SERVICES CONTRACTS,2E101,JASA ELDER ABUSE BRKL (2E1),THE JEWISH ASSOCIATION FOR SERVICES FOR THE AGED,44 Court Street,BROOKLYN,NY,11201,BROOKLYN,718-943-7752,Y,09:00,05:00,09:00,05:00,09:00,05:00,09:00,05:00,09:00,05:00,00:00,00:00,00:00,00:00,40.692591,-73.990963,302,33,9,3002242,3002550001,Brooklyn Heights-Cobble Hill,POINT (-73.990963 40.692591)
OLDER ADULT CENTER CONTRACTS,C8305,JASA HOLLISWOOD OLDER ADULT CENTER (C83),THE JEWISH ASSOCIATION FOR SERVICES FOR THE AGED,86-25 Francis Lewis Boulevard,JAMAICA,NY,11427,QUEENS,718-454-6157,Y,08:00,04:00,08:00,04:00,08:00,04:00,08:00,04:00,08:00,04:00,00:00,00:00,00:00,00:00,40.724948,-73.765107,408,23,492,4226088,4106000019,Jamaica Estates-Holliswood,POINT (-73.765107 40.724948)
HOME DELIVERED MEAL SERVICE CONTRACTS,42P01,PETER CARDELLA HOME DELIVERED MEALS - QUEENS 4 (42P),PETER CARDELLA SENIOR CITIZEN CENTER INC,68-52 FRESH POND ROAD,FLUSHING,NY,11385,QUEENS,718-497-2908,Y,08:00,04:00,08:00,04:00,08:00,04:00,08:00,04:00,08:00,04:00,00:00,00:00,00:00,00:00,40.703874,-73.895674,405,30,583,4085200,4035350024,Ridgewood,POINT (-73.895674 40.703874)
CASE MANAGEMENT SERVICES CONTRACTS,1MB01,JASA CASE MANAGEMENT BX-03 (1MB),THE JEWISH ASSOCIATION FOR SERVICES FOR THE AGED,3000 MIDDLETOWN ROAD,BRONX,NY,10461,BRONX,347-547-7140,Y,09:00,05:00,09:00,05:00,09:00,05:00,09:00,05:00,09:00,05:00,00:00,00:00,00:00,00:00,40.843886,-73.830311,210,13,264,2074861,2054000047,Schuylerville-Throgs Neck-Edgewater Park,POINT (-73.830311 40.843886)
OLDER ADULT CENTER CONTRACTS,C4706,JCCGCI MARLBORO OLDER ADULT CENTER (C47),JEWISH COMMUNITY COUNCIL OF GREATER CONEY ISLAND INC,2298 West 8th Street,BROOKLYN,NY,11223,BROOKLYN,718-373-6161,Y,08:00,04:00,08:00,04:00,08:00,04:00,08:00,04:00,08:00,04:00,00:00,00:00,00:00,00:00,40.592081,-73.978468,313,47,382,3322179,3071400016,Gravesend,POINT (-73.978468 40.592081)
HOME DELIVERED MEAL SERVICE CONTRACTS,27F01,BAYRIDGE CENTER HOME DELIVERED MEALS - BROOKLYN 5 (27F),BAY RIDGE CENTER INC d/b/a BAY RIDGE CENTER,411 OVINGTON AVENUE,BROOKLYN,NY,11209,BROOKLYN,718-748-0650,Y,09:00,05:00,09:00,05:00,09:00,05:00,09:00,05:00,09:00,05:00,00:00,00:00,00:00,00:00,40.633477,-74.023321,310,43,130,3145772,3058730089,Bay Ridge,POINT (-74.023321 40.633477)
OLDER ADULT CENTER CONTRACTS,C1401,BROOKS SENIOR CENTER (C14),BROOKS SENIOR CENTER,143-22 109th Avenue,JAMAICA,NY,11435,QUEENS,718-291-3935,Y,08:00,04:00,08:00,04:00,08:00,04:00,08:00,04:00,08:00,04:00,00:00,00:00,00:00,00:00,40.688564,-73.803554,412,28,196,4257866,4119330001,South Jamaica,POINT (-73.803554 40.688564)
OLDER ADULT CENTER CONTRACTS,W2104,SELFHELP LATIMER (W21),SELFHELP COMMUNITY SERVICES INC,34-30 137th Street,FLUSHING,NY,11354,QUEENS,718-961-3660,Y,08:30,04:00,08:30,04:00,08:30,04:00,08:30,04:00,08:30,04:00,00:00,00:00,00:00,00:00,40.766044,-73.829935,407,20,88901,4443410,4049510008,Flushing,POINT (-73.829935 40.766044)
TRANSPORTATION SERVICES CONTRACTS,24601,PROJECT RELIEF TRANSPORTATION (246),JEWISH COMMUNITY COUNCIL OF GREATER CONEY ISLAND INC,3001 WEST   37 STREET,BROOKLYN,NY,11224,BROOKLYN,718-449-5000,Y,09:00,05:00,09:00,05:00,09:00,05:00,09:00,05:00,09:00,05:00,00:00,00:00,00:00,00:00,40.573177,-74.002509,313,47,340,3189617,3070650001,Seagate-Coney Island,POINT (-74.002509 40.573177)
HOMECARE SERVICES CONTRACTS,5H601,RICHMOND HOME NEED SERVICES INC. (5H6),RICHMOND HOME NEED SERVICES INC,3155 Amboy Road,STATEN ISLAND,NY,10306,STATEN ISLAND,718-313-1381,Y,09:00,05:00,09:00,05:00,09:00,05:00,09:00,05:00,09:00,05:00,00:00,00:00,00:00,00:00,40.564389,-74.131879,503,51,14606,5107641,5044720001,Great Kills,POINT (-74.131879 40.564389)
OLDER ADULT CENTER CONTRACTS,C6401,WOODSIDE OLDER ADULT CENTER (C64),SAMARITAN DAYTOP VILLAGE INC,50-37 Newtown Road,FLUSHING,NY,11377,QUEENS,718-932-6916,Y,07:45,03:45,07:45,03:45,07:45,03:45,07:45,03:45,07:45,03:45,00:00,00:00,00:00,00:00,40.753724,-73.911047,401,26,163,4430993,4007360002,Astoria,POINT (-73.911047 40.753724)
OLDER ADULT CENTER CONTRACTS,W2008,SARATOGA SQ SENIOR (W20),RISEBORO COMMUNITY PARTNERSHIP INC,930 Halsey Street,BROOKLYN,NY,11233,BROOKLYN,347-425-0676,Y,09:00,05:00,09:00,05:00,09:00,05:00,09:00,05:00,09:00,05:00,00:00,00:00,00:00,00:00,40.685579,-73.916976,316,41,373,3339097,3014950013,Ocean Hill,POINT (-73.916976 40.685579)
OLDER ADULT CENTER CONTRACTS,W2105,SELFHELP MASPETH (W21),SELFHELP COMMUNITY SERVICES INC,69-61 Grand Avenue,FLUSHING,NY,11378,QUEENS,718-429-3636,Y,08:30,04:00,08:30,04:00,08:30,04:00,08:30,04:00,08:30,04:00,00:00,00:00,00:00,00:00,40.727019,-73.893556,405,30,49302,4058561,4025010032,Maspeth,POINT (-73.893556 40.727019)
CAREGIVER SERVICES CONTRACTS,2K401,HEIGHTS AND HILLS INC (2K4),HEIGHTS AND HILLS INC.,81 WILLOUGHBY STREET,BROOKLYN,NY,11201,BROOKLYN,718-596-8789,Y,09:00,05:00,09:00,05:00,09:00,05:00,09:00,05:00,09:00,05:00,00:00,00:00,00:00,00:00,40.692184,-73.985753,302,33,11,3000350,3001480046,DUMBO-Vinegar Hill-Downtown Brooklyn-Boerum Hill,POINT (-73.985753 40.692184)
CAREGIVER SERVICES CONTRACTS,5K101,JEWISH COMMUNITY CENTER OF STATEN ISLAND (5K1),JEWISH COMMUNITY CENTER OF STATEN ISLAND INC,1297 Arthur Kill Road,STATEN ISLAND,NY,10312,STATEN ISLAND,718-475-5287,Y,09:00,05:00,09:00,05:00,09:00,05:00,09:00,05:00,09:00,05:00,00:00,00:00,00:00,00:00,40.565339,-74.183774,503,51,226,5077603,5059000105,New Springville-Bloomfield-Travis,POINT (-74.183774 40.565339)
OLDER ADULT CENTER CONTRACTS,C4703,JCCGCI JAY-HARAMA OLDER ADULT CENTER (C47),JEWISH COMMUNITY COUNCIL OF GREATER CONEY ISLAND INC,2600 Ocean Avenue,BROOKLYN,NY,11229,BROOKLYN,718-891-1110,Y,08:00,04:00,08:00,04:00,08:00,04:00,08:00,04:00,08:00,04:00,00:00,00:00,00:00,00:00,40.598158,-73.951186,315,48,578,3199766,3073520032,Madison,POINT (-73.951186 40.598158)
OLDER ADULT CENTER CONTRACTS,C1801,ANDERSON NEIGHBORHOOD SENIOR CENTER (C18),CATHOLIC CHARITIES OF STATEN ISLAND INC.,120 Anderson Avenue,STATEN ISLAND,NY,10302,STATEN ISLAND,718-448-5757,Y,07:00,03:00,07:00,03:00,07:00,03:00,07:00,03:00,07:00,03:00,00:00,00:00,00:00,00:00,40.634927,-74.134422,501,49,213,5024253,5010360019,Port Richmond,POINT (-74.134422 40.634927)
OLDER ADULT CENTER CONTRACTS,C5701,MIDDLE VILLAGE OAC (C57),RABBI ISRAEL MEYER HACOHEN RABBINICAL SEMINARY OF AMERICA,69-10 75th Street,FLUSHING,NY,11379,QUEENS,718-894-3441,Y,08:00,04:00,08:00,04:00,08:00,04:00,08:00,04:00,08:00,04:00,00:00,00:00,00:00,00:00,40.709285,-73.876664,405,30,619,4091868,4037860020,Middle Village,POINT (-73.876664 40.709285)
OLDER ADULT CENTER CONTRACTS,C9001,WAYSIDE OUT ROSETTA GASTON SENIOR CENTER (C90),WAYSIDE OUT-REACH DEVELOPMENT INC,460 Dumont Avenue,BROOKLYN,NY,11212,BROOKLYN,718-345-5665,Y,09:00,05:00,09:00,05:00,09:00,05:00,09:00,05:00,09:00,05:00,00:00,00:00,00:00,00:00,40.66514,-73.902222,316,42,910,3328133,3037970001,Brownsville,POINT (-73.902222 40.66514)
OLDER ADULT CENTER CONTRACTS,C4501,ITALIAN SENIOR CITIZENS CENTER (C45),ITALIAN SENIOR CITIZENS CENTER INC.,83-20 Queens Blvd,FLUSHING,NY,11373,QUEENS,718-335-7272,Y,09:00,04:00,09:00,04:00,09:00,04:00,09:00,04:00,09:00,04:00,00:00,00:00,00:00,00:00,40.737205,-73.879686,404,25,475,4057291,4024760017,Elmhurst,POINT (-73.879686 40.737205)
OLDER ADULT CENTER CONTRACTS,C6501,SAM FIELD OLDER ADULT CENTER (C65),SAMUEL FIELD YM & YWHA INC,58-20 Little Neck Pkwy,FLUSHING,NY,11362,QUEENS,718-225-6750,Y,09:00,04:00,09:00,04:00,09:00,04:00,09:00,04:00,09:00,04:00,00:00,00:00,00:00,00:00,40.761577,-73.723122,411,23,152902,4173029,4083520051,Douglas Manor-Douglaston-Little Neck,POINT (-73.723122 40.761577)
OLDER ADULT CENTER CONTRACTS,C3903,HANAC RAVENSWOOD OLDER ADULT CENTER (C39),HANAC INC.,34-35 12th Street,LONG ISLAND CITY,NY,11106,QUEENS,718-786-1550,Y,08:00,04:00,08:00,04:00,08:00,04:00,08:00,04:00,08:00,04:00,00:00,00:00,00:00,00:00,40.76323,-73.937607,401,26,43,4430802,4005230002,Queensbridge-Ravenswood-Long Island City,POINT (-73.937607 40.76323)
OLDER ADULT CENTER CONTRACTS,W1901,PSS PARKSIDE (W19),PRESBYTERIAN SENIOR SERVICES,644 Adee Avenue,BRONX,NY,10467,BRONX,718-881-7780,Y,08:00,04:00,08:00,04:00,08:00,04:00,08:00,04:00,08:00,04:00,00:00,00:00,00:00,00:00,40.86967,-73.869106,211,15,336,2101742,2045420100,Bronxdale,POINT (-73.869106 40.86967)
OLDER ADULT CENTER CONTRACTS,C0401,AMICO 59TH ST SENIOR CITIZEN CTR (C04),AMERICAN ITALIAN COALITION OF ORGANIZATIONS INC AMICO,5901 13th Avenue,BROOKLYN,NY,11219,BROOKLYN,718-972-1558,Y,10:00,06:00,10:00,06:00,10:00,06:00,10:00,06:00,10:00,06:00,10:00,06:00,10:00,06:00,40.629332,-73.998022,312,44,192,3141065,3057120001,Borough Park,POINT (-73.998022 40.629332)
OLDER ADULT CENTER CONTRACTS,C3901,HANAC ANGELO PETROMELIS OLDER ADULT CENTER (C39),HANAC INC.,13-28 123rd Street,FLUSHING,NY,11356,QUEENS,718-961-0344,Y,08:00,03:30,08:00,03:30,08:00,03:30,08:00,03:30,08:00,03:30,00:00,00:00,00:00,00:00,40.786179,-73.844772,407,19,947,4096960,4039970035,College Point,POINT (-73.844772 40.786179)
OLDER ADULT CENTER CONTRACTS,C3510,STUYVESANT HEIGHTS OAC (C35),FORT GREENE COUNCIL,562-574 Madison Street,BROOKLYN,NY,11221,BROOKLYN,718-230-0824,Y,09:00,05:00,09:00,05:00,09:00,05:00,09:00,05:00,09:00,05:00,00:00,00:00,00:00,00:00,40.686471,-73.935295,303,36,293,3045125,3016450001,Stuyvesant Heights,POINT (-73.935295 40.686471)
OLDER ADULT CENTER CONTRACTS,W2004,HOPE GARDENS MULTISERVICE (W20),RISEBORO COMMUNITY PARTNERSHIP INC,195 Linden Street,BROOKLYN,NY,11221,BROOKLYN,718-455-1100,Y,08:00,04:00,08:00,04:00,08:00,04:00,08:00,04:00,08:00,04:00,00:00,00:00,00:00,00:00,40.69537,-73.917486,304,37,417,3076116,3033240019,Bushwick South,POINT (-73.917486 40.69537)
OLDER ADULT CENTER CONTRACTS,C8901,WASHINGTON HEIGHTS NEIGHBORHOOD SENIOR CENTER (STAR OAC) (C89),WASHINGTON HEIGHTS COMMUNITY SERVICE INC,650 West 187th Street,NEW YORK,NY,10033,MANHATTAN,212-781-8331,Y,08:00,04:00,08:00,04:00,08:00,04:00,08:00,04:00,08:00,04:00,00:00,00:00,00:00,00:00,40.853679,-73.932494,112,10,271,1075520,1021670056,Washington Heights North,POINT (-73.932494 40.853679)
OLDER ADULT CENTER CONTRACTS,C4708,JCCGCI OCEAN PARKWAY OLDER ADULT CENTER (C47),JEWISH COMMUNITY COUNCIL OF GREATER CONEY ISLAND INC,1960 East 7th Street,BROOKLYN,NY,11223,BROOKLYN,718-4495000,Y,08:00,04:00,08:00,04:00,08:00,04:00,08:00,04:00,08:00,04:00,00:00,00:00,00:00,00:00,40.603084,-73.965083,315,47,418,3178703,3066820045,Homecrest,POINT (-73.965083 40.603084)
OLDER ADULT CENTER CONTRACTS,C8302,JASA BAY EDEN OLDER ADULT CENTER (C83),THE JEWISH ASSOCIATION FOR SERVICES FOR THE AGED,1220 East 229th St Bronx NY 10466,BRONX,NY,10466,BRONX,718-882-3815,Y,08:00,04:00,08:00,04:00,08:00,04:00,08:00,04:00,08:00,04:00,00:00,00:00,00:00,00:00,40.884011,-73.842204,212,12,460,2093741,2049050360,Eastchester-Edenwald-Baychester,POINT (-73.842204 40.884011)
OLDER ADULT CENTER CONTRACTS,C3502,MARCUS GARVEY (C35),FORT GREENE COUNCIL,1440 East New York Avenue,BROOKLYN,NY,11212,BROOKLYN,718-346-7167,Y,09:00,05:00,09:00,05:00,09:00,05:00,09:00,05:00,09:00,05:00,00:00,00:00,00:00,00:00,40.670654,-73.914575,316,41,902,3080727,3034960013,Brownsville,POINT (-73.914575 40.670654)
OLDER ADULT CENTER CONTRACTS,C2802,CYPRESS HILLS ADULT SOCIAL CLUB (C28),CYPRESS HILLS-FULTON STREET SENIOR CITIZENS CENTER INC,475 Fountain Av,BROOKLYN,NY,11208,BROOKLYN,347-529-7333,Y,08:15,04:15,08:15,04:15,08:15,04:15,08:15,04:15,08:15,04:15,00:00,00:00,00:00,00:00,40.668288,-73.873005,305,42,1210,3337041,3042920061,East New York,POINT (-73.873005 40.668288)
OLDER ADULT CENTER CONTRACTS,C1103,BRONXWORKS EAST CONCOURSE (MY SPOT/MI RINCON OAC) (C11),BRONXWORKS INC,236 East Tremont Ave,BRONX,NY,10457,BRONX,718-731-6300,Y,08:00,04:00,08:00,04:00,08:00,04:00,08:00,04:00,08:00,04:00,00:00,00:00,00:00,00:00,40.848936,-73.904562,205,15,23302,2007599,2028040021,Mount Hope,POINT (-73.904562 40.848936)
OLDER ADULT CENTER CONTRACTS,C7601,STANLEY ISAACS NSC/HOLMES OLDER ADULT CENTER (C76),STANLEY M ISAACS NEIGHBORHOOD CENTER INC,415 E 93rd Street,NEW YORK,NY,10128,MANHATTAN,212-360-7620,Y,09:00,05:00,09:00,05:00,09:00,05:00,09:00,05:00,09:00,05:00,00:00,00:00,00:00,00:00,40.780904,-73.945112,108,05,152,1082367,1015730001,Yorkville,POINT (-73.945112 40.780904)
OLDER ADULT CENTER CONTRACTS,C4707,JCCGCI MIDWOOD OLDER ADULT CENTER (C47),JEWISH COMMUNITY COUNCIL OF GREATER CONEY ISLAND INC,1625 Ocean Avenue,BROOKLYN,NY,11230,BROOKLYN,718-253-0508,Y,09:00,04:30,09:00,04:30,09:00,04:30,09:00,04:30,09:00,04:30,00:00,00:00,00:00,00:00,40.622341,-73.955743,314,45,760,3208316,3076200025,Midwood,POINT (-73.955743 40.622341)
OLDER ADULT CENTER CONTRACTS,C7101,SOUTHSIDE LOS SURES DAVID SANTIAGO (C71),SOUTHSIDE UNITED HOUSING DEVELOPMENT FUND CORP,201 South 4th Street,BROOKLYN,NY,11211,BROOKLYN,718-384-2314,Y,09:00,04:00,09:00,04:00,09:00,04:00,09:00,04:00,09:00,04:00,00:00,00:00,00:00,00:00,40.710881,-73.96016,301,34,523,3321304,3024320025,North Side-South Side,POINT (-73.96016 40.710881)
CAREGIVER SERVICES CONTRACTS,1K501,NEIGHBORHOOD S.H.O.P.P. INC. (1K5),THE NEIGHBORHOOD SELF-HELP BY OLDER PERSONS PROJECT INC,975 Kelly Street Suite #401,BRONX,NY,10459,BRONX,718-542-0006,Y,09:00,05:00,09:00,05:00,09:00,05:00,09:00,05:00,09:00,05:00,00:00,00:00,00:00,00:00,40.822052,-73.895879,202,17,87,2114693,2027037501,Longwood,POINT (-73.895879 40.822052)
CASE MANAGEMENT SERVICES CONTRACTS,4ME01,SELFHELP PROJECT QUEENS (4ME),SELFHELP COMMUNITY SERVICES INC,45-25 KISSENA BOULEVARD,FLUSHING,NY,11355,QUEENS,718-321-8194,Y,09:00,05:00,09:00,05:00,09:00,05:00,09:00,05:00,09:00,05:00,00:00,00:00,00:00,00:00,40.751765,-73.820331,407,20,1205,4117390,4052000052,East Flushing,POINT (-73.820331 40.751765)
OLDER ADULT CENTER CONTRACTS,C7002,SNAP #2: BROOKVILLE OAC (C70),SERVICES NOW FOR ADULT PERSONS INC,133-33 Brookville Boulevard,JAMAICA,NY,11422,QUEENS,718-454-2100,Y,08:30,04:30,08:30,04:30,08:30,04:30,08:30,04:30,08:30,04:30,10:00,01:00,00:00,00:00,40.674396,-73.732749,413,31,61602,4279577,4129800001,Rosedale,POINT (-73.732749 40.674396)
OLDER ADULT CENTER CONTRACTS,C1001,BRONX HOUSE WEINBERG NEIGHBORHOOD SENIOR CENTER (C10),BRONX HOUSE INC,990 Pelham Parkway South,BRONX,NY,10461,BRONX,718-792-1800,Y,08:30,04:30,08:30,04:30,08:30,04:30,08:30,04:30,08:30,04:30,00:00,00:00,00:00,00:00,40.856804,-73.860354,211,13,248,2088568,2043287501,Pelham Parkway,POINT (-73.860354 40.856804)
OLDER ADULT CENTER CONTRACTS,C7208,RAICES GOWANUS OAC SATELLITE (C72),SPANISH SPEAKING ELDERLY COUNCIL RAICES INC.,420 Baltic Street,BROOKLYN,NY,11217,BROOKLYN,718-797-2472,Y,09:00,05:00,09:00,05:00,09:00,05:00,09:00,05:00,09:00,05:00,00:00,00:00,00:00,00:00,40.683646,-73.988783,306,33,71,3336072,3004040001,DUMBO-Vinegar Hill-Downtown Brooklyn-Boerum Hill,POINT (-73.988783 40.683646)
OLDER ADULT CENTER CONTRACTS,C5806,RAIN INWOOD OAC (C58),REGIONAL AID FOR INTERIM NEEDS INC,84 Vermilyea Avenue,NEW YORK,NY,10034,MANHATTAN,212-567-3200,Y,08:00,04:00,08:00,04:00,08:00,04:00,08:00,04:00,08:00,04:00,00:00,00:00,00:00,00:00,40.865838,-73.923128,112,10,291,1064905,1022340029,Marble Hill-Inwood,POINT (-73.923128 40.865838)
OLDER ADULT CENTER CONTRACTS,C0502,ARC XVI CENTRAL HARLEM CENTER (C05),ARC XVI FORT WASHINGTON INC,120 West 140th Street,NEW YORK,NY,10030,MANHATTAN,347-919-5072,Y,09:00,05:00,09:00,05:00,09:00,05:00,09:00,05:00,09:00,05:00,00:00,00:00,00:00,00:00,40.817579,-73.939272,110,09,230,1060054,1020080013,Central Harlem North-Polo Grounds,POINT (-73.939272 40.817579)
OLDER ADULT CENTER CONTRACTS,W2206,JASA ROCKAWAY PARK (W22),THE JEWISH ASSOCIATION FOR SERVICES FOR THE AGED,106-20 Shore Front Parkway,FAR ROCKAWAY,NY,11694,QUEENS,718-634-3044,Y,08:00,04:00,08:00,04:00,08:00,04:00,08:00,04:00,08:00,04:00,00:00,00:00,00:00,00:00,40.580723,-73.826713,414,32,938,4303818,4161770035,Breezy Point-Belle Harbor-Rockaway Park-Broad Channel,POINT (-73.826713 40.580723)
OLDER ADULT CENTER CONTRACTS,W2006,RIDGEWOOD BUSHWICK (W20),RISEBORO COMMUNITY PARTNERSHIP INC,319 Stanhope Street,BROOKLYN,NY,11237,BROOKLYN,718-366-3038,Y,08:00,04:00,08:00,04:00,08:00,04:00,08:00,04:00,08:00,04:00,00:00,00:00,00:00,00:00,40.70285,-73.918336,304,37,443,3074237,3032590023,Bushwick North,POINT (-73.918336 40.70285)
OLDER ADULT CENTER CONTRACTS,C5802,RAIN BOSTON ROAD OAC (C58),REGIONAL AID FOR INTERIM NEEDS INC,2424 Boston Road,BRONX,NY,10467,BRONX,718547-8827,Y,08:00,04:00,08:00,04:00,08:00,04:00,08:00,04:00,08:00,04:00,00:00,00:00,00:00,00:00,40.861733,-73.866616,211,13,330,2093401,2044310001,Bronxdale,POINT (-73.866616 40.861733)
OLDER ADULT CENTER CONTRACTS,W1602,BRONX RIVER (W16),INSTITUTE FOR THE PUERTO RICAN HISPANIC ELDERLY INC,1619 East 174 Street,BRONX,NY,10472,BRONX,718-617-6334,Y,08:00,04:00,08:00,04:00,08:00,04:00,08:00,04:00,08:00,04:00,00:00,00:00,00:00,00:00,40.83395,-73.876147,209,18,62,2092909,2038860002,West Farms-Bronx River,POINT (-73.876147 40.83395)
OLDER ADULT CENTER CONTRACTS,C3501,GRACE AGARD HAREWOOD OAC (C35),FORT GREENE COUNCIL,19 Rogers Ave,BROOKLYN,NY,11216,BROOKLYN,718-638-6910,Y,09:00,05:00,09:00,05:00,09:00,05:00,09:00,05:00,09:00,05:00,00:00,00:00,00:00,00:00,40.676909,-73.952667,308,36,315,3030302,3012120006,Crown Heights North,POINT (-73.952667 40.676909)
OLDER ADULT CENTER CONTRACTS,C1705,CCNS OZONE PARK OAC (C17),CATHOLIC CHARITIES NEIGHBORHOOD SERVICES INC,103-02 101st Ave,JAMAICA,NY,11416,QUEENS,718-847-2100,Y,08:00,04:00,08:00,04:00,08:00,04:00,08:00,04:00,08:00,04:00,00:00,00:00,00:00,00:00,40.686027,-73.839777,409,28,112,4198392,4094210001,Richmond Hill,POINT (-73.839777 40.686027)
OLDER ADULT CENTER CONTRACTS,C3506,ALBANY OAC (C35),FORT GREENE COUNCIL,196 Albany Avenue,BROOKLYN,NY,11213,BROOKLYN,718-773-2600,Y,09:00,05:00,09:00,05:00,09:00,05:00,09:00,05:00,09:00,05:00,00:00,00:00,00:00,00:00,40.67388,-73.938974,308,36,343,3031082,3012300044,Crown Heights North,POINT (-73.938974 40.67388)
OLDER ADULT CENTER CONTRACTS,C6701,SEBCO SENIOR CENTER (C67),SEBCO DEVELOPMENT INC,887 Southern Boulevard,BRONX,NY,10459,BRONX,718-617-3465,Y,08:00,04:00,08:00,04:00,08:00,04:00,08:00,04:00,08:00,04:00,00:00,00:00,00:00,00:00,40.818913,-73.89355,202,17,89,2005752,2027220040,Hunts Point,POINT (-73.89355 40.818913)
OLDER ADULT CENTER CONTRACTS,C1709,CCNS SEASIDE OAC (C17),CATHOLIC CHARITIES NEIGHBORHOOD SERVICES INC,320 Beach 94th Street,FAR ROCKAWAY,NY,11693,QUEENS,347-926-4119,Y,08:00,04:00,08:00,04:00,08:00,04:00,08:00,04:00,08:00,04:00,00:00,00:00,00:00,00:00,40.5877,-73.817309,414,32,94202,4303571,4161260004,Hammels-Arverne-Edgemere,POINT (-73.817309 40.5877)
OLDER ADULT CENTER CONTRACTS,W1909,PSS HIGHBRIDGE GARDENS (W19),PRESBYTERIAN SENIOR SERVICES,1145 University Avenue,BRONX,NY,10452,BRONX,347-918-9185,Y,08:00,04:00,08:00,04:00,08:00,04:00,08:00,04:00,08:00,04:00,00:00,00:00,00:00,00:00,40.837077,-73.928282,204,16,193,2095219,2025270032,Highbridge,POINT (-73.928282 40.837077)
OLDER ADULT CENTER CONTRACTS,C9008,WAYSIDE OUT GLENMORE PLAZA SOCIAL CLUB (C90),WAYSIDE OUT-REACH DEVELOPMENT INC,1777 Pitkin Avenue,BROOKLYN,NY,11212,BROOKLYN,917-962-8276,Y,09:00,05:00,09:00,05:00,09:00,05:00,09:00,05:00,09:00,05:00,00:00,00:00,00:00,00:00,40.670168,-73.907561,316,37,906,3080766,3035070001,Brownsville,POINT (-73.907561 40.670168)
OLDER ADULT CENTER CONTRACTS,C1703,CCNS CATHERINE SHERIDAN OAC (C17),CATHOLIC CHARITIES NEIGHBORHOOD SERVICES INC,35-24 83rd Street,FLUSHING,NY,11372,QUEENS,718-458-4600,Y,08:30,04:30,08:30,04:30,08:30,04:30,08:30,04:30,08:30,04:30,00:00,00:00,00:00,00:00,40.751548,-73.883703,403,25,283,4437136,4014560001,Jackson Heights,POINT (-73.883703 40.751548)
OLDER ADULT CENTER CONTRACTS,W2003,DIANA JONES ISC (W20),RISEBORO COMMUNITY PARTNERSHIP INC,9 Noll Street,BROOKLYN,NY,11206,BROOKLYN,718-782-3601,Y,08:00,04:00,08:00,04:00,08:00,04:00,08:00,04:00,08:00,04:00,00:00,00:00,00:00,00:00,40.700163,-73.935675,304,34,391,3387594,3031450100,Bushwick South,POINT (-73.935675 40.700163)
TRANSPORTATION SERVICES CONTRACTS,44Z01,ALLEN TRANSPORTATION (44Z),JAMAICA SERVICE PROGRAM FOR OLDER ADULTS INC,92-47 165TH STREET,JAMAICA,NY,11433,QUEENS,718-657-6500,Y,09:00,05:00,09:00,05:00,09:00,05:00,09:00,05:00,09:00,05:00,00:00,00:00,00:00,00:00,40.704393,-73.794058,412,27,244,4216225,4101550029,Jamaica,POINT (-73.794058 40.704393)
OLDER ADULT CENTER CONTRACTS,W1904,PSS MORRISANIA AIR RIGHTS (W19),PRESBYTERIAN SENIOR SERVICES,3135 Park Ave,BRONX,NY,10451,BRONX,718-992-2528,Y,08:00,04:00,08:00,04:00,08:00,04:00,08:00,04:00,08:00,04:00,00:00,00:00,00:00,00:00,40.82415,-73.917164,204,16,173,2100990,2024209078,East Concourse-Concourse Village,POINT (-73.917164 40.82415)
TRANSPORTATION SERVICES CONTRACTS,30901,WHIST TRANSPORTATION (309),ARC XVI FORT WASHINGTON INC,4111 Broadway,NEW YORK,NY,10033,MANHATTAN,212-781-5700,Y,08:30,04:30,08:30,04:30,08:30,04:30,08:30,04:30,08:30,04:30,00:00,00:00,00:00,00:00,40.845128,-73.938763,112,10,263,1063501,1021420133,Washington Heights South,POINT (-73.938763 40.845128)
OLDER ADULT CENTER CONTRACTS,C2202,CASC NEW LANE NSC (C22),COMMUNITY AGENCY FOR SENIOR CITIZENS INC,70 New Lane,STATEN ISLAND,NY,10301,STATEN ISLAND,718-448-5936,Y,08:00,04:00,08:00,04:00,08:00,04:00,08:00,04:00,08:00,04:00,00:00,00:00,00:00,00:00,40.612811,-74.062256,501,49,6,5042254,5028320068,Stapleton-Rosebank,POINT (-74.062256 40.612811)
OLDER ADULT CENTER CONTRACTS,W1604,ELMHURST (W16),INSTITUTE FOR THE PUERTO RICAN HISPANIC ELDERLY INC,75-01 Broadway Avenue,FLUSHING,NY,11373,QUEENS,718-478-7171,Y,08:00,04:00,08:00,04:00,08:00,04:00,08:00,04:00,08:00,04:00,00:00,00:00,00:00,00:00,40.746172,-73.890208,404,25,267,4036730,4014860013,Elmhurst,POINT (-73.890208 40.746172)
OLDER ADULT CENTER CONTRACTS,C1903,CENTRAL HARLEM LINCOLN (MN11) (C19),CENTRAL HARLEM SENIOR CITIZENS CENTERS INC.,60 E 135th St,NEW YORK,NY,10035,MANHATTAN,212-926-4871,Y,09:00,05:00,09:00,05:00,09:00,05:00,09:00,05:00,09:00,05:00,00:00,00:00,00:00,00:00,40.81161,-73.934935,111,09,210,1081120,1017570020,East Harlem North,POINT (-73.934935 40.81161)
OLDER ADULT CENTER CONTRACTS,C8601,UNITED NEIGHBORHOOD SENIOR CITIZENS CTR (C86),UNITED SENIOR CITIZENS OF SUNSET PARK INC,475 53rd Street,BROOKLYN,NY,11220,BROOKLYN,718-439-8647,Y,08:00,04:00,08:00,04:00,08:00,04:00,08:00,04:00,08:00,04:00,00:00,00:00,00:00,00:00,40.64386,-74.012767,307,38,76,3013917,3008070046,Sunset Park West,POINT (-74.012767 40.64386)
OLDER ADULT CENTER CONTRACTS,W1903,PSS ANDREW JACKSON (W19),PRESBYTERIAN SENIOR SERVICES,325 East 156th Street,BRONX,NY,10451,BRONX,718-585-1640,Y,08:00,04:00,08:00,04:00,08:00,04:00,08:00,04:00,08:00,04:00,00:00,00:00,00:00,00:00,40.821439,-73.917995,201,17,69,2091224,2024160001,Melrose South-Mott Haven North,POINT (-73.917995 40.821439)
CAREGIVER SERVICES CONTRACTS,6K301,PARTNERS IN CARING AT SAGE (6K3),SERVICES AND ADVOCACY FOR GAYLESBIANBISEXUAL AND TRANSGEND,305 7 AVENUE,NEW YORK,NY,10001,MANHATTAN,929-484-4161,Y,09:00,05:00,09:00,05:00,09:00,05:00,09:00,05:00,09:00,05:00,00:00,00:00,00:00,00:00,40.746817,-73.993655,105,03,95,1015060,1008037502,Midtown-Midtown South,POINT (-73.993655 40.746817)
OLDER ADULT CENTER CONTRACTS,C1716,CCNS WOODHAVEN-RICHMOND HILL OAC (C17),CATHOLIC CHARITIES NEIGHBORHOOD SERVICES INC,89-02 91st Street,JAMAICA,NY,11421,QUEENS,718-847-9200,Y,08:00,04:00,08:00,04:00,08:00,04:00,08:00,04:00,08:00,04:00,00:00,00:00,00:00,00:00,40.690455,-73.852946,409,32,18,4185709,4089720004,Woodhaven,POINT (-73.852946 40.690455)
OLDER ADULT CENTER CONTRACTS,C0205,ALLEN AME ROCKAWAY BLVD SENIOR CENTER (C02),ALLEN AME CHURCH dba ALLEN COMMUNITY SENIOR CITIZENS CENTER,123-10 143rd St,JAMAICA,NY,11436,QUEENS,718-657-6752,Y,09:00,05:00,09:00,05:00,09:00,05:00,09:00,05:00,09:00,05:00,00:00,00:00,00:00,00:00,40.674522,-73.795725,412,28,182,4261337,4120390044,Baisley Park,POINT (-73.795725 40.674522)
OLDER ADULT CENTER CONTRACTS,C7001,SNAP #1: EASTERN QUEENS OAC (ISC) (C70),SERVICES NOW FOR ADULT PERSONS INC,80-45 Winchester Blvd Bldg. 4,JAMAICA,NY,11427,QUEENS,718-525-8899,Y,08:30,04:30,08:30,04:30,08:30,04:30,08:30,04:30,08:30,04:30,00:00,00:00,00:00,00:00,40.737685,-73.734021,413,23,1567,4537294,4078800400,Bellerose,POINT (-73.734021 40.737685)
OLDER ADULT CENTER CONTRACTS,CC301,ROBERT COUCHE OLDER ADULT CENTER (CC3),MERRILL PARK CIVIC ASSOCIATION OF SPRINGFIELD GARDENS INC,137-57 FARMERS BOULEVARD,JAMAICA,NY,11434,QUEENS,718-978-8352,Y,,,,,,,,,,,,,,,40.67251,-73.764138,412,31,330,4280089,4130200013,Springfield Gardens North,POINT (-73.764138 40.67251)
OLDER ADULT CENTER CONTRACTS,C6801,SEPHARDIC MULTI SERVICES SENIOR CITIZENS CENTER (C68),SEPHARDIC MULTI SERVICES SENIOR CITIZEN CENTER INC,485 Kings Hwy,BROOKLYN,NY,11223,BROOKLYN,718-336-1300,Y,08:00,04:00,08:00,04:00,08:00,04:00,08:00,04:00,08:00,04:00,00:00,00:00,00:00,00:00,40.604258,-73.971654,315,44,422,3177186,3066580048,Homecrest,POINT (-73.971654 40.604258)
OLDER ADULT CENTER CONTRACTS,C2801,CYPRESS HILLS FULTON STREET SENIOR CITIZENS CENTER (C28),CYPRESS HILLS-FULTON STREET SENIOR CITIZENS CENTER INC,3208 Fulton St Brooklyn NY 11208-1936,BROOKLYN,NY,11208,BROOKLYN,718-235-0064,Y,08:15,04:15,08:15,04:15,08:15,04:15,08:15,04:15,08:15,04:15,00:00,00:00,00:00,00:00,40.682337,-73.876771,305,37,1178,3092631,3041400013,Cypress Hills-City Line,POINT (-73.876771 40.682337)
OLDER ADULT CENTER CONTRACTS,C0301,ALPHA PHI ALPHA SENIOR CITIZENS OAC (C03),ALPHA PHI ALPHA SENIOR CITIZENS CENTER INC,220-01 Linden Blvd,JAMAICA,NY,11411,QUEENS,718-528-8238,Y,09:00,05:00,09:00,05:00,09:00,05:00,09:00,05:00,09:00,05:00,00:00,00:00,00:00,00:00,40.695105,-73.740004,413,27,596,4244354,4113210006,Cambria Heights,POINT (-73.740004 40.695105)
OLDER ADULT CENTER CONTRACTS,C0801,BERGEN BASIN ABE STARK OLDER ADULT CENTER (C08),BERGEN BASIN COMMUNITY DEVELOPMENT CORPORATION DBA MILLENNIU,103-15 Farragut Road,BROOKLYN,NY,11236,BROOKLYN,718-272-9515,Y,08:00,04:00,08:00,04:00,08:00,04:00,08:00,04:00,08:00,04:00,00:00,00:00,00:00,00:00,40.649668,-73.89929,318,42,1098,3229152,3081520201,East New York,POINT (-73.89929 40.649668)
OLDER ADULT CENTER CONTRACTS,C2501,FLORENCE E SMITH OAC (C25),CORONA CONGREGATIONAL CHURCH,102-19 34 Avenue,FLUSHING,NY,11368,QUEENS,718-899-0553,Y,08:00,04:00,08:00,04:00,08:00,04:00,08:00,04:00,08:00,04:00,00:00,00:00,00:00,00:00,40.755742,-73.865988,403,21,379,4042602,4017170033,North Corona,POINT (-73.865988 40.755742)
OLDER ADULT CENTER CONTRACTS,C7301,ST. GABRIEL'S EPISCOPAL CHURCH OAC (C73),ST GABRIELS EPISCOPAL CHURCH,331 Hawthorne Street,BROOKLYN,NY,11225,BROOKLYN,718-773-4049,Y,09:00,05:00,09:00,05:00,09:00,05:00,09:00,05:00,09:00,05:00,00:00,00:00,00:00,00:00,40.657919,-73.949217,309,40,804,3000000,3048140071,Prospect Lefferts Gardens-Wingate,POINT (-73.949217 40.657919)
ELDER ABUSE SERVICES CONTRACTS,4E101,JASA ELDER ABUSE QUEENS (4E1),THE JEWISH ASSOCIATION FOR SERVICES FOR THE AGED,97-77 Queens Boulevard,FLUSHING,NY,11374,QUEENS,718-286-1524,Y,09:00,05:00,09:00,05:00,09:00,05:00,09:00,05:00,09:00,05:00,00:00,00:00,00:00,00:00,40.728721,-73.858501,406,29,717,4050482,4020920001,Rego Park,POINT (-73.858501 40.728721)
OLDER ADULT CENTER CONTRACTS,C2601,COTHOA LUNCHEON CLUB (C26),COTHOA LUNCHEON CLUB INC,2005 Amsterdam Avenue NYC 10032,NEW YORK,NY,10032,MANHATTAN,212-781-6580,Y,08:00,04:00,08:00,04:00,08:00,04:00,08:00,04:00,08:00,04:00,00:00,00:00,00:00,00:00,40.834326,-73.940952,112,10,245,1062531,1021090003,Washington Heights South,POINT (-73.940952 40.834326)
OLDER ADULT CENTER CONTRACTS,C7502,ST NICKS ALLIANCE SWINGING SIXTIES OAC 2 (C75),ST. NICKS ALLIANCE CORP.,211 Ainslie Street,BROOKLYN,NY,11211,BROOKLYN,718-963-3793,Y,09:00,04:00,09:00,04:00,09:00,04:00,09:00,04:00,09:00,04:00,00:00,00:00,00:00,00:00,40.712972,-73.945453,301,34,495,3069039,3027700001,East Williamsburg,POINT (-73.945453 40.712972)
OLDER ADULT CENTER CONTRACTS,C2901,DORCHESTER SENIOR CITIZENS CENTER OAC (C29),DORCHESTER SENIOR CITIZENS CENTER INC,1419 Dorchester Road,BROOKLYN,NY,11226,BROOKLYN,718-941-6700,Y,08:00,04:00,08:00,04:00,08:00,04:00,08:00,04:00,08:00,04:00,00:00,00:00,00:00,00:00,40.638972,-73.964689,314,40,520,3118688,3051570035,Flatbush,POINT (-73.964689 40.638972)
OLDER ADULT CENTER CONTRACTS,W2302,SHOPP SOUNDVIEW SOCIAL CLUB (W23),THE NEIGHBORHOOD SELF-HELP BY OLDER PERSONS PROJECT INC,1674 Seward Avenue,BRONX,NY,10473,BRONX,929-263-1182,Y,09:00,05:00,09:00,05:00,09:00,05:00,09:00,05:00,09:00,05:00,00:00,00:00,00:00,00:00,40.818255,-73.869832,209,18,20,2092638,2035510001,Soundview-Castle Hill-Clason Point-Harding Park,POINT (-73.869832 40.818255)
OLDER ADULT CENTER CONTRACTS,C0503,ARC XVI FORT WASHINGTON OAC (C05),ARC XVI FORT WASHINGTON INC,516-520 W 181th Street NY NY  OR 4111 B,NEW YORK,NY,10033,MANHATTAN,212-781-5700,Y,09:00,05:00,09:00,05:00,09:00,05:00,09:00,05:00,09:00,05:00,00:00,00:00,00:00,00:00,40.848436,-73.93165,112,10,269,1063614,1021520067,Washington Heights North,POINT (-73.93165 40.848436)
OLDER ADULT CENTER CONTRACTS,W1908,PSS HIGHBRIDGE (W19),PRESBYTERIAN SENIOR SERVICES,1181 Nelson Avenue,BRONX,NY,10452,BRONX,718-588-3004,Y,08:00,04:00,08:00,04:00,08:00,04:00,08:00,04:00,08:00,04:00,00:00,00:00,00:00,00:00,40.837232,-73.925706,204,16,199,2003301,2025160051,Highbridge,POINT (-73.925706 40.837232)
CAREGIVER SERVICES CONTRACTS,4K101,SUNNYSIDE COMMUNITY SERVICES (4K1),SUNNYSIDE COMMUNITY SERVICES INC,43-31 39 street,LONG ISLAND CITY,NY,11104,QUEENS,718-392-6945,Y,09:00,05:00,09:00,05:00,09:00,05:00,09:00,05:00,09:00,05:00,00:00,00:00,00:00,00:00,40.74519,-73.925909,402,26,179,4436677,4001910005,Hunters Point-Sunnyside-West Maspeth,POINT (-73.925909 40.74519)
OLDER ADULT CENTER CONTRACTS,C1701,CCNS BAYSIDE OAC (C17),CATHOLIC CHARITIES NEIGHBORHOOD SERVICES INC,221-15 Horace Harding Expressway,FLUSHING,NY,11364,QUEENS,718-225-1144,Y,08:00,04:00,08:00,04:00,08:00,04:00,08:00,04:00,08:00,04:00,00:00,00:00,00:00,00:00,40.749688,-73.756559,411,23,138501,4161696,4075270065,Oakland Gardens,POINT (-73.756559 40.749688)
OLDER ADULT CENTER CONTRACTS,C5807,RAIN MIDDLETOWN OAC (C58),REGIONAL AID FOR INTERIM NEEDS INC,3035 Middletown Road,BRONX,NY,10461,BRONX,718-822-0486,Y,08:00,04:00,08:00,04:00,08:00,04:00,08:00,04:00,08:00,04:00,00:00,00:00,00:00,00:00,40.844355,-73.828806,210,13,26602,2046141,2041710024,Pelham Bay-Country Club-City Island,POINT (-73.828806 40.844355)
OLDER ADULT CENTER CONTRACTS,C1704,CCNS HOWARD BEACH OAC (C17),CATHOLIC CHARITIES NEIGHBORHOOD SERVICES INC,155-55 Cross Bay Blvd,JAMAICA,NY,11414,QUEENS,718-738-8100,Y,08:00,04:00,08:00,04:00,08:00,04:00,08:00,04:00,08:00,04:00,00:00,00:00,00:00,00:00,40.664372,-73.841152,410,32,884,4442269,4115880075,Lindenwood-Howard Beach,POINT (-73.841152 40.664372)
OLDER ADULT CENTER CONTRACTS,C1802,WEST BRIGHTON NEIGHBORHOOD SENIOR CENTER (C18),CATHOLIC CHARITIES OF STATEN ISLAND INC.,230 Broadway,STATEN ISLAND,NY,10310,STATEN ISLAND,718-727-9793,Y,08:00,04:00,08:00,04:00,08:00,04:00,08:00,04:00,08:00,04:00,00:00,00:00,00:00,00:00,40.636486,-74.117523,501,49,13301,5095818,5001960001,West New Brighton-New Brighton-St. George,POINT (-74.117523 40.636486)
OLDER ADULT CENTER CONTRACTS,C4801,KIPS BAY CASTLE HILL OAC (C48),KIPS BAY BOYS AND GIRLS CLUB,625 Castle Hill Avenue,BRONX,NY,10473,BRONX,718-319-9156,Y,08:00,04:00,08:00,04:00,08:00,04:00,08:00,04:00,08:00,04:00,00:00,00:00,00:00,00:00,40.819754,-73.848209,209,18,86,2092673,2035700001,Soundview-Castle Hill-Clason Point-Harding Park,POINT (-73.848209 40.819754)
OLDER ADULT CENTER CONTRACTS,C1203,BCA 6TH AVENUE OLDER ADULT CENTER (C12),BROOKLYN CHINESE-AMERICAN ASSOCIATION INC,545 60th Street,BROOKLYN,NY,11200,BROOKLYN,718-567-9311,Y,09:00,05:00,09:00,05:00,09:00,05:00,09:00,05:00,09:00,05:00,00:00,00:00,00:00,00:00,40.638869,-74.015137,307,38,102,3337343,3008640001,Sunset Park East,POINT (-74.015137 40.638869)
CASE MANAGEMENT SERVICES CONTRACTS,2MP01,RIDGEWOOD BUSHWICK CASE MANAGEMENT BK-01 (2MP),RISEBORO COMMUNITY PARTNERSHIP INC,1175 Gates Avenue,BROOKLYN,NY,11221,BROOKLYN,718-256-6626,Y,09:00,05:00,09:00,05:00,09:00,05:00,09:00,05:00,09:00,05:00,00:00,00:00,00:00,00:00,40.691707,-73.919907,304,34,399,3076253,3033310025,Bushwick South,POINT (-73.919907 40.691707)
OLDER ADULT CENTER CONTRACTS,C9003,WAYSIDE OUT TILDEN SENIOR CENTER (C90),WAYSIDE OUT-REACH DEVELOPMENT INC,630 Mother Gaston Blvd,BROOKLYN,NY,11212,BROOKLYN,718-498-2990,Y,09:00,05:00,09:00,05:00,09:00,05:00,09:00,05:00,09:00,05:00,00:00,00:00,00:00,00:00,40.663471,-73.905278,316,41,912,3326549,3035760001,Brownsville,POINT (-73.905278 40.663471)
OLDER ADULT CENTER CONTRACTS,C1711,CCNS PETE MCGUINNESS OAC (C17),CATHOLIC CHARITIES NEIGHBORHOOD SERVICES INC,715 Leonard Street,BROOKLYN,NY,11222,BROOKLYN,718-383-1940,Y,08:00,04:00,08:00,04:00,08:00,04:00,08:00,04:00,08:00,04:00,00:00,00:00,00:00,00:00,40.729007,-73.95276,301,33,575,3333076,3025740053,Greenpoint,POINT (-73.95276 40.729007)
OLDER ADULT CENTER CONTRACTS,C4901,KOREAN COMMUNITY SERVICES CORONA OAC (C49),KOREAN COMMUNITY SERVICES OF METROPOLITAN NEW YORK INC,37-06 111th Street,FLUSHING,NY,11368,QUEENS,718-651-9220,Y,09:00,05:00,09:00,05:00,09:00,05:00,09:00,05:00,09:00,05:00,00:00,00:00,00:00,00:00,40.753941,-73.857264,403,21,401,4430244,4017780027,North Corona,POINT (-73.857264 40.753941)
OLDER ADULT CENTER CONTRACTS,C3102,EAST SIDE HOUSE MELROSE OLDER ADULT CENTER (C31),EAST SIDE HOUSE INC,372 E152 St Bronx NY 10455,BRONX,NY,10455,BRONX,718-665-2280,Y,08:00,04:00,08:00,04:00,08:00,04:00,08:00,04:00,08:00,04:00,00:00,00:00,00:00,00:00,40.818516,-73.91793,201,17,67,2090413,2023980014,Melrose South-Mott Haven North,POINT (-73.91793 40.818516)
HOMECARE SERVICES CONTRACTS,2HB01,01-PERSONAL TOUCH BROOKLYN (2HB),PERSONAL-TOUCH HOME CARE OF N.Y. INC.,36-36 33rd Street Suite 501,LONG ISLAND CITY,NY,11106,QUEENS,718-468-2500,Y,09:00,05:00,09:00,05:00,09:00,05:00,09:00,05:00,09:00,05:00,00:00,00:00,00:00,00:00,40.755141,-73.928728,401,26,55,4007923,4006010001,Queensbridge-Ravenswood-Long Island City,POINT (-73.928728 40.755141)
OLDER ADULT CENTER CONTRACTS,W2102,SELFHELP BENJAMIN ROSENTHAL (W21),SELFHELP COMMUNITY SERVICES INC,45-25 Kissena Boulevard,FLUSHING,NY,11355,QUEENS,718-886-5777,Y,08:30,04:00,08:30,04:00,08:30,04:00,08:30,04:00,08:30,04:00,08:30,04:00,00:00,00:00,40.751765,-73.820331,407,20,1205,4117390,4052000052,East Flushing,POINT (-73.820331 40.751765)
OLDER ADULT CENTER CONTRACTS,C2001,MMCC-CDC OLDER ADULT CENTER FORT INDEPENDENCE (C20),CHILD DEVELOPMENT CENTER OF THE MOSHOLU-MONTEFIORE COMMMUNIT,3350 Bailey Avenue Bronx,BRONX,NY,10463,BRONX,718-796-2950,Y,09:00,05:00,09:00,05:00,09:00,05:00,09:00,05:00,09:00,05:00,00:00,00:00,00:00,00:00,40.880093,-73.900742,208,14,277,2086835,2032610102,Van Cortlandt Village,POINT (-73.900742 40.880093)
OLDER ADULT CENTER CONTRACTS,W1910,PSS CITY ISLAND (W19),PRESBYTERIAN SENIOR SERVICES,116 City Island Avenue,BRONX,NY,10464,BRONX,718-885-0727,Y,08:00,03:00,08:00,03:00,08:00,03:00,08:00,03:00,08:00,03:00,00:00,00:00,00:00,00:00,40.841097,-73.784187,210,13,516,2082432,2056400010,Pelham Bay-Country Club-City Island,POINT (-73.784187 40.841097)
OLDER ADULT CENTER CONTRACTS,C5805,RAIN GUNHILL OAC (C58),REGIONAL AID FOR INTERIM NEEDS INC,3377 White Plains Road,BRONX,NY,10462,BRONX,718-881-5589,Y,08:00,04:00,08:00,04:00,08:00,04:00,08:00,04:00,08:00,04:00,00:00,00:00,00:00,00:00,40.874872,-73.86706,212,12,374,2087299,2046240037,Williamsbridge-Olinville,POINT (-73.86706 40.874872)
OLDER ADULT CENTER CONTRACTS,W1401,ENCORE AT ST MALACHY'S (W14),ENCORE COMMUNITY SERVICES,239 West 49th Street,NEW YORK,NY,10019,MANHATTAN,212-581-2910,Y,08:00,04:00,08:00,04:00,08:00,04:00,08:00,04:00,08:00,04:00,00:00,00:00,00:00,00:00,40.761143,-73.985312,105,03,125,1024789,1010210009,Midtown-Midtown South,POINT (-73.985312 40.761143)
OLDER ADULT CENTER CONTRACTS,W1902,PSS DAVIDSON (W19),PRESBYTERIAN SENIOR SERVICES,950 Union Avenue,BRONX,NY,10459,BRONX,718-328-2811,Y,08:00,04:00,08:00,04:00,08:00,04:00,08:00,04:00,08:00,04:00,00:00,00:00,00:00,00:00,40.822812,-73.901821,203,17,12901,2005015,2026780001,Longwood,POINT (-73.901821 40.822812)
OLDER ADULT CENTER CONTRACTS,C2602,POLO GROUNDS SATELLITE (MN10) (C26),COTHOA LUNCHEON CLUB INC,2965 Frederick Douglass Blvd,NEW YORK,NY,10039,MANHATTAN,212-283-5475,Y,09:00,05:00,09:00,05:00,09:00,05:00,09:00,05:00,09:00,05:00,00:00,00:00,00:00,00:00,40.830242,-73.9365,110,09,24302,1084520,1021060003,Central Harlem North-Polo Grounds,POINT (-73.9365 40.830242)
OLDER ADULT CENTER CONTRACTS,C0202,ALLEN INTERNATIONAL TOWERS AFFILIATE (C02),ALLEN AME CHURCH dba ALLEN COMMUNITY SENIOR CITIZENS CENTER,90-20 170th St,JAMAICA,NY,11432,QUEENS,718-657-5075,Y,09:00,05:00,09:00,05:00,09:00,05:00,09:00,05:00,09:00,05:00,00:00,00:00,00:00,00:00,40.708578,-73.790579,412,27,460,4209721,4098020041,Jamaica,POINT (-73.790579 40.708578)
ELDER ABUSE SERVICES CONTRACTS,1E101,ELDER ABUSE PREVENTION (1E1),THE NEIGHBORHOOD SELF-HELP BY OLDER PERSONS PROJECT INC,975 Kelly Street Suite 401,BRONX,NY,10459,BRONX,718-542-0006,Y,09:00,05:00,09:00,05:00,09:00,05:00,09:00,05:00,09:00,05:00,00:00,00:00,00:00,00:00,40.822052,-73.895879,202,17,87,2114693,2027037501,Longwood,POINT (-73.895879 40.822052)
OLDER ADULT CENTER CONTRACTS,C3508,GRANT SQ OAC (C35),FORT GREENE COUNCIL,19 Rogers Avenue,BROOKLYN,NY,11216,BROOKLYN,718-363-3133,Y,09:00,05:00,09:00,05:00,09:00,05:00,09:00,05:00,09:00,05:00,00:00,00:00,00:00,00:00,40.676909,-73.952667,308,36,315,3030302,3012120006,Crown Heights North,POINT (-73.952667 40.676909)
LEGAL SERVICES CONTRACTS,1AA01,LSNY BRONX (1AA),LSNY-BRONX CORPORATION,349 EAST 149TH STREET,BRONX,NY,10451,BRONX,917-661-4500,Y,09:00,05:00,09:00,05:00,09:00,05:00,09:00,05:00,09:00,05:00,00:00,00:00,00:00,00:00,40.81667,-73.919959,201,17,65,2000933,2023317501,Melrose South-Mott Haven North,POINT (-73.919959 40.81667)
OLDER ADULT CENTER CONTRACTS,C7705,TODT HILL OAC (C77),STATEN ISLAND COMMUNITY SERVICES FRIENDSHIP CLUBS INC,184 SCHMIDTS LANE,STATEN ISLAND,NY,10314,STATEN ISLAND,718-698-7979,Y,08:00,04:00,08:00,04:00,08:00,04:00,08:00,04:00,08:00,04:00,00:00,00:00,00:00,00:00,40.609058,-74.119053,502,49,173,5108960,5007060001,New Springville-Bloomfield-Travis,POINT (-74.119053 40.609058)
OLDER ADULT CENTER CONTRACTS,C5901,RIDGEWOOD OLDER ADULT CENTER AND SERVICES (C59),RIDGEWOOD OLDER ADULT CENTER AND SERVICES INC,5914 70th Avenue,FLUSHING,NY,11385,QUEENS,718-456-2000,Y,08:30,04:00,08:30,04:00,08:30,04:00,08:30,04:00,08:30,04:00,00:00,00:00,00:00,00:00,40.701191,-73.900024,405,30,583,4084122,4035080009,Ridgewood,POINT (-73.900024 40.701191)
OLDER ADULT CENTER CONTRACTS,W1202,BAY RIDGE CTR FOR HEALTH AND WELLNESS (W12),BAY RIDGE CENTER INC d/b/a BAY RIDGE CENTER,15 Bay Ridge Ave Brooklyn NY 11209  O,BROOKLYN,NY,11209,BROOKLYN,718-748-0650,Y,09:00,05:00,09:00,05:00,09:00,05:00,09:00,05:00,09:00,05:00,00:00,00:00,00:00,00:00,40.638645,-74.035376,310,43,34,3144947,3058590060,Bay Ridge,POINT (-74.035376 40.638645)
HOMECARE SERVICES CONTRACTS,1H501,PERSONAL-TOUCH HOME CARE OF N.Y. INC. (1H5),PERSONAL-TOUCH HOME CARE OF N.Y. INC.,36-36 33rd Street Suite 501,LONG ISLAND CITY,NY,11106,QUEENS,718-468-2500,Y,09:00,05:00,09:00,05:00,09:00,05:00,09:00,05:00,09:00,05:00,00:00,00:00,00:00,00:00,40.755141,-73.928728,401,26,55,4007923,4006010001,Queensbridge-Ravenswood-Long Island City,POINT (-73.928728 40.755141)
OLDER ADULT CENTER CONTRACTS,W1703,STAPELTON OAC (W17),JEWISH COMMUNITY CENTER OF STATEN ISLAND INC,189 Gordon Street,STATEN ISLAND,NY,10304,STATEN ISLAND,718-981-8828,Y,08:00,04:00,08:00,04:00,08:00,04:00,08:00,04:00,08:00,04:00,00:00,00:00,00:00,00:00,40.623124,-74.082838,501,49,29,5108860,5005450100,Stapleton-Rosebank,POINT (-74.082838 40.623124)
CAREGIVER SERVICES CONTRACTS,4K301,SNAP CAREGIVER PROGRAM (4K3),SERVICES NOW FOR ADULT PERSONS INC,80-45 WINCHESTER BOULEVARD,JAMAICA,NY,11427,QUEENS,718-527-5380,Y,08:00,04:00,08:00,04:00,08:00,04:00,08:00,04:00,08:00,04:00,00:00,00:00,00:00,00:00,40.737685,-73.734021,413,23,1567,4537294,4078800400,Bellerose,POINT (-73.734021 40.737685)
